{
  "cities": [
    { "label": "1e Exloërmond", "name": "1e Exloërmond", "zip": "9573" },
    { "label": "2e Exloërmond", "name": "2e Exloërmond", "zip": "9571" },
    { "label": "2e Valthermond", "name": "2e Valthermond", "zip": "7877" },
    { "label": "Aalden", "name": "Aalden", "zip": "7854" },
    {
      "label": "Alteveer (De Wolden)",
      "name": "Alteveer (De Wolden)",
      "zip": "7927"
    },
    {
      "label": "Alteveer (Noordenveld)",
      "name": "Alteveer (Noordenveld)",
      "zip": "9306"
    },
    {
      "label": "Alteveer gem Hoogeveen",
      "name": "Alteveer gem Hoogeveen",
      "zip": "7907"
    },
    { "label": "Amen", "name": "Amen", "zip": "9446" },
    { "label": "Anderen", "name": "Anderen", "zip": "9465" },
    { "label": "Anloo", "name": "Anloo", "zip": "9467" },
    { "label": "Annen", "name": "Annen", "zip": "9468" },
    {
      "label": "Annerveenschekanaal",
      "name": "Annerveenschekanaal",
      "zip": "9654"
    },
    {
      "label": "Ansen (De Wolden)",
      "name": "Ansen (De Wolden)",
      "zip": "7964"
    },
    {
      "label": "Ansen (Westerveld)",
      "name": "Ansen (Westerveld)",
      "zip": "7964"
    },
    { "label": "Assen", "name": "Assen", "zip": "9400" },
    { "label": "Hijken", "name": "Hijken", "zip": "9415" },
    { "label": "Hollandscheveld", "name": "Hollandscheveld", "zip": "7913" },
    { "label": "Holsloot", "name": "Holsloot", "zip": "7845" },
    {
      "label": "Hoogersmilde (Midden-Drenthe)",
      "name": "Hoogersmilde (Midden-Drenthe)",
      "zip": "9423"
    },
    {
      "label": "Hoogersmilde (Westerveld)",
      "name": "Hoogersmilde (Westerveld)",
      "zip": "9423"
    },
    { "label": "Hoogeveen", "name": "Hoogeveen", "zip": "7900" },
    { "label": "Zuidlaren", "name": "Zuidlaren", "zip": "9471" },
    { "label": "Zuidveld", "name": "Zuidveld", "zip": "9432" },
    { "label": "Zuidvelde", "name": "Zuidvelde", "zip": "9335" },
    {
      "label": "Zuidwolde (De Wolden)",
      "name": "Zuidwolde (De Wolden)",
      "zip": "7921"
    },
    { "label": "Zwartemeer", "name": "Zwartemeer", "zip": "7894" },
    { "label": "Zweeloo", "name": "Zweeloo", "zip": "7851" },
    { "label": "Zwiggelte", "name": "Zwiggelte", "zip": "9433" },
    { "label": "Zwinderen", "name": "Zwinderen", "zip": "7864" },
    { "label": "Almere", "name": "Almere", "zip": "1300" },
    { "label": "Lelystad", "name": "Lelystad", "zip": "8222" },
    { "label": "Dronryp", "name": "Dronryp", "zip": "9035" },
    { "label": "Eagum", "name": "Eagum", "zip": "9006" },
    { "label": "Earnewâld", "name": "Earnewâld", "zip": "9264" },
    { "label": "Easterein", "name": "Easterein", "zip": "8734" },
    { "label": "Easterlittens", "name": "Easterlittens", "zip": "8835" },
    { "label": "Eastermar", "name": "Eastermar", "zip": "9260" },
    { "label": "Easterwierrum", "name": "Easterwierrum", "zip": "9021" },
    {
      "label": "Echten (De Friese Meren)",
      "name": "Echten (De Friese Meren)",
      "zip": "8537"
    },
    { "label": "Echtenerbrug", "name": "Echtenerbrug", "zip": "8539" },
    { "label": "Ee", "name": "Ee", "zip": "9131" },
    { "label": "Eesterga", "name": "Eesterga", "zip": "8534" },
    { "label": "Elahuizen", "name": "Elahuizen", "zip": "8581" },
    {
      "label": "Elsloo (Ooststellingwerf)",
      "name": "Elsloo (Ooststellingwerf)",
      "zip": "8421"
    },
    { "label": "Engwierum", "name": "Engwierum", "zip": "9132" },
    { "label": "Exmorra", "name": "Exmorra", "zip": "8759" },
    { "label": "Feanwâlden", "name": "Feanwâlden", "zip": "9269" },
    { "label": "Feinsum", "name": "Feinsum", "zip": "9053" },
    { "label": "Ferwert", "name": "Ferwert", "zip": "9172" },
    { "label": "Ferwoude", "name": "Ferwoude", "zip": "8761" },
    { "label": "Firdgum", "name": "Firdgum", "zip": "8852" },
    { "label": "Fochteloo", "name": "Fochteloo", "zip": "8428" },
    { "label": "Follega", "name": "Follega", "zip": "8535" },
    { "label": "Folsgare", "name": "Folsgare", "zip": "8771" },
    { "label": "Formerum", "name": "Formerum", "zip": "8894" },
    { "label": "Foudgum", "name": "Foudgum", "zip": "9154" },
    { "label": "Franeker", "name": "Franeker", "zip": "8800" },
    { "label": "Ureterp", "name": "Ureterp", "zip": "9247" },
    { "label": "Veenklooster", "name": "Veenklooster", "zip": "9297" },
    { "label": "Vegelinsoord", "name": "Vegelinsoord", "zip": "8467" },
    { "label": "Vinkega", "name": "Vinkega", "zip": "8393" },
    { "label": "Vlieland", "name": "Vlieland", "zip": "8899" },
    { "label": "Vrouwenparochie", "name": "Vrouwenparochie", "zip": "9077" },
    { "label": "Waaksens", "name": "Waaksens", "zip": "8845" },
    { "label": "Waaxens", "name": "Waaxens", "zip": "9152" },
    { "label": "Wâlterswâld", "name": "Wâlterswâld", "zip": "9113" },
    { "label": "Wânswert", "name": "Wânswert", "zip": "9178" },
    { "label": "Warfstermolen", "name": "Warfstermolen", "zip": "9852" },
    { "label": "Warns", "name": "Warns", "zip": "8721" },
    { "label": "Warstiens", "name": "Warstiens", "zip": "9004" },
    { "label": "Warten", "name": "Warten", "zip": "9003" },
    { "label": "Waskemeer", "name": "Waskemeer", "zip": "8434" },
    { "label": "Weidum", "name": "Weidum", "zip": "9024" },
    { "label": "Wergea", "name": "Wergea", "zip": "9005" },
    { "label": "Westergeest", "name": "Westergeest", "zip": "9295" },
    { "label": "Westhem", "name": "Westhem", "zip": "8616" },
    { "label": "Westhoek", "name": "Westhoek", "zip": "9075" },
    {
      "label": "West-Terschelling",
      "name": "West-Terschelling",
      "zip": "8880"
    },
    { "label": "Wetsens", "name": "Wetsens", "zip": "9122" },
    { "label": "Wier", "name": "Wier", "zip": "9043" },
    { "label": "Wierum", "name": "Wierum", "zip": "9141" },
    { "label": "Wijckel", "name": "Wijckel", "zip": "8563" },
    { "label": "Wijnaldum", "name": "Wijnaldum", "zip": "8857" },
    { "label": "Wijnjewoude", "name": "Wijnjewoude", "zip": "9240" },
    {
      "label": "Winsum (Littenseradiel)",
      "name": "Winsum (Littenseradiel)",
      "zip": "8830"
    },
    { "label": "Wirdum", "name": "Wirdum", "zip": "8939" },
    { "label": "Witmarsum", "name": "Witmarsum", "zip": "8748" },
    { "label": "Wiuwert", "name": "Wiuwert", "zip": "8637" },
    { "label": "Wjelsryp", "name": "Wjelsryp", "zip": "8842" },
    { "label": "Wolsum", "name": "Wolsum", "zip": "8774" },
    { "label": "Wolvega", "name": "Wolvega", "zip": "8470" },
    { "label": "Arnhem", "name": "Arnhem", "zip": "6823" },
    { "label": "Didam", "name": "Didam", "zip": "6941" },
    { "label": "Dieren", "name": "Dieren", "zip": "6950" },
    { "label": "Dinxperlo", "name": "Dinxperlo", "zip": "7090" },
    { "label": "Dodewaard", "name": "Dodewaard", "zip": "6669" },
    { "label": "Elst", "name": "Elst", "zip": "6661" },
    { "label": "Empe", "name": "Empe", "zip": "7399" },
    { "label": "Emst", "name": "Emst", "zip": "8166" },
    { "label": "Enspijk", "name": "Enspijk", "zip": "4157" },
    { "label": "Epe", "name": "Epe", "zip": "8160" },
    { "label": "Hoog-Keppel", "name": "Hoog-Keppel", "zip": "6997" },
    { "label": "Horssen", "name": "Horssen", "zip": "6617" },
    { "label": "Huissen", "name": "Huissen", "zip": "6850" },
    { "label": "Hulshorst", "name": "Hulshorst", "zip": "8077" },
    { "label": "Hummelo", "name": "Hummelo", "zip": "6999" },
    { "label": "Hurwenen", "name": "Hurwenen", "zip": "5327" },
    { "label": "IJzendoorn", "name": "IJzendoorn", "zip": "4053" },
    { "label": "Ingen", "name": "Ingen", "zip": "4030" },
    { "label": "Joppe", "name": "Joppe", "zip": "7215" },
    { "label": "Kapel Avezaath", "name": "Kapel Avezaath", "zip": "4013" },
    { "label": "Kapel-Avezaath", "name": "Kapel-Avezaath", "zip": "4016" },
    { "label": "Keijenborg", "name": "Keijenborg", "zip": "7255" },
    { "label": "Kekerdom", "name": "Kekerdom", "zip": "6579" },
    { "label": "Kerk Avezaath", "name": "Kerk Avezaath", "zip": "4017" },
    { "label": "Kerk-Avezaath", "name": "Kerk-Avezaath", "zip": "4012" },
    { "label": "Kerkdriel", "name": "Kerkdriel", "zip": "5330" },
    { "label": "Nijmegen", "name": "Nijmegen", "zip": "6524" },
    { "label": "Steenenkamer", "name": "Steenenkamer", "zip": "7439" },
    { "label": "Stokkum", "name": "Stokkum", "zip": "7039" },
    { "label": "Stroe", "name": "Stroe", "zip": "3776" },
    { "label": "'t Harde", "name": "'t Harde", "zip": "8084" },
    { "label": "'t Loo Oldebroek", "name": "'t Loo Oldebroek", "zip": "8095" },
    { "label": "Terborg", "name": "Terborg", "zip": "7005" },
    { "label": "Terschuur", "name": "Terschuur", "zip": "3784" },
    { "label": "Terwolde", "name": "Terwolde", "zip": "7396" },
    { "label": "Teuge", "name": "Teuge", "zip": "7395" },
    { "label": "Tiel", "name": "Tiel", "zip": "1954" },
    { "label": "Westervoort", "name": "Westervoort", "zip": "6931" },
    { "label": "Weurt", "name": "Weurt", "zip": "6550" },
    { "label": "Wezep", "name": "Wezep", "zip": "8090" },
    { "label": "Wichmond", "name": "Wichmond", "zip": "7234" },
    { "label": "Wijchen", "name": "Wijchen", "zip": "6600" },
    { "label": "Foxhol", "name": "Foxhol", "zip": "9607" },
    { "label": "Froombosch", "name": "Froombosch", "zip": "9619" },
    { "label": "Garmerwolde", "name": "Garmerwolde", "zip": "9798" },
    { "label": "Garnwerd", "name": "Garnwerd", "zip": "9893" },
    { "label": "Garrelsweer", "name": "Garrelsweer", "zip": "9793" },
    { "label": "Garsthuizen", "name": "Garsthuizen", "zip": "9919" },
    { "label": "Glimmen", "name": "Glimmen", "zip": "9756" },
    { "label": "Godlinze", "name": "Godlinze", "zip": "9908" },
    { "label": "Grijpskerk", "name": "Grijpskerk", "zip": "9843" },
    { "label": "Groningen", "name": "Groningen", "zip": "9700" },
    { "label": "Hoogezand", "name": "Hoogezand", "zip": "9603" },
    { "label": "Hornhuizen", "name": "Hornhuizen", "zip": "9978" },
    { "label": "Houwerzijl", "name": "Houwerzijl", "zip": "9973" },
    { "label": "Huizinge", "name": "Huizinge", "zip": "9992" },
    { "label": "Jonkersvaart", "name": "Jonkersvaart", "zip": "9366" },
    { "label": "Kantens", "name": "Kantens", "zip": "9995" },
    { "label": "Kiel-Windeweer", "name": "Kiel-Windeweer", "zip": "9605" },
    { "label": "Kloosterburen", "name": "Kloosterburen", "zip": "9977" },
    { "label": "Kolham", "name": "Kolham", "zip": "9615" },
    { "label": "Kommerzijl", "name": "Kommerzijl", "zip": "9801" },
    { "label": "Kornhorn", "name": "Kornhorn", "zip": "9864" },
    { "label": "Krewerd", "name": "Krewerd", "zip": "9904" },
    { "label": "Kropswolde", "name": "Kropswolde", "zip": "9606" },
    { "label": "Lageland", "name": "Lageland", "zip": "9617" },
    { "label": "Lauwersoog", "name": "Lauwersoog", "zip": "9976" },
    { "label": "Lauwerzijl", "name": "Lauwerzijl", "zip": "9885" },
    { "label": "Leek", "name": "Leek", "zip": "9350" },
    { "label": "Leens", "name": "Leens", "zip": "9965" },
    { "label": "Leermens", "name": "Leermens", "zip": "9912" },
    { "label": "Lellens", "name": "Lellens", "zip": "9794" },
    { "label": "Lettelbert", "name": "Lettelbert", "zip": "9827" },
    { "label": "Loppersum", "name": "Loppersum", "zip": "9793" },
    { "label": "Losdorp", "name": "Losdorp", "zip": "9907" },
    { "label": "Lucaswolde", "name": "Lucaswolde", "zip": "9825" },
    { "label": "Luddeweer", "name": "Luddeweer", "zip": "9624" },
    { "label": "Lutjegast", "name": "Lutjegast", "zip": "9866" },
    { "label": "Marum", "name": "Marum", "zip": "9363" },
    { "label": "Zandeweer", "name": "Zandeweer", "zip": "9997" },
    { "label": "Zeerijp", "name": "Zeerijp", "zip": "9912" },
    {
      "label": "Zevenhuizen (Leek)",
      "name": "Zevenhuizen (Leek)",
      "zip": "9354"
    },
    { "label": "Zijldijk", "name": "Zijldijk", "zip": "9987" },
    { "label": "Zoutkamp", "name": "Zoutkamp", "zip": "9974" },
    { "label": "Zuidbroek", "name": "Zuidbroek", "zip": "9636" },
    { "label": "Zuidhorn", "name": "Zuidhorn", "zip": "9800" },
    {
      "label": "Zuidwolde (Bedum)",
      "name": "Zuidwolde (Bedum)",
      "zip": "7920"
    },
    { "label": "Zuurdijk", "name": "Zuurdijk", "zip": "9883" },
    { "label": "Afferden L", "name": "Afferden L", "zip": "5851" },
    { "label": "America", "name": "America", "zip": "5866" },
    { "label": "Amstenrade", "name": "Amstenrade", "zip": "6436" },
    { "label": "Arcen", "name": "Arcen", "zip": "5944" },
    {
      "label": "Baarlo (Peel en Maas)",
      "name": "Baarlo (Peel en Maas)",
      "zip": "5990"
    },
    { "label": "Heerlen", "name": "Heerlen", "zip": "6411" },
    { "label": "Maastricht", "name": "Maastricht", "zip": "6217" },
    { "label": "Sittard", "name": "Sittard", "zip": "6135" },
    { "label": "Slenaken", "name": "Slenaken", "zip": "6277" },
    { "label": "Smakt", "name": "Smakt", "zip": "5817" },
    { "label": "Spaubeek", "name": "Spaubeek", "zip": "6176" },
    { "label": "Stein", "name": "Stein", "zip": "6170" },
    { "label": "Stevensweert", "name": "Stevensweert", "zip": "6107" },
    { "label": "Steyl", "name": "Steyl", "zip": "5935" },
    { "label": "Asten", "name": "Asten", "zip": "5721" },
    { "label": "Baarle-Nassau", "name": "Baarle-Nassau", "zip": "5109" },
    { "label": "Babyloniënbroek", "name": "Babyloniënbroek", "zip": "4269" },
    { "label": "Bakel", "name": "Bakel", "zip": "5760" },
    { "label": "Bavel", "name": "Bavel", "zip": "4841" },
    { "label": "Bavel AC", "name": "Bavel AC", "zip": "4859" },
    { "label": "Beek en Donk", "name": "Beek en Donk", "zip": "5740" },
    { "label": "Breda", "name": "Breda", "zip": "4823" },
    { "label": "Eindhoven", "name": "Eindhoven", "zip": "5628" },
    { "label": "Hedikhuizen", "name": "Hedikhuizen", "zip": "5256" },
    { "label": "Heerle", "name": "Heerle", "zip": "4726" },
    { "label": "Heesbeen", "name": "Heesbeen", "zip": "5256" },
    { "label": "Heesch", "name": "Heesch", "zip": "5384" },
    { "label": "Heeswijk-Dinther", "name": "Heeswijk-Dinther", "zip": "5473" },
    { "label": "Heeze", "name": "Heeze", "zip": "5590" },
    { "label": "Heijningen", "name": "Heijningen", "zip": "4671" },
    { "label": "Helenaveen", "name": "Helenaveen", "zip": "5759" },
    { "label": "Helmond", "name": "Helmond", "zip": "5700" },
    { "label": "Mill", "name": "Mill", "zip": "5451" },
    { "label": "Moerdijk", "name": "Moerdijk", "zip": "4780" },
    { "label": "Moergestel", "name": "Moergestel", "zip": "5066" },
    { "label": "Moerstraten", "name": "Moerstraten", "zip": "4727" },
    { "label": "Molenschot", "name": "Molenschot", "zip": "5124" },
    { "label": "Neerkant", "name": "Neerkant", "zip": "5758" },
    { "label": "Neerlangel", "name": "Neerlangel", "zip": "5371" },
    { "label": "Neerloon", "name": "Neerloon", "zip": "5371" },
    { "label": "Netersel", "name": "Netersel", "zip": "5534" },
    { "label": "Nieuwendijk", "name": "Nieuwendijk", "zip": "4255" },
    { "label": "Nieuwkuijk", "name": "Nieuwkuijk", "zip": "5253" },
    { "label": "Nieuw-Vossemeer", "name": "Nieuw-Vossemeer", "zip": "4681" },
    { "label": "Nispen", "name": "Nispen", "zip": "4709" },
    { "label": "Nistelrode", "name": "Nistelrode", "zip": "5388" },
    { "label": "Noordhoek", "name": "Noordhoek", "zip": "4759" },
    { "label": "Riel", "name": "Riel", "zip": "5133" },
    { "label": "Riethoven", "name": "Riethoven", "zip": "5560" },
    { "label": "Rijen", "name": "Rijen", "zip": "5120" },
    { "label": "Rijkevoort", "name": "Rijkevoort", "zip": "5447" },
    {
      "label": "Rijkevoort-De Walsert",
      "name": "Rijkevoort-De Walsert",
      "zip": "5449"
    },
    { "label": "Rijsbergen", "name": "Rijsbergen", "zip": "4890" },
    { "label": "Rijswijk", "name": "Rijswijk", "zip": "4284" },
    { "label": "Roosendaal", "name": "Roosendaal", "zip": "4700" },
    {
      "label": "Sint-Michielsgestel",
      "name": "Sint-Michielsgestel",
      "zip": "5271"
    },
    { "label": "Sint-Oedenrode", "name": "Sint-Oedenrode", "zip": "5298" },
    { "label": "Sleeuwijk", "name": "Sleeuwijk", "zip": "4254" },
    { "label": "Soerendonk", "name": "Soerendonk", "zip": "6027" },
    { "label": "Someren", "name": "Someren", "zip": "5710" },
    { "label": "Uden", "name": "Uden", "zip": "5402" },
    { "label": "Udenhout", "name": "Udenhout", "zip": "5070" },
    { "label": "Uitwijk", "name": "Uitwijk", "zip": "4288" },
    { "label": "Ulicoten", "name": "Ulicoten", "zip": "5113" },
    { "label": "Ulvenhout", "name": "Ulvenhout", "zip": "4850" },
    { "label": "Ulvenhout AC", "name": "Ulvenhout AC", "zip": "4858" },
    { "label": "Valkenswaard", "name": "Valkenswaard", "zip": "5550" },
    { "label": "Zundert", "name": "Zundert", "zip": "4881" },
    { "label": "Aalsmeer", "name": "Aalsmeer", "zip": "1424" },
    { "label": "Aalsmeerderbrug", "name": "Aalsmeerderbrug", "zip": "1432" },
    { "label": "Aartswoud", "name": "Aartswoud", "zip": "1719" },
    { "label": "Abbekerk", "name": "Abbekerk", "zip": "1657" },
    { "label": "Abbenes", "name": "Abbenes", "zip": "2157" },
    { "label": "Aerdenhout", "name": "Aerdenhout", "zip": "2110" },
    { "label": "Akersloot", "name": "Akersloot", "zip": "1920" },
    { "label": "Alkmaar", "name": "Alkmaar", "zip": "1800" },
    { "label": "Amsterdam", "name": "Amsterdam", "zip": "1018" },
    {
      "label": "Amsterdam Zuidoost",
      "name": "Amsterdam Zuidoost",
      "zip": "1101"
    },
    {
      "label": "Broek op Langedijk",
      "name": "Broek op Langedijk",
      "zip": "1721"
    },
    { "label": "Buitenkaag", "name": "Buitenkaag", "zip": "2158" },
    { "label": "Burgerbrug", "name": "Burgerbrug", "zip": "1754" },
    { "label": "Burgerveen", "name": "Burgerveen", "zip": "2154" },
    { "label": "Bussum", "name": "Bussum", "zip": "1222" },
    { "label": "Haarlem", "name": "Haarlem", "zip": "2021" },
    { "label": "Huizen", "name": "Huizen", "zip": "1273" },
    { "label": "IJmuiden", "name": "IJmuiden", "zip": "1970" },
    { "label": "Nieuw-Vennep", "name": "Nieuw-Vennep", "zip": "2152" },
    { "label": "Noordbeemster", "name": "Noordbeemster", "zip": "1463" },
    { "label": "Noordeinde", "name": "Noordeinde", "zip": "1485" },
    { "label": "Noord-Scharwoude", "name": "Noord-Scharwoude", "zip": "1722" },
    { "label": "Obdam", "name": "Obdam", "zip": "1704" },
    { "label": "Oosterblokker", "name": "Oosterblokker", "zip": "1696" },
    {
      "label": "Oosterend (Texel)",
      "name": "Oosterend (Texel)",
      "zip": "1794"
    },
    { "label": "Oosterleek", "name": "Oosterleek", "zip": "1609" },
    { "label": "Oost-Graftdijk", "name": "Oost-Graftdijk", "zip": "1487" },
    { "label": "Oosthuizen", "name": "Oosthuizen", "zip": "1474" },
    { "label": "Oostknollendam", "name": "Oostknollendam", "zip": "1534" },
    { "label": "Oostwoud", "name": "Oostwoud", "zip": "1678" },
    { "label": "Oostzaan", "name": "Oostzaan", "zip": "1510" },
    { "label": "Uithoorn", "name": "Uithoorn", "zip": "1422" },
    { "label": "Ursem", "name": "Ursem", "zip": "1645" },
    { "label": "Ursem gem. S", "name": "Ursem gem. S", "zip": "1636" },
    { "label": "Velsen-Noord", "name": "Velsen-Noord", "zip": "1950" },
    { "label": "Velsen-Zuid", "name": "Velsen-Zuid", "zip": "1980" },
    { "label": "Velserbroek", "name": "Velserbroek", "zip": "1990" },
    { "label": "Venhuizen", "name": "Venhuizen", "zip": "1606" },
    { "label": "Zandvoort", "name": "Zandvoort", "zip": "2042" },
    { "label": "Zijdewind", "name": "Zijdewind", "zip": "1736" },
    { "label": "Zuidermeer", "name": "Zuidermeer", "zip": "1652" },
    { "label": "Zuiderwoude", "name": "Zuiderwoude", "zip": "1153" },
    { "label": "Zuidoostbeemster", "name": "Zuidoostbeemster", "zip": "1461" },
    { "label": "Zuid-Scharwoude", "name": "Zuid-Scharwoude", "zip": "1722" },
    { "label": "Zuidschermer", "name": "Zuidschermer", "zip": "1483" },
    { "label": "Zwaag", "name": "Zwaag", "zip": "1689" },
    { "label": "Zwaagdijk-Oost", "name": "Zwaagdijk-Oost", "zip": "1681" },
    { "label": "Zwaagdijk-West", "name": "Zwaagdijk-West", "zip": "1685" },
    { "label": "Zwaanshoek", "name": "Zwaanshoek", "zip": "2136" },
    { "label": "Zwanenburg", "name": "Zwanenburg", "zip": "1160" },
    { "label": "Aadorp", "name": "Aadorp", "zip": "7611" },
    { "label": "Deventer", "name": "Deventer", "zip": "7413" },
    { "label": "Hardenberg", "name": "Hardenberg", "zip": "7771" },
    { "label": "Hasselt", "name": "Hasselt", "zip": "8060" },
    { "label": "Heemserveen", "name": "Heemserveen", "zip": "7796" },
    { "label": "Heeten", "name": "Heeten", "zip": "8110" },
    { "label": "Heino", "name": "Heino", "zip": "8140" },
    { "label": "Hellendoorn", "name": "Hellendoorn", "zip": "7447" },
    { "label": "Oldenzaal", "name": "Oldenzaal", "zip": "7574" },
    { "label": "Olst", "name": "Olst", "zip": "8120" },
    { "label": "Ommen", "name": "Ommen", "zip": "7730" },
    { "label": "Zwolle", "name": "Zwolle", "zip": "8021" },
    { "label": "Everdingen", "name": "Everdingen", "zip": "4121" },
    { "label": "Groenekan", "name": "Groenekan", "zip": "3737" },
    { "label": "Haarzuilens", "name": "Haarzuilens", "zip": "3455" },
    { "label": "Hagestein", "name": "Hagestein", "zip": "4124" },
    { "label": "Harmelen", "name": "Harmelen", "zip": "3480" },
    { "label": "Hekendorp", "name": "Hekendorp", "zip": "3467" },
    {
      "label": "Hollandsche Rading",
      "name": "Hollandsche Rading",
      "zip": "3739"
    },
    { "label": "Hoogland", "name": "Hoogland", "zip": "3813" },
    { "label": "Hooglanderveen", "name": "Hooglanderveen", "zip": "3825" },
    { "label": "Houten", "name": "Houten", "zip": "3990" },
    { "label": "Odijk", "name": "Odijk", "zip": "3984" },
    { "label": "Ossenwaard", "name": "Ossenwaard", "zip": "3989" },
    { "label": "Oud Zuilen", "name": "Oud Zuilen", "zip": "3611" },
    { "label": "Oudewater", "name": "Oudewater", "zip": "3420" },
    { "label": "Overberg", "name": "Overberg", "zip": "3959" },
    { "label": "Papekop", "name": "Papekop", "zip": "3464" },
    { "label": "Polsbroek", "name": "Polsbroek", "zip": "3415" },
    { "label": "Renswoude", "name": "Renswoude", "zip": "3927" },
    { "label": "Rhenen", "name": "Rhenen", "zip": "3910" },
    { "label": "Schalkwijk", "name": "Schalkwijk", "zip": "3991" },
    { "label": "Snelrewaard", "name": "Snelrewaard", "zip": "3425" },
    { "label": "Soest", "name": "Soest", "zip": "3760" },
    { "label": "Utrecht", "name": "Utrecht", "zip": "3581" },
    { "label": "Veenendaal", "name": "Veenendaal", "zip": "3900" },
    { "label": "Cadzand", "name": "Cadzand", "zip": "4506" },
    { "label": "Clinge", "name": "Clinge", "zip": "4567" },
    { "label": "Colijnsplaat", "name": "Colijnsplaat", "zip": "4486" },
    { "label": "Domburg", "name": "Domburg", "zip": "4357" },
    { "label": "Dreischor", "name": "Dreischor", "zip": "4315" },
    { "label": "Driewegen", "name": "Driewegen", "zip": "4438" },
    { "label": "Eede", "name": "Eede", "zip": "4529" },
    { "label": "Ellemeet", "name": "Ellemeet", "zip": "4323" },
    { "label": "Ellewoutsdijk", "name": "Ellewoutsdijk", "zip": "4437" },
    { "label": "Gapinge", "name": "Gapinge", "zip": "4352" },
    { "label": "Geersdijk", "name": "Geersdijk", "zip": "4494" },
    { "label": "Goes", "name": "Goes", "zip": "4458" },
    { "label": "Sint-Annaland", "name": "Sint-Annaland", "zip": "4697" },
    {
      "label": "Sint-Maartensdijk",
      "name": "Sint-Maartensdijk",
      "zip": "4695"
    },
    { "label": "Sirjansland", "name": "Sirjansland", "zip": "4308" },
    { "label": "Sluis", "name": "Sluis", "zip": "4524" },
    { "label": "Sluiskil", "name": "Sluiskil", "zip": "4540" },
    { "label": "Spui", "name": "Spui", "zip": "4539" },
    { "label": "Stavenisse", "name": "Stavenisse", "zip": "4695" },
    { "label": "Terhole", "name": "Terhole", "zip": "4583" },
    { "label": "Terneuzen", "name": "Terneuzen", "zip": "4530" },
    { "label": "Bergambacht", "name": "Bergambacht", "zip": "2861" },
    { "label": "Bergschenhoek", "name": "Bergschenhoek", "zip": "2660" },
    {
      "label": "Berkel en Rodenrijs",
      "name": "Berkel en Rodenrijs",
      "zip": "2650"
    },
    { "label": "Dordrecht", "name": "Dordrecht", "zip": "3312" },
    { "label": "Herkingen", "name": "Herkingen", "zip": "3249" },
    { "label": "Hillegom", "name": "Hillegom", "zip": "2121" },
    { "label": "Hoek van Holland", "name": "Hoek van Holland", "zip": "3150" },
    { "label": "Honselersdijk", "name": "Honselersdijk", "zip": "2675" },
    { "label": "Leidschendam", "name": "Leidschendam", "zip": "2262" },
    { "label": "Lekkerkerk", "name": "Lekkerkerk", "zip": "2940" },
    { "label": "Lexmond", "name": "Lexmond", "zip": "4128" },
    {
      "label": "Noordwijk (Noordwijk)",
      "name": "Noordwijk (Noordwijk)",
      "zip": "2201"
    },
    { "label": "Noordwijkerhout", "name": "Noordwijkerhout", "zip": "2210" },
    { "label": "Nootdorp", "name": "Nootdorp", "zip": "2630" },
    { "label": "Rijswijk", "name": "Rijswijk", "zip": "2287" },
    { "label": "Rockanje", "name": "Rockanje", "zip": "3235" },
    { "label": "Roelofarendsveen", "name": "Roelofarendsveen", "zip": "2370" },
    { "label": "Rotterdam", "name": "Rotterdam", "zip": "2761" },
    { "label": "Sassenheim", "name": "Sassenheim", "zip": "2172" },
    { "label": "Schelluinen", "name": "Schelluinen", "zip": "4209" },
    { "label": "Schiedam", "name": "Schiedam", "zip": "3044" },
    { "label": "'s-Gravenhage", "name": "'s-Gravenhage", "zip": "2546" },
    { "label": "'s-Gravenzande", "name": "'s-Gravenzande", "zip": "2694" },
    { "label": "Simonshaven", "name": "Simonshaven", "zip": "3212" },
    { "label": "Sliedrecht", "name": "Sliedrecht", "zip": "3360" },
    { "label": "Sommelsdijk", "name": "Sommelsdijk", "zip": "3245" },
    { "label": "Spijkenisse", "name": "Spijkenisse", "zip": "3199" },
    { "label": "Wassenaar", "name": "Wassenaar", "zip": "2241" },
    { "label": "Wateringen", "name": "Wateringen", "zip": "2290" },
    { "label": "Emmer-Compascuum", "name": "Emmer-Compascuum", "zip": "7881" },
    { "label": "Erica", "name": "Erica", "zip": "7881" },
    { "label": "Erm", "name": "Erm", "zip": "7843" },
    {
      "label": "Eursinge (De Wolden)",
      "name": "Eursinge (De Wolden)",
      "zip": "7935"
    },
    {
      "label": "Eursinge (Midden-Drenthe)",
      "name": "Eursinge (Midden-Drenthe)",
      "zip": "9434"
    },
    { "label": "Exloërveen", "name": "Exloërveen", "zip": "9574" },
    { "label": "Exloo", "name": "Exloo", "zip": "7875" },
    { "label": "Fluitenberg", "name": "Fluitenberg", "zip": "7931" },
    { "label": "Foxwolde", "name": "Foxwolde", "zip": "9314" },
    { "label": "Frederiksoord", "name": "Frederiksoord", "zip": "8381" },
    { "label": "Garminge", "name": "Garminge", "zip": "9438" },
    { "label": "Gasselte", "name": "Gasselte", "zip": "9462" },
    { "label": "Gasselternijveen", "name": "Gasselternijveen", "zip": "9514" },
    {
      "label": "Gasselternijveenschemond",
      "name": "Gasselternijveenschemond",
      "zip": "9515"
    },
    { "label": "Gasteren", "name": "Gasteren", "zip": "9466" },
    { "label": "Geelbroek", "name": "Geelbroek", "zip": "9455" },
    { "label": "Gees", "name": "Gees", "zip": "7863" },
    { "label": "Geesbrug", "name": "Geesbrug", "zip": "7917" },
    { "label": "Geeuwenbrug", "name": "Geeuwenbrug", "zip": "7984" },
    { "label": "Gieten", "name": "Gieten", "zip": "9460" },
    { "label": "Gieterveen", "name": "Gieterveen", "zip": "9511" },
    { "label": "Grolloo", "name": "Grolloo", "zip": "9444" },
    { "label": "Havelte", "name": "Havelte", "zip": "7970" },
    { "label": "Havelterberg", "name": "Havelterberg", "zip": "7974" },
    { "label": "Valthermond", "name": "Valthermond", "zip": "7876" },
    { "label": "Veenhuizen", "name": "Veenhuizen", "zip": "9341" },
    { "label": "Veeningen", "name": "Veeningen", "zip": "7924" },
    { "label": "Veenoord", "name": "Veenoord", "zip": "7761" },
    { "label": "Vledder", "name": "Vledder", "zip": "7971" },
    {
      "label": "Vledderveen (Westerveld)",
      "name": "Vledderveen (Westerveld)",
      "zip": "8385"
    },
    { "label": "Vredenheim", "name": "Vredenheim", "zip": "9445" },
    { "label": "Vries", "name": "Vries", "zip": "9480" },
    { "label": "Wachtum", "name": "Wachtum", "zip": "7754" },
    { "label": "Wapse", "name": "Wapse", "zip": "7983" },
    { "label": "Wapserveen", "name": "Wapserveen", "zip": "8351" },
    { "label": "Wateren", "name": "Wateren", "zip": "8438" },
    { "label": "Weiteveen", "name": "Weiteveen", "zip": "7765" },
    { "label": "Westdorp", "name": "Westdorp", "zip": "9534" },
    { "label": "Westerbork", "name": "Westerbork", "zip": "9423" },
    { "label": "Westervelde", "name": "Westervelde", "zip": "9337" },
    { "label": "Wezup", "name": "Wezup", "zip": "7852" },
    { "label": "Wezuperbrug", "name": "Wezuperbrug", "zip": "7853" },
    { "label": "Wijster", "name": "Wijster", "zip": "7826" },
    { "label": "Wilhelminaoord", "name": "Wilhelminaoord", "zip": "8384" },
    { "label": "Winde", "name": "Winde", "zip": "9495" },
    { "label": "Wittelte", "name": "Wittelte", "zip": "7986" },
    { "label": "Witteveen", "name": "Witteveen", "zip": "9439" },
    { "label": "Yde", "name": "Yde", "zip": "9494" },
    { "label": "Zandberg", "name": "Zandberg", "zip": "9564" },
    { "label": "Zandpol", "name": "Zandpol", "zip": "7764" },
    { "label": "Zeegse", "name": "Zeegse", "zip": "9483" },
    { "label": "Zeijen", "name": "Zeijen", "zip": "9491" },
    { "label": "Zeijerveen", "name": "Zeijerveen", "zip": "9489" },
    { "label": "Zeijerveld", "name": "Zeijerveld", "zip": "9488" },
    { "label": "Zorgvlied", "name": "Zorgvlied", "zip": "8437" },
    { "label": "Zuidlaarderveen", "name": "Zuidlaarderveen", "zip": "9474" },
    { "label": "Emmeloord", "name": "Emmeloord", "zip": "8302" },
    { "label": "Ens", "name": "Ens", "zip": "8307" },
    { "label": "Espel", "name": "Espel", "zip": "8303" },
    { "label": "Kraggenburg", "name": "Kraggenburg", "zip": "8317" },
    { "label": "Drachten", "name": "Drachten", "zip": "9202" },
    { "label": "Drachten-Azeven", "name": "Drachten-Azeven", "zip": "9207" },
    {
      "label": "Drachtstercompagnie",
      "name": "Drachtstercompagnie",
      "zip": "9222"
    },
    { "label": "Driezum", "name": "Driezum", "zip": "9114" },
    { "label": "Drogeham", "name": "Drogeham", "zip": "9289" },
    { "label": "Leeuwarden", "name": "Leeuwarden", "zip": "8901" },
    { "label": "Sneek", "name": "Sneek", "zip": "8604" },
    { "label": "Snikzwaag", "name": "Snikzwaag", "zip": "8505" },
    { "label": "Sondel", "name": "Sondel", "zip": "8565" },
    { "label": "Sonnega", "name": "Sonnega", "zip": "8478" },
    { "label": "Spanga", "name": "Spanga", "zip": "8482" },
    { "label": "Spannum", "name": "Spannum", "zip": "8842" },
    { "label": "St.-Annaparochie", "name": "St.-Annaparochie", "zip": "9076" },
    {
      "label": "St.-Jacobiparochie",
      "name": "St.-Jacobiparochie",
      "zip": "9076"
    },
    { "label": "Stavoren", "name": "Stavoren", "zip": "8715" },
    { "label": "Steggerda", "name": "Steggerda", "zip": "8395" },
    { "label": "Stiens", "name": "Stiens", "zip": "9050" },
    { "label": "Apeldoorn", "name": "Apeldoorn", "zip": "7331" },
    { "label": "Appeltern", "name": "Appeltern", "zip": "6629" },
    { "label": "Borculo", "name": "Borculo", "zip": "7271" },
    { "label": "Boven-Leeuwen", "name": "Boven-Leeuwen", "zip": "6657" },
    { "label": "Braamt", "name": "Braamt", "zip": "7047" },
    { "label": "Brakel", "name": "Brakel", "zip": "5306" },
    { "label": "Bredevoort", "name": "Bredevoort", "zip": "7126" },
    { "label": "Breedenbroek", "name": "Breedenbroek", "zip": "7084" },
    { "label": "Bronkhorst", "name": "Bronkhorst", "zip": "7226" },
    { "label": "Bruchem", "name": "Bruchem", "zip": "5314" },
    { "label": "Brummen", "name": "Brummen", "zip": "6970" },
    { "label": "Buren (Buren)", "name": "Buren (Buren)", "zip": "4012" },
    {
      "label": "Buurmalsen (Geldermalsen)",
      "name": "Buurmalsen (Geldermalsen)",
      "zip": "4197"
    },
    {
      "label": "Buurmalsen (Buren)",
      "name": "Buurmalsen (Buren)",
      "zip": "4197"
    },
    { "label": "Culemborg", "name": "Culemborg", "zip": "4100" },
    { "label": "Ede", "name": "Ede", "zip": "6715" },
    { "label": "Ederveen", "name": "Ederveen", "zip": "6744" },
    { "label": "Eefde", "name": "Eefde", "zip": "7210" },
    { "label": "Eerbeek", "name": "Eerbeek", "zip": "6960" },
    { "label": "Hattem", "name": "Hattem", "zip": "8052" },
    { "label": "Hattemerbroek", "name": "Hattemerbroek", "zip": "8094" },
    { "label": "Hedel", "name": "Hedel", "zip": "5320" },
    { "label": "Heelsum", "name": "Heelsum", "zip": "6866" },
    { "label": "Heelweg", "name": "Heelweg", "zip": "7055" },
    { "label": "Heerde", "name": "Heerde", "zip": "8180" },
    { "label": "Heerewaarden", "name": "Heerewaarden", "zip": "6624" },
    { "label": "Heesselt", "name": "Heesselt", "zip": "4063" },
    {
      "label": "Heilig Landstichting",
      "name": "Heilig Landstichting",
      "zip": "6564"
    },
    { "label": "Hellouw", "name": "Hellouw", "zip": "4174" },
    { "label": "Hemmen", "name": "Hemmen", "zip": "6672" },
    { "label": "Hengelo", "name": "Hengelo", "zip": "7255" },
    { "label": "Nijkerk", "name": "Nijkerk", "zip": "3861" },
    { "label": "Nijkerkerveen", "name": "Nijkerkerveen", "zip": "3864" },
    { "label": "Randwijk", "name": "Randwijk", "zip": "6668" },
    { "label": "Ravenswaaij", "name": "Ravenswaaij", "zip": "4119" },
    { "label": "Rekken", "name": "Rekken", "zip": "7157" },
    { "label": "Renkum", "name": "Renkum", "zip": "6870" },
    { "label": "Ressen", "name": "Ressen", "zip": "6684" },
    { "label": "Rha", "name": "Rha", "zip": "7224" },
    { "label": "Rheden", "name": "Rheden", "zip": "6990" },
    { "label": "Rhenoy", "name": "Rhenoy", "zip": "4152" },
    { "label": "Rietmolen", "name": "Rietmolen", "zip": "7165" },
    { "label": "Rijswijk", "name": "Rijswijk", "zip": "4023" },
    {
      "label": "Rossum (Maasdriel)",
      "name": "Rossum (Maasdriel)",
      "zip": "5328"
    },
    { "label": "Rozendaal", "name": "Rozendaal", "zip": "6891" },
    { "label": "Rumpt", "name": "Rumpt", "zip": "4156" },
    { "label": "Ruurlo", "name": "Ruurlo", "zip": "7260" },
    { "label": "Wageningen", "name": "Wageningen", "zip": "6701" },
    { "label": "Wamel", "name": "Wamel", "zip": "6659" },
    { "label": "Wapenveld", "name": "Wapenveld", "zip": "8190" },
    { "label": "Appingedam", "name": "Appingedam", "zip": "9902" },
    { "label": "Bad Nieuweschans", "name": "Bad Nieuweschans", "zip": "9693" },
    { "label": "Baflo", "name": "Baflo", "zip": "9953" },
    { "label": "Bedum", "name": "Bedum", "zip": "9780" },
    { "label": "Beerta", "name": "Beerta", "zip": "9686" },
    { "label": "Bellingwolde", "name": "Bellingwolde", "zip": "9695" },
    { "label": "Bierum", "name": "Bierum", "zip": "9906" },
    { "label": "Blauwestad", "name": "Blauwestad", "zip": "9685" },
    { "label": "Blijham", "name": "Blijham", "zip": "9697" },
    { "label": "Boerakker (Leek)", "name": "Boerakker (Leek)", "zip": "9359" },
    {
      "label": "Boerakker (Marum)",
      "name": "Boerakker (Marum)",
      "zip": "9361"
    },
    {
      "label": "Borgercompagnie (Veendam)",
      "name": "Borgercompagnie (Veendam)",
      "zip": "9631"
    },
    {
      "label": "Borgercompagnie (Menterwolde)",
      "name": "Borgercompagnie (Menterwolde)",
      "zip": "9632"
    },
    { "label": "Borgsweer", "name": "Borgsweer", "zip": "9949" },
    { "label": "Bourtange", "name": "Bourtange", "zip": "9545" },
    { "label": "Briltil", "name": "Briltil", "zip": "9805" },
    { "label": "De Wilp", "name": "De Wilp", "zip": "9363" },
    { "label": "Grootegast", "name": "Grootegast", "zip": "9860" },
    { "label": "Haren Gn", "name": "Haren Gn", "zip": "9725" },
    { "label": "Veendam", "name": "Veendam", "zip": "9642" },
    { "label": "Vierhuizen", "name": "Vierhuizen", "zip": "9975" },
    { "label": "Visvliet", "name": "Visvliet", "zip": "9845" },
    { "label": "Vlagtwedde", "name": "Vlagtwedde", "zip": "9540" },
    {
      "label": "Vledderveen (Stadskanaal)",
      "name": "Vledderveen (Stadskanaal)",
      "zip": "9585"
    },
    { "label": "Vriescheloo", "name": "Vriescheloo", "zip": "9566" },
    { "label": "Wagenborgen", "name": "Wagenborgen", "zip": "9945" },
    { "label": "Warffum", "name": "Warffum", "zip": "9989" },
    { "label": "Warfhuizen", "name": "Warfhuizen", "zip": "9963" },
    { "label": "Waterhuizen", "name": "Waterhuizen", "zip": "9609" },
    { "label": "Wedde", "name": "Wedde", "zip": "9698" },
    { "label": "Wehe-den Hoorn", "name": "Wehe-den Hoorn", "zip": "9964" },
    { "label": "Westerbroek", "name": "Westerbroek", "zip": "9608" },
    { "label": "Westeremden", "name": "Westeremden", "zip": "9922" },
    { "label": "Westerlee", "name": "Westerlee", "zip": "9678" },
    { "label": "Westernieland", "name": "Westernieland", "zip": "9969" },
    { "label": "Westerwijtwerd", "name": "Westerwijtwerd", "zip": "9993" },
    { "label": "Wetsinge", "name": "Wetsinge", "zip": "9773" },
    { "label": "Wildervank", "name": "Wildervank", "zip": "9648" },
    { "label": "Geleen", "name": "Geleen", "zip": "6161" },
    { "label": "Gennep", "name": "Gennep", "zip": "6590" },
    { "label": "Klimmen", "name": "Klimmen", "zip": "6343" },
    { "label": "Koningsbosch", "name": "Koningsbosch", "zip": "6104" },
    { "label": "Koningslust", "name": "Koningslust", "zip": "5984" },
    { "label": "Kronenberg", "name": "Kronenberg", "zip": "5976" },
    { "label": "Landgraaf", "name": "Landgraaf", "zip": "6370" },
    { "label": "Sevenum", "name": "Sevenum", "zip": "5975" },
    { "label": "Siebengewald", "name": "Siebengewald", "zip": "5851" },
    { "label": "Simpelveld", "name": "Simpelveld", "zip": "6369" },
    { "label": "Sint Geertruid", "name": "Sint Geertruid", "zip": "6265" },
    { "label": "Sint Joost", "name": "Sint Joost", "zip": "6111" },
    { "label": "Sint Odiliënberg", "name": "Sint Odiliënberg", "zip": "6077" },
    { "label": "Wessem", "name": "Wessem", "zip": "6019" },
    { "label": "Wijlre", "name": "Wijlre", "zip": "6320" },
    { "label": "Wijnandsrade", "name": "Wijnandsrade", "zip": "6363" },
    { "label": "Windraak", "name": "Windraak", "zip": "6153" },
    { "label": "Wittem", "name": "Wittem", "zip": "6271" },
    { "label": "Ysselsteyn", "name": "Ysselsteyn", "zip": "5813" },
    { "label": "Aarle-Rixtel", "name": "Aarle-Rixtel", "zip": "5735" },
    { "label": "Achtmaal", "name": "Achtmaal", "zip": "4885" },
    { "label": "Almkerk", "name": "Almkerk", "zip": "4286" },
    {
      "label": "Alphen (Alphen-Chaam)",
      "name": "Alphen (Alphen-Chaam)",
      "zip": "5130"
    },
    { "label": "Andel", "name": "Andel", "zip": "4280" },
    { "label": "Grave", "name": "Grave", "zip": "5361" },
    { "label": "Groeningen", "name": "Groeningen", "zip": "5821" },
    { "label": "Haaren", "name": "Haaren", "zip": "5076" },
    { "label": "Haarsteeg", "name": "Haarsteeg", "zip": "5254" },
    { "label": "Haghorst", "name": "Haghorst", "zip": "5087" },
    { "label": "Halsteren", "name": "Halsteren", "zip": "4660" },
    { "label": "Handel", "name": "Handel", "zip": "5423" },
    { "label": "Hank", "name": "Hank", "zip": "4273" },
    { "label": "Hapert", "name": "Hapert", "zip": "5527" },
    { "label": "Haps", "name": "Haps", "zip": "5443" },
    { "label": "Haren", "name": "Haren", "zip": "5366" },
    { "label": "Made", "name": "Made", "zip": "4921" },
    { "label": "Maren-Kessel", "name": "Maren-Kessel", "zip": "5397" },
    { "label": "Mariahout", "name": "Mariahout", "zip": "5738" },
    { "label": "Meeuwen", "name": "Meeuwen", "zip": "4268" },
    { "label": "Megen", "name": "Megen", "zip": "5366" },
    { "label": "Mierlo", "name": "Mierlo", "zip": "5730" },
    { "label": "Milheeze", "name": "Milheeze", "zip": "5763" },
    { "label": "Prinsenbeek", "name": "Prinsenbeek", "zip": "4841" },
    { "label": "Putte", "name": "Putte", "zip": "4645" },
    { "label": "Raamsdonk", "name": "Raamsdonk", "zip": "4944" },
    { "label": "Raamsdonksveer", "name": "Raamsdonksveer", "zip": "4940" },
    { "label": "Ravenstein", "name": "Ravenstein", "zip": "5370" },
    { "label": "Reek", "name": "Reek", "zip": "5375" },
    { "label": "Reusel", "name": "Reusel", "zip": "5540" },
    { "label": "'s-Hertogenbosch", "name": "'s-Hertogenbosch", "zip": "5234" },
    { "label": "Sint Agatha", "name": "Sint Agatha", "zip": "5435" },
    { "label": "Sint Anthonis", "name": "Sint Anthonis", "zip": "5845" },
    { "label": "Sint Hubert", "name": "Sint Hubert", "zip": "5454" },
    { "label": "Tilburg", "name": "Tilburg", "zip": "5044" },
    { "label": "Wouw", "name": "Wouw", "zip": "4724" },
    { "label": "Wouwse Plantage", "name": "Wouwse Plantage", "zip": "4725" },
    { "label": "Zeeland", "name": "Zeeland", "zip": "5410" },
    { "label": "Zegge", "name": "Zegge", "zip": "4735" },
    { "label": "Zevenbergen", "name": "Zevenbergen", "zip": "4760" },
    {
      "label": "Zevenbergschen Hoek (Moerdijk)",
      "name": "Zevenbergschen Hoek (Moerdijk)",
      "zip": "4761"
    },
    {
      "label": "Zevenbergschen Hoek (Drimmelen)",
      "name": "Zevenbergschen Hoek (Drimmelen)",
      "zip": "4766"
    },
    { "label": "Callantsoog", "name": "Callantsoog", "zip": "1759" },
    { "label": "Castricum", "name": "Castricum", "zip": "1900" },
    { "label": "Cruquius", "name": "Cruquius", "zip": "2142" },
    { "label": "De Cocksdorp", "name": "De Cocksdorp", "zip": "1795" },
    { "label": "Haarlemmerliede", "name": "Haarlemmerliede", "zip": "2065" },
    { "label": "Halfweg", "name": "Halfweg", "zip": "1067" },
    { "label": "Haringhuizen", "name": "Haringhuizen", "zip": "1769" },
    { "label": "Hauwert", "name": "Hauwert", "zip": "1691" },
    { "label": "Heemskerk", "name": "Heemskerk", "zip": "1960" },
    { "label": "Hoofddorp", "name": "Hoofddorp", "zip": "2132" },
    { "label": "Leimuiden", "name": "Leimuiden", "zip": "2451" },
    { "label": "Leimuiderbrug", "name": "Leimuiderbrug", "zip": "2155" },
    { "label": "Lijnden", "name": "Lijnden", "zip": "1175" },
    { "label": "Limmen", "name": "Limmen", "zip": "1906" },
    { "label": "Lisserbroek", "name": "Lisserbroek", "zip": "2165" },
    { "label": "Loosdrecht", "name": "Loosdrecht", "zip": "1230" },
    { "label": "Lutjebroek", "name": "Lutjebroek", "zip": "1614" },
    { "label": "Lutjewinkel", "name": "Lutjewinkel", "zip": "1732" },
    { "label": "Marken", "name": "Marken", "zip": "1156" },
    { "label": "Markenbinnen", "name": "Markenbinnen", "zip": "1536" },
    { "label": "Medemblik", "name": "Medemblik", "zip": "1670" },
    { "label": "Middelie", "name": "Middelie", "zip": "1472" },
    { "label": "Middenbeemster", "name": "Middenbeemster", "zip": "1462" },
    { "label": "Schermerhorn", "name": "Schermerhorn", "zip": "1636" },
    { "label": "Schiphol", "name": "Schiphol", "zip": "1117" },
    { "label": "Schiphol-Rijk", "name": "Schiphol-Rijk", "zip": "1118" },
    { "label": "Schoorl", "name": "Schoorl", "zip": "1755" },
    { "label": "'s-Graveland", "name": "'s-Graveland", "zip": "1243" },
    { "label": "Sijbekarspel", "name": "Sijbekarspel", "zip": "1655" },
    { "label": "Sint Maarten", "name": "Sint Maarten", "zip": "1744" },
    {
      "label": "Sint Maartensbrug",
      "name": "Sint Maartensbrug",
      "zip": "1752"
    },
    {
      "label": "Sint Maartensvlotbrug",
      "name": "Sint Maartensvlotbrug",
      "zip": "1753"
    },
    { "label": "Sint Pancras", "name": "Sint Pancras", "zip": "1834" },
    { "label": "Slootdorp", "name": "Slootdorp", "zip": "1774" },
    { "label": "Spaarndam", "name": "Spaarndam", "zip": "2064" },
    {
      "label": "Spaarndam gem. Haarlem",
      "name": "Spaarndam gem. Haarlem",
      "zip": "2026"
    },
    { "label": "Spanbroek", "name": "Spanbroek", "zip": "1715" },
    { "label": "Spierdijk", "name": "Spierdijk", "zip": "1641" },
    {
      "label": "Spijkerboor (Wormerland)",
      "name": "Spijkerboor (Wormerland)",
      "zip": "1458"
    },
    { "label": "Starnmeer", "name": "Starnmeer", "zip": "1488" },
    { "label": "Stompetoren", "name": "Stompetoren", "zip": "1636" },
    { "label": "Zaandam", "name": "Zaandam", "zip": "1503" },
    { "label": "Den Velde", "name": "Den Velde", "zip": "7786" },
    { "label": "Denekamp", "name": "Denekamp", "zip": "7590" },
    {
      "label": "Deurningen (Dinkelland)",
      "name": "Deurningen (Dinkelland)",
      "zip": "7561"
    },
    {
      "label": "Deurningen (Oldenzaal)",
      "name": "Deurningen (Oldenzaal)",
      "zip": "7562"
    },
    { "label": "Enter", "name": "Enter", "zip": "7468" },
    { "label": "Fleringen", "name": "Fleringen", "zip": "7666" },
    { "label": "Geerdijk", "name": "Geerdijk", "zip": "7686" },
    {
      "label": "Geesteren (Tubbergen)",
      "name": "Geesteren (Tubbergen)",
      "zip": "7678"
    },
    { "label": "Genemuiden", "name": "Genemuiden", "zip": "8061" },
    { "label": "Giethmen", "name": "Giethmen", "zip": "8147" },
    { "label": "Giethoorn", "name": "Giethoorn", "zip": "8355" },
    { "label": "Glane", "name": "Glane", "zip": "7585" },
    { "label": "Goor", "name": "Goor", "zip": "7470" },
    { "label": "Grafhorst", "name": "Grafhorst", "zip": "8277" },
    { "label": "Gramsbergen", "name": "Gramsbergen", "zip": "7783" },
    { "label": "Lutten", "name": "Lutten", "zip": "7775" },
    { "label": "Luttenberg", "name": "Luttenberg", "zip": "8105" },
    { "label": "Mander", "name": "Mander", "zip": "7663" },
    { "label": "Manderveen", "name": "Manderveen", "zip": "7664" },
    { "label": "Mariaparochie", "name": "Mariaparochie", "zip": "7614" },
    { "label": "Mariënberg", "name": "Mariënberg", "zip": "7692" },
    { "label": "Mariënheem", "name": "Mariënheem", "zip": "8106" },
    { "label": "Marijenkampen", "name": "Marijenkampen", "zip": "8339" },
    { "label": "Markelo", "name": "Markelo", "zip": "7475" },
    { "label": "Marle", "name": "Marle", "zip": "8198" },
    {
      "label": "Mastenbroek (Zwartewaterland)",
      "name": "Mastenbroek (Zwartewaterland)",
      "zip": "8094"
    },
    {
      "label": "Mastenbroek (Kampen)",
      "name": "Mastenbroek (Kampen)",
      "zip": "8293"
    },
    { "label": "Nederland", "name": "Nederland", "zip": "8362" },
    { "label": "Nieuw Heeten", "name": "Nieuw Heeten", "zip": "8112" },
    { "label": "Nieuwleusen", "name": "Nieuwleusen", "zip": "7710" },
    { "label": "Nijverdal", "name": "Nijverdal", "zip": "7440" },
    { "label": "Wierden", "name": "Wierden", "zip": "7642" },
    { "label": "Wijhe", "name": "Wijhe", "zip": "8121" },
    { "label": "Willemsoord", "name": "Willemsoord", "zip": "8338" },
    { "label": "Wilsum", "name": "Wilsum", "zip": "8274" },
    { "label": "Witharen", "name": "Witharen", "zip": "7738" },
    { "label": "Witte Paarden", "name": "Witte Paarden", "zip": "8335" },
    { "label": "Zalk", "name": "Zalk", "zip": "8276" },
    { "label": "Zenderen", "name": "Zenderen", "zip": "7625" },
    { "label": "Zuidveen", "name": "Zuidveen", "zip": "8343" },
    { "label": "Zuna", "name": "Zuna", "zip": "7466" },
    { "label": "Zwartsluis", "name": "Zwartsluis", "zip": "8064" },
    { "label": "Baarn", "name": "Baarn", "zip": "3743" },
    { "label": "Benschop", "name": "Benschop", "zip": "3405" },
    { "label": "Bilthoven", "name": "Bilthoven", "zip": "3720" },
    { "label": "Bosch en Duin", "name": "Bosch en Duin", "zip": "3735" },
    { "label": "Breukelen", "name": "Breukelen", "zip": "3620" },
    { "label": "Lopik", "name": "Lopik", "zip": "3411" },
    { "label": "Lopikerkapel", "name": "Lopikerkapel", "zip": "3412" },
    { "label": "Maarn", "name": "Maarn", "zip": "3950" },
    { "label": "Maarsbergen", "name": "Maarsbergen", "zip": "3951" },
    { "label": "Maarssen", "name": "Maarssen", "zip": "3600" },
    { "label": "Wilnis", "name": "Wilnis", "zip": "3648" },
    { "label": "Woerden", "name": "Woerden", "zip": "3440" },
    { "label": "Woudenberg", "name": "Woudenberg", "zip": "3927" },
    { "label": "Middelburg", "name": "Middelburg", "zip": "4331" },
    { "label": "Zonnemaire", "name": "Zonnemaire", "zip": "4316" },
    { "label": "Zoutelande", "name": "Zoutelande", "zip": "4373" },
    { "label": "Zuiddorpe", "name": "Zuiddorpe", "zip": "4574" },
    { "label": "Zuidzande", "name": "Zuidzande", "zip": "4505" },
    { "label": "Aarlanderveen", "name": "Aarlanderveen", "zip": "2445" },
    { "label": "Abbenbroek", "name": "Abbenbroek", "zip": "3216" },
    { "label": "Achthuizen", "name": "Achthuizen", "zip": "3256" },
    { "label": "Alblasserdam", "name": "Alblasserdam", "zip": "2950" },
    {
      "label": "Alphen aan den Rijn",
      "name": "Alphen aan den Rijn",
      "zip": "2400"
    },
    {
      "label": "Capelle aan den IJssel",
      "name": "Capelle aan den IJssel",
      "zip": "2908"
    },
    { "label": "Dalem", "name": "Dalem", "zip": "4213" },
    { "label": "De Lier", "name": "De Lier", "zip": "2678" },
    { "label": "De Zilk", "name": "De Zilk", "zip": "2190" },
    { "label": "Delfgauw", "name": "Delfgauw", "zip": "2645" },
    { "label": "Delft", "name": "Delft", "zip": "2600" },
    { "label": "Gouda", "name": "Gouda", "zip": "2804" },
    {
      "label": "Krimpen aan den IJssel",
      "name": "Krimpen aan den IJssel",
      "zip": "2924"
    },
    { "label": "Kwintsheul", "name": "Kwintsheul", "zip": "2295" },
    { "label": "Langerak", "name": "Langerak", "zip": "2967" },
    { "label": "Leerbroek", "name": "Leerbroek", "zip": "4126" },
    { "label": "Leerdam", "name": "Leerdam", "zip": "4140" },
    { "label": "Leiden", "name": "Leiden", "zip": "2300" },
    { "label": "Middelharnis", "name": "Middelharnis", "zip": "3241" },
    { "label": "Mijnsheerenland", "name": "Mijnsheerenland", "zip": "3270" },
    { "label": "Moerkapelle", "name": "Moerkapelle", "zip": "2750" },
    { "label": "Molenaarsgraaf", "name": "Molenaarsgraaf", "zip": "2973" },
    { "label": "Monster", "name": "Monster", "zip": "2680" },
    { "label": "Mookhoek", "name": "Mookhoek", "zip": "3293" },
    { "label": "Moordrecht", "name": "Moordrecht", "zip": "2761" },
    { "label": "Naaldwijk", "name": "Naaldwijk", "zip": "2670" },
    { "label": "Pijnacker", "name": "Pijnacker", "zip": "2642" },
    { "label": "Poeldijk", "name": "Poeldijk", "zip": "2685" },
    { "label": "Poortugaal", "name": "Poortugaal", "zip": "3170" },
    { "label": "Puttershoek", "name": "Puttershoek", "zip": "3297" },
    { "label": "Reeuwijk", "name": "Reeuwijk", "zip": "2810" },
    { "label": "Rhoon", "name": "Rhoon", "zip": "3160" },
    { "label": "Voorburg", "name": "Voorburg", "zip": "2272" },
    { "label": "Voorhout", "name": "Voorhout", "zip": "2215" },
    { "label": "Zoeterwoude", "name": "Zoeterwoude", "zip": "2382" },
    { "label": "Zuid-Beijerland", "name": "Zuid-Beijerland", "zip": "3284" },
    { "label": "Zuidland", "name": "Zuidland", "zip": "3214" },
    { "label": "Zwammerdam", "name": "Zwammerdam", "zip": "2470" },
    { "label": "Zwartewaal", "name": "Zwartewaal", "zip": "3231" },
    { "label": "Zwijndrecht", "name": "Zwijndrecht", "zip": "3330" },
    { "label": "Coevorden", "name": "Coevorden", "zip": "7741" },
    { "label": "Dalen", "name": "Dalen", "zip": "7750" },
    { "label": "Dalerpeel", "name": "Dalerpeel", "zip": "7753" },
    { "label": "Dalerveen", "name": "Dalerveen", "zip": "7755" },
    { "label": "Darp", "name": "Darp", "zip": "7973" },
    { "label": "De Groeve", "name": "De Groeve", "zip": "9473" },
    { "label": "De Kiel", "name": "De Kiel", "zip": "7849" },
    { "label": "De Punt", "name": "De Punt", "zip": "9493" },
    { "label": "De Schiphorst", "name": "De Schiphorst", "zip": "7966" },
    { "label": "de Wijk", "name": "de Wijk", "zip": "7924" },
    { "label": "Deurze", "name": "Deurze", "zip": "9457" },
    { "label": "Diever", "name": "Diever", "zip": "7980" },
    { "label": "Dieverbrug", "name": "Dieverbrug", "zip": "7984" },
    { "label": "Diphoorn", "name": "Diphoorn", "zip": "7842" },
    { "label": "Doldersum", "name": "Doldersum", "zip": "8386" },
    { "label": "Donderen", "name": "Donderen", "zip": "9497" },
    { "label": "Drijber", "name": "Drijber", "zip": "9419" },
    { "label": "Drogteropslagen", "name": "Drogteropslagen", "zip": "7705" },
    { "label": "Drouwen", "name": "Drouwen", "zip": "9533" },
    { "label": "Drouwenermond", "name": "Drouwenermond", "zip": "9523" },
    { "label": "Drouwenerveen", "name": "Drouwenerveen", "zip": "9525" },
    { "label": "Dwingeloo", "name": "Dwingeloo", "zip": "7964" },
    {
      "label": "Echten (De Wolden)",
      "name": "Echten (De Wolden)",
      "zip": "7932"
    },
    { "label": "Eelde", "name": "Eelde", "zip": "9760" },
    { "label": "Paterswolde", "name": "Paterswolde", "zip": "9765" },
    { "label": "Peest", "name": "Peest", "zip": "9334" },
    { "label": "Peize", "name": "Peize", "zip": "9320" },
    {
      "label": "Pesse (Hoogeveen)",
      "name": "Pesse (Hoogeveen)",
      "zip": "7933"
    },
    {
      "label": "Pesse (Westerveld)",
      "name": "Pesse (Westerveld)",
      "zip": "7933"
    },
    { "label": "Rhee", "name": "Rhee", "zip": "9486" },
    { "label": "Roden", "name": "Roden", "zip": "9300" },
    { "label": "Roderesch", "name": "Roderesch", "zip": "9305" },
    { "label": "Roderwolde", "name": "Roderwolde", "zip": "9315" },
    { "label": "Rogat", "name": "Rogat", "zip": "7949" },
    { "label": "Rolde", "name": "Rolde", "zip": "9450" },
    { "label": "Roswinkel", "name": "Roswinkel", "zip": "7895" },
    {
      "label": "Ruinen (De Wolden)",
      "name": "Ruinen (De Wolden)",
      "zip": "7963"
    },
    { "label": "Bant", "name": "Bant", "zip": "8314" },
    { "label": "Biddinghuizen", "name": "Biddinghuizen", "zip": "8256" },
    { "label": "Balk", "name": "Balk", "zip": "8561" },
    { "label": "Ballum", "name": "Ballum", "zip": "9162" },
    { "label": "Bantega", "name": "Bantega", "zip": "8538" },
    { "label": "Bears", "name": "Bears", "zip": "9024" },
    { "label": "Beetsterzwaag", "name": "Beetsterzwaag", "zip": "9244" },
    { "label": "Berltsum", "name": "Berltsum", "zip": "9040" },
    { "label": "Bitgum", "name": "Bitgum", "zip": "9044" },
    { "label": "Bitgummole", "name": "Bitgummole", "zip": "9045" },
    { "label": "Blauwhuis", "name": "Blauwhuis", "zip": "8615" },
    { "label": "Blesdijke", "name": "Blesdijke", "zip": "8398" },
    { "label": "Blessum", "name": "Blessum", "zip": "9032" },
    { "label": "Blije", "name": "Blije", "zip": "9171" },
    { "label": "Boazum", "name": "Boazum", "zip": "8635" },
    { "label": "Boelenslaan", "name": "Boelenslaan", "zip": "9233" },
    { "label": "Boer", "name": "Boer", "zip": "8809" },
    { "label": "Boijl", "name": "Boijl", "zip": "8392" },
    { "label": "Boksum", "name": "Boksum", "zip": "9031" },
    { "label": "Bolsward", "name": "Bolsward", "zip": "8700" },
    { "label": "Bontebok", "name": "Bontebok", "zip": "8415" },
    { "label": "Boornbergum", "name": "Boornbergum", "zip": "9212" },
    { "label": "Boornzwaag", "name": "Boornzwaag", "zip": "8526" },
    { "label": "Bornwird", "name": "Bornwird", "zip": "9156" },
    { "label": "Brantgum", "name": "Brantgum", "zip": "9153" },
    { "label": "Breezanddijk", "name": "Breezanddijk", "zip": "8766" },
    { "label": "Britsum", "name": "Britsum", "zip": "9055" },
    { "label": "Hitzum", "name": "Hitzum", "zip": "8805" },
    { "label": "Hollum", "name": "Hollum", "zip": "9160" },
    { "label": "Holwerd", "name": "Holwerd", "zip": "9150" },
    { "label": "Hommerts", "name": "Hommerts", "zip": "8622" },
    {
      "label": "Hoorn (Terschelling)",
      "name": "Hoorn (Terschelling)",
      "zip": "8895"
    },
    { "label": "Hoornsterzwaag", "name": "Hoornsterzwaag", "zip": "8412" },
    { "label": "Houtigehage", "name": "Houtigehage", "zip": "9223" },
    { "label": "Húns", "name": "Húns", "zip": "8832" },
    { "label": "Hurdegaryp", "name": "Hurdegaryp", "zip": "9254" },
    { "label": "Idaerd", "name": "Idaerd", "zip": "9007" },
    { "label": "Idsegahuizum", "name": "Idsegahuizum", "zip": "8755" },
    { "label": "Idskenhuizen", "name": "Idskenhuizen", "zip": "8523" },
    { "label": "Idzega", "name": "Idzega", "zip": "8612" },
    { "label": "Iens", "name": "Iens", "zip": "8733" },
    { "label": "IJlst", "name": "IJlst", "zip": "8650" },
    { "label": "Indijk", "name": "Indijk", "zip": "8553" },
    { "label": "Ingelum", "name": "Ingelum", "zip": "9038" },
    { "label": "It Heidenskip", "name": "It Heidenskip", "zip": "8724" },
    { "label": "Itens", "name": "Itens", "zip": "8735" },
    { "label": "Jannum", "name": "Jannum", "zip": "9107" },
    { "label": "Jellum", "name": "Jellum", "zip": "9024" },
    { "label": "Jelsum", "name": "Jelsum", "zip": "9057" },
    { "label": "Jirnsum", "name": "Jirnsum", "zip": "9011" },
    { "label": "Jislum", "name": "Jislum", "zip": "9177" },
    { "label": "Jistrum", "name": "Jistrum", "zip": "9258" },
    { "label": "Jonkerslân", "name": "Jonkerslân", "zip": "8403" },
    { "label": "Jorwert", "name": "Jorwert", "zip": "8732" },
    { "label": "Joure", "name": "Joure", "zip": "8500" },
    { "label": "Nieuwehorne", "name": "Nieuwehorne", "zip": "8414" },
    { "label": "Nieuweschoot", "name": "Nieuweschoot", "zip": "8452" },
    { "label": "Nij Altoenae", "name": "Nij Altoenae", "zip": "9072" },
    { "label": "Nij Beets", "name": "Nij Beets", "zip": "9245" },
    { "label": "Nijeberkoop", "name": "Nijeberkoop", "zip": "8422" },
    { "label": "Nijega", "name": "Nijega", "zip": "9217" },
    { "label": "Nijehaske", "name": "Nijehaske", "zip": "8466" },
    { "label": "Nijeholtpade", "name": "Nijeholtpade", "zip": "8475" },
    { "label": "Nijeholtwolde", "name": "Nijeholtwolde", "zip": "8488" },
    { "label": "Nijelamer", "name": "Nijelamer", "zip": "8487" },
    { "label": "Nijemirdum", "name": "Nijemirdum", "zip": "8566" },
    { "label": "Nijetrijne", "name": "Nijetrijne", "zip": "8481" },
    { "label": "Nijhuizum", "name": "Nijhuizum", "zip": "8775" },
    { "label": "Nijland", "name": "Nijland", "zip": "8771" },
    { "label": "Noardburgum", "name": "Noardburgum", "zip": "9257" },
    {
      "label": "Noordwolde (Weststellingwerf)",
      "name": "Noordwolde (Weststellingwerf)",
      "zip": "8390"
    },
    { "label": "Oentsjerk", "name": "Oentsjerk", "zip": "9062" },
    { "label": "Offingawier", "name": "Offingawier", "zip": "8626" },
    { "label": "Oldeberkoop", "name": "Oldeberkoop", "zip": "8420" },
    { "label": "Oldeholtpade", "name": "Oldeholtpade", "zip": "8474" },
    { "label": "Oldeholtwolde", "name": "Oldeholtwolde", "zip": "8477" },
    { "label": "Oldelamer", "name": "Oldelamer", "zip": "8486" },
    { "label": "Oldeouwer", "name": "Oldeouwer", "zip": "8515" },
    { "label": "Oldetrijne", "name": "Oldetrijne", "zip": "8479" },
    { "label": "Olterterp", "name": "Olterterp", "zip": "9246" },
    { "label": "Oosterbierum", "name": "Oosterbierum", "zip": "8854" },
    {
      "label": "Oosterend (Terschelling)",
      "name": "Oosterend (Terschelling)",
      "zip": "1794"
    },
    { "label": "Oosternijkerk", "name": "Oosternijkerk", "zip": "9137" },
    { "label": "Oosterstreek", "name": "Oosterstreek", "zip": "8388" },
    { "label": "Oosterwolde", "name": "Oosterwolde", "zip": "8430" },
    { "label": "Aalten", "name": "Aalten", "zip": "7121" },
    {
      "label": "Achterveld (Barneveld)",
      "name": "Achterveld (Barneveld)",
      "zip": "3790"
    },
    { "label": "Acquoy", "name": "Acquoy", "zip": "4151" },
    { "label": "Aerdt", "name": "Aerdt", "zip": "6913" },
    { "label": "Afferden", "name": "Afferden", "zip": "6651" },
    { "label": "Alem", "name": "Alem", "zip": "5335" },
    { "label": "Almen", "name": "Almen", "zip": "7218" },
    {
      "label": "Alphen (West Maas en Waal)",
      "name": "Alphen (West Maas en Waal)",
      "zip": "6626"
    },
    { "label": "Altforst", "name": "Altforst", "zip": "6628" },
    { "label": "Ammerzoden", "name": "Ammerzoden", "zip": "5324" },
    { "label": "Andelst", "name": "Andelst", "zip": "6673" },
    { "label": "Angeren", "name": "Angeren", "zip": "6687" },
    { "label": "Angerlo", "name": "Angerlo", "zip": "6986" },
    { "label": "Asch", "name": "Asch", "zip": "4115" },
    { "label": "Asperen", "name": "Asperen", "zip": "4147" },
    { "label": "Azewijn", "name": "Azewijn", "zip": "7045" },
    { "label": "Baak", "name": "Baak", "zip": "7223" },
    { "label": "Babberich", "name": "Babberich", "zip": "6909" },
    { "label": "Doetinchem", "name": "Doetinchem", "zip": "7005" },
    { "label": "Doornenburg", "name": "Doornenburg", "zip": "6686" },
    { "label": "Doornspijk", "name": "Doornspijk", "zip": "8081" },
    { "label": "Doorwerth", "name": "Doorwerth", "zip": "6865" },
    { "label": "Drempt", "name": "Drempt", "zip": "6996" },
    { "label": "Etten", "name": "Etten", "zip": "7075" },
    { "label": "Ewijk", "name": "Ewijk", "zip": "6644" },
    { "label": "Gaanderen", "name": "Gaanderen", "zip": "7010" },
    { "label": "Gameren", "name": "Gameren", "zip": "5310" },
    { "label": "Garderen", "name": "Garderen", "zip": "3781" },
    {
      "label": "Geesteren (Berkelland)",
      "name": "Geesteren (Berkelland)",
      "zip": "7274"
    },
    { "label": "Geldermalsen", "name": "Geldermalsen", "zip": "4158" },
    { "label": "Gellicum", "name": "Gellicum", "zip": "4155" },
    { "label": "Gelselaar", "name": "Gelselaar", "zip": "7275" },
    { "label": "Gendringen", "name": "Gendringen", "zip": "7071" },
    { "label": "Gendt", "name": "Gendt", "zip": "6690" },
    { "label": "Lent", "name": "Lent", "zip": "6663" },
    { "label": "Leur", "name": "Leur", "zip": "6615" },
    { "label": "Leuth", "name": "Leuth", "zip": "6578" },
    { "label": "Leuvenheim", "name": "Leuvenheim", "zip": "6974" },
    { "label": "Lichtenvoorde", "name": "Lichtenvoorde", "zip": "7130" },
    { "label": "Lienden", "name": "Lienden", "zip": "4033" },
    { "label": "Lieren", "name": "Lieren", "zip": "7364" },
    { "label": "Lievelde", "name": "Lievelde", "zip": "7137" },
    { "label": "Lobith", "name": "Lobith", "zip": "6915" },
    { "label": "Lochem", "name": "Lochem", "zip": "7240" },
    { "label": "Toldijk", "name": "Toldijk", "zip": "7227" },
    { "label": "Tolkamer", "name": "Tolkamer", "zip": "6916" },
    { "label": "Tonden", "name": "Tonden", "zip": "6975" },
    { "label": "Tricht", "name": "Tricht", "zip": "4196" },
    { "label": "Tuil", "name": "Tuil", "zip": "4176" },
    { "label": "Twello", "name": "Twello", "zip": "7390" },
    { "label": "Winterswijk", "name": "Winterswijk", "zip": "7101" },
    {
      "label": "Winterswijk Brinkheurne",
      "name": "Winterswijk Brinkheurne",
      "zip": "7115"
    },
    {
      "label": "Winterswijk Corle",
      "name": "Winterswijk Corle",
      "zip": "7119"
    },
    {
      "label": "Winterswijk Henxel",
      "name": "Winterswijk Henxel",
      "zip": "7113"
    },
    {
      "label": "Winterswijk Huppel",
      "name": "Winterswijk Huppel",
      "zip": "7105"
    },
    {
      "label": "Winterswijk Kotten",
      "name": "Winterswijk Kotten",
      "zip": "7107"
    },
    {
      "label": "Winterswijk Meddo",
      "name": "Winterswijk Meddo",
      "zip": "7104"
    },
    {
      "label": "Winterswijk Miste",
      "name": "Winterswijk Miste",
      "zip": "7109"
    },
    {
      "label": "Winterswijk Ratum",
      "name": "Winterswijk Ratum",
      "zip": "7106"
    },
    {
      "label": "Winterswijk Woold",
      "name": "Winterswijk Woold",
      "zip": "7108"
    },
    { "label": "Wolfheze", "name": "Wolfheze", "zip": "6874" },
    { "label": "Zaltbommel", "name": "Zaltbommel", "zip": "5300" },
    { "label": "Nieuwe Pekela", "name": "Nieuwe Pekela", "zip": "9663" },
    { "label": "Nieuwolda", "name": "Nieuwolda", "zip": "9944" },
    { "label": "Niezijl", "name": "Niezijl", "zip": "9841" },
    { "label": "Noordbroek", "name": "Noordbroek", "zip": "9635" },
    { "label": "Noordhorn", "name": "Noordhorn", "zip": "9804" },
    { "label": "Noordlaren", "name": "Noordlaren", "zip": "9479" },
    {
      "label": "Noordwijk (Marum)",
      "name": "Noordwijk (Marum)",
      "zip": "9824"
    },
    {
      "label": "Noordwolde (Bedum)",
      "name": "Noordwolde (Bedum)",
      "zip": "9781"
    },
    { "label": "Nuis", "name": "Nuis", "zip": "9364" },
    { "label": "Oldehove", "name": "Oldehove", "zip": "9883" },
    { "label": "Oldekerk", "name": "Oldekerk", "zip": "9821" },
    { "label": "Oldenzijl", "name": "Oldenzijl", "zip": "9986" },
    { "label": "Onderdendam", "name": "Onderdendam", "zip": "9959" },
    { "label": "Onnen", "name": "Onnen", "zip": "9755" },
    { "label": "Onstwedde", "name": "Onstwedde", "zip": "9591" },
    { "label": "Oosternieland", "name": "Oosternieland", "zip": "9985" },
    { "label": "Oosterwijtwerd", "name": "Oosterwijtwerd", "zip": "9911" },
    {
      "label": "Oostwold (Oldambt)",
      "name": "Oostwold (Oldambt)",
      "zip": "9682"
    },
    { "label": "Oostwold (Leek)", "name": "Oostwold (Leek)", "zip": "9828" },
    { "label": "Opende", "name": "Opende", "zip": "9865" },
    { "label": "Oude Pekela", "name": "Oude Pekela", "zip": "9665" },
    { "label": "Oudeschans", "name": "Oudeschans", "zip": "9696" },
    { "label": "Oudeschip", "name": "Oudeschip", "zip": "9984" },
    { "label": "Oudezijl", "name": "Oudezijl", "zip": "9691" },
    { "label": "Overschild", "name": "Overschild", "zip": "9613" },
    { "label": "Pieterburen", "name": "Pieterburen", "zip": "9968" },
    { "label": "Baexem", "name": "Baexem", "zip": "6095" },
    { "label": "Baneheide", "name": "Baneheide", "zip": "6353" },
    { "label": "Banholt", "name": "Banholt", "zip": "6262" },
    { "label": "Beegden", "name": "Beegden", "zip": "6099" },
    { "label": "Beek (Beek)", "name": "Beek (Beek)", "zip": "6190" },
    { "label": "Beesel", "name": "Beesel", "zip": "5954" },
    { "label": "Belfeld", "name": "Belfeld", "zip": "5950" },
    { "label": "Bemelen", "name": "Bemelen", "zip": "6268" },
    { "label": "Berg en Terblijt", "name": "Berg en Terblijt", "zip": "6325" },
    { "label": "Bergen L", "name": "Bergen L", "zip": "5854" },
    { "label": "Beringe", "name": "Beringe", "zip": "5986" },
    { "label": "Helden", "name": "Helden", "zip": "5988" },
    { "label": "Herkenbosch", "name": "Herkenbosch", "zip": "6075" },
    { "label": "Herten", "name": "Herten", "zip": "6041" },
    { "label": "Heythuysen", "name": "Heythuysen", "zip": "6093" },
    { "label": "Hoensbroek", "name": "Hoensbroek", "zip": "6430" },
    { "label": "Holtum", "name": "Holtum", "zip": "6123" },
    { "label": "Margraten", "name": "Margraten", "zip": "6269" },
    { "label": "Maria Hoop", "name": "Maria Hoop", "zip": "6105" },
    { "label": "Mechelen", "name": "Mechelen", "zip": "6281" },
    { "label": "Meerlo", "name": "Meerlo", "zip": "5864" },
    { "label": "Meerssen", "name": "Meerssen", "zip": "3261" },
    { "label": "Meijel", "name": "Meijel", "zip": "5758" },
    { "label": "Melderslo", "name": "Melderslo", "zip": "5962" },
    { "label": "Melick", "name": "Melick", "zip": "6074" },
    { "label": "Merkelbeek", "name": "Merkelbeek", "zip": "6447" },
    { "label": "Merselo", "name": "Merselo", "zip": "5815" },
    { "label": "Meterik", "name": "Meterik", "zip": "5964" },
    { "label": "Mheer", "name": "Mheer", "zip": "6261" },
    { "label": "Middelaar", "name": "Middelaar", "zip": "6587" },
    { "label": "Milsbeek", "name": "Milsbeek", "zip": "6596" },
    { "label": "Molenhoek", "name": "Molenhoek", "zip": "6584" },
    { "label": "Tegelen", "name": "Tegelen", "zip": "5932" },
    { "label": "Thorn", "name": "Thorn", "zip": "6017" },
    { "label": "Tienray", "name": "Tienray", "zip": "5865" },
    { "label": "Ulestraten", "name": "Ulestraten", "zip": "6235" },
    { "label": "Urmond", "name": "Urmond", "zip": "6129" },
    { "label": "Vaals", "name": "Vaals", "zip": "6290" },
    {
      "label": "Valkenburg (Valkenburg aan de Geul)",
      "name": "Valkenburg (Valkenburg aan de Geul)",
      "zip": "6301"
    },
    { "label": "Velden", "name": "Velden", "zip": "5940" },
    { "label": "Bergen op Zoom", "name": "Bergen op Zoom", "zip": "4614" },
    { "label": "Berghem", "name": "Berghem", "zip": "5342" },
    { "label": "Cuijk", "name": "Cuijk", "zip": "5431" },
    { "label": "De Heen", "name": "De Heen", "zip": "4655" },
    { "label": "De Moer", "name": "De Moer", "zip": "5176" },
    { "label": "De Mortel", "name": "De Mortel", "zip": "5425" },
    { "label": "De Rips", "name": "De Rips", "zip": "5764" },
    { "label": "Demen", "name": "Demen", "zip": "5371" },
    { "label": "Den Dungen", "name": "Den Dungen", "zip": "5271" },
    { "label": "Den Hout", "name": "Den Hout", "zip": "4906" },
    { "label": "Deurne", "name": "Deurne", "zip": "5750" },
    { "label": "Elsendorp", "name": "Elsendorp", "zip": "5424" },
    { "label": "Elshout", "name": "Elshout", "zip": "5154" },
    { "label": "Erp", "name": "Erp", "zip": "5469" },
    { "label": "Esbeek", "name": "Esbeek", "zip": "5081" },
    { "label": "Oeffelt", "name": "Oeffelt", "zip": "5441" },
    { "label": "Oijen", "name": "Oijen", "zip": "5394" },
    { "label": "Oirschot", "name": "Oirschot", "zip": "5688" },
    { "label": "Oisterwijk", "name": "Oisterwijk", "zip": "5053" },
    { "label": "Ommel", "name": "Ommel", "zip": "5721" },
    {
      "label": "Oost West en Middelbeers",
      "name": "Oost West en Middelbeers",
      "zip": "5090"
    },
    { "label": "Rosmalen", "name": "Rosmalen", "zip": "5240" },
    { "label": "Son en Breugel", "name": "Son en Breugel", "zip": "5694" },
    { "label": "Sprang-Capelle", "name": "Sprang-Capelle", "zip": "5144" },
    { "label": "Sprundel", "name": "Sprundel", "zip": "4714" },
    { "label": "St. Willebrord", "name": "St. Willebrord", "zip": "4710" },
    { "label": "Stampersgat", "name": "Stampersgat", "zip": "4751" },
    { "label": "Standdaarbuiten", "name": "Standdaarbuiten", "zip": "4758" },
    {
      "label": "Steenbergen (Steenbergen)",
      "name": "Steenbergen (Steenbergen)",
      "zip": "4650"
    },
    { "label": "Veghel", "name": "Veghel", "zip": "5461" },
    { "label": "Veldhoven", "name": "Veldhoven", "zip": "5500" },
    {
      "label": "Amsterdam-Duivendrecht",
      "name": "Amsterdam-Duivendrecht",
      "zip": "1096"
    },
    { "label": "Andijk", "name": "Andijk", "zip": "1619" },
    { "label": "Ankeveen", "name": "Ankeveen", "zip": "1244" },
    { "label": "Anna Paulowna", "name": "Anna Paulowna", "zip": "1760" },
    { "label": "De Goorn", "name": "De Goorn", "zip": "1648" },
    { "label": "De Koog", "name": "De Koog", "zip": "1796" },
    { "label": "De Kwakel", "name": "De Kwakel", "zip": "1424" },
    { "label": "De Rijp", "name": "De Rijp", "zip": "1483" },
    { "label": "De Waal", "name": "De Waal", "zip": "1793" },
    { "label": "De Weere", "name": "De Weere", "zip": "1657" },
    { "label": "de Woude", "name": "de Woude", "zip": "1489" },
    { "label": "Den Burg", "name": "Den Burg", "zip": "1790" },
    { "label": "Den Helder", "name": "Den Helder", "zip": "1780" },
    { "label": "Heemstede", "name": "Heemstede", "zip": "2100" },
    { "label": "Hoorn (Hoorn)", "name": "Hoorn (Hoorn)", "zip": "1625" },
    { "label": "Huisduinen", "name": "Huisduinen", "zip": "1789" },
    { "label": "Opmeer", "name": "Opmeer", "zip": "1716" },
    { "label": "Opperdoes", "name": "Opperdoes", "zip": "1674" },
    { "label": "Oterleek", "name": "Oterleek", "zip": "1842" },
    { "label": "Oude Meer", "name": "Oude Meer", "zip": "1432" },
    { "label": "Oude Niedorp", "name": "Oude Niedorp", "zip": "1734" },
    { "label": "Oudendijk", "name": "Oudendijk", "zip": "1631" },
    {
      "label": "Ouderkerk aan de Amstel",
      "name": "Ouderkerk aan de Amstel",
      "zip": "1190"
    },
    { "label": "Oudeschild", "name": "Oudeschild", "zip": "1792" },
    { "label": "Oudesluis", "name": "Oudesluis", "zip": "1757" },
    {
      "label": "Oudkarspel (Langedijk)",
      "name": "Oudkarspel (Langedijk)",
      "zip": "1722"
    },
    {
      "label": "Oudkarspel (Schagen)",
      "name": "Oudkarspel (Schagen)",
      "zip": "1724"
    },
    { "label": "Oudorp", "name": "Oudorp", "zip": "1823" },
    { "label": "Overveen", "name": "Overveen", "zip": "2014" },
    { "label": "Petten", "name": "Petten", "zip": "1755" },
    { "label": "Vijfhuizen", "name": "Vijfhuizen", "zip": "2140" },
    { "label": "Vogelenzang", "name": "Vogelenzang", "zip": "2114" },
    { "label": "Volendam", "name": "Volendam", "zip": "1130" },
    { "label": "Waarland", "name": "Waarland", "zip": "1738" },
    { "label": "Warder", "name": "Warder", "zip": "1473" },
    { "label": "Warmenhuizen", "name": "Warmenhuizen", "zip": "1744" },
    { "label": "Agelo", "name": "Agelo", "zip": "7636" },
    { "label": "Albergen", "name": "Albergen", "zip": "7665" },
    { "label": "Almelo", "name": "Almelo", "zip": "7600" },
    { "label": "Enschede", "name": "Enschede", "zip": "7511" },
    { "label": "Hengelo", "name": "Hengelo", "zip": "7554" },
    { "label": "Reutum", "name": "Reutum", "zip": "7667" },
    { "label": "Rheeze", "name": "Rheeze", "zip": "7794" },
    { "label": "Rheezerveen", "name": "Rheezerveen", "zip": "7797" },
    { "label": "Rijssen", "name": "Rijssen", "zip": "7460" },
    {
      "label": "Rossum (Dinkelland)",
      "name": "Rossum (Dinkelland)",
      "zip": "5328"
    },
    { "label": "Rouveen", "name": "Rouveen", "zip": "7951" },
    { "label": "Saasveld", "name": "Saasveld", "zip": "7597" },
    { "label": "Schalkhaar", "name": "Schalkhaar", "zip": "7424" },
    { "label": "Abcoude", "name": "Abcoude", "zip": "1390" },
    {
      "label": "Achterveld (Leusden)",
      "name": "Achterveld (Leusden)",
      "zip": "3791"
    },
    { "label": "Doorn", "name": "Doorn", "zip": "3941" },
    {
      "label": "Driebergen-Rijsenburg",
      "name": "Driebergen-Rijsenburg",
      "zip": "3970"
    },
    { "label": "Eemdijk", "name": "Eemdijk", "zip": "3754" },
    { "label": "Eemnes", "name": "Eemnes", "zip": "3755" },
    { "label": "Elst Ut", "name": "Elst Ut", "zip": "3921" },
    { "label": "Montfoort", "name": "Montfoort", "zip": "3417" },
    { "label": "Nieuwegein", "name": "Nieuwegein", "zip": "3430" },
    { "label": "Zeist", "name": "Zeist", "zip": "3705" },
    { "label": "Zijderveld", "name": "Zijderveld", "zip": "4122" },
    { "label": "Aagtekerke", "name": "Aagtekerke", "zip": "4363" },
    { "label": "Aardenburg", "name": "Aardenburg", "zip": "4524" },
    { "label": "Arnemuiden", "name": "Arnemuiden", "zip": "4340" },
    { "label": "Axel", "name": "Axel", "zip": "4570" },
    { "label": "Sas van Gent", "name": "Sas van Gent", "zip": "4551" },
    { "label": "Scharendijke", "name": "Scharendijke", "zip": "4322" },
    { "label": "Scherpenisse", "name": "Scherpenisse", "zip": "4694" },
    { "label": "Schoondijke", "name": "Schoondijke", "zip": "4507" },
    { "label": "Schore", "name": "Schore", "zip": "4423" },
    {
      "label": "Serooskerke (Schouwen-Duiveland)",
      "name": "Serooskerke (Schouwen-Duiveland)",
      "zip": "4327"
    },
    {
      "label": "Serooskerke (Veere)",
      "name": "Serooskerke (Veere)",
      "zip": "4333"
    },
    { "label": "'s-Gravenpolder", "name": "'s-Gravenpolder", "zip": "4430" },
    {
      "label": "'s-Heer Abtskerke",
      "name": "'s-Heer Abtskerke",
      "zip": "4444"
    },
    {
      "label": "'s-Heer Arendskerke",
      "name": "'s-Heer Arendskerke",
      "zip": "4458"
    },
    {
      "label": "'s-Heer Hendrikskinderen",
      "name": "'s-Heer Hendrikskinderen",
      "zip": "4471"
    },
    { "label": "'s-Heerenhoek", "name": "'s-Heerenhoek", "zip": "4453" },
    { "label": "Sint Jansteen", "name": "Sint Jansteen", "zip": "4564" },
    { "label": "Sint Kruis", "name": "Sint Kruis", "zip": "4528" },
    { "label": "Sint Philipsland", "name": "Sint Philipsland", "zip": "4675" },
    { "label": "Barendrecht", "name": "Barendrecht", "zip": "2991" },
    { "label": "Benthuizen", "name": "Benthuizen", "zip": "2730" },
    { "label": "Gorinchem", "name": "Gorinchem", "zip": "4207" },
    { "label": "Katwijk", "name": "Katwijk", "zip": "2225" },
    { "label": "Kedichem", "name": "Kedichem", "zip": "4247" },
    { "label": "Kinderdijk", "name": "Kinderdijk", "zip": "2960" },
    { "label": "Klaaswaal", "name": "Klaaswaal", "zip": "3286" },
    {
      "label": "Koudekerk aan den Rijn",
      "name": "Koudekerk aan den Rijn",
      "zip": "2394"
    },
    {
      "label": "Krimpen aan de Lek",
      "name": "Krimpen aan de Lek",
      "zip": "2930"
    },
    { "label": "Maassluis", "name": "Maassluis", "zip": "3141" },
    {
      "label": "Maasvlakte Rotterdam",
      "name": "Maasvlakte Rotterdam",
      "zip": "3198"
    },
    { "label": "Meerkerk", "name": "Meerkerk", "zip": "4230" },
    { "label": "Melissant", "name": "Melissant", "zip": "3248" },
    { "label": "Papendrecht", "name": "Papendrecht", "zip": "3353" },
    { "label": "Pernis Rotterdam", "name": "Pernis Rotterdam", "zip": "3195" },
    { "label": "Piershil", "name": "Piershil", "zip": "3265" },
    { "label": "Vlaardingen", "name": "Vlaardingen", "zip": "3135" },
    { "label": "Vlist", "name": "Vlist", "zip": "2855" },
    {
      "label": "Vondelingenplaat Rotterdam",
      "name": "Vondelingenplaat Rotterdam",
      "zip": "3195"
    },
    { "label": "Zoetermeer", "name": "Zoetermeer", "zip": "2725" },
    { "label": "Balinge", "name": "Balinge", "zip": "9437" },
    { "label": "Balloërveld", "name": "Balloërveld", "zip": "9459" },
    { "label": "Balloo", "name": "Balloo", "zip": "9458" },
    {
      "label": "Barger-Compascuum",
      "name": "Barger-Compascuum",
      "zip": "7884"
    },
    { "label": "Beilen", "name": "Beilen", "zip": "9410" },
    { "label": "Benneveld", "name": "Benneveld", "zip": "7856" },
    { "label": "Borger", "name": "Borger", "zip": "9530" },
    { "label": "Boschoord", "name": "Boschoord", "zip": "8387" },
    { "label": "Bovensmilde", "name": "Bovensmilde", "zip": "9420" },
    {
      "label": "Broekhuizen (Meppel)",
      "name": "Broekhuizen (Meppel)",
      "zip": "7965"
    },
    { "label": "Bronneger", "name": "Bronneger", "zip": "9527" },
    { "label": "Bronnegerveen", "name": "Bronnegerveen", "zip": "9526" },
    { "label": "Bruntinge", "name": "Bruntinge", "zip": "9435" },
    { "label": "Buinen", "name": "Buinen", "zip": "9528" },
    { "label": "Buinerveen", "name": "Buinerveen", "zip": "9524" },
    { "label": "Bunne", "name": "Bunne", "zip": "9496" },
    { "label": "Nieuw-Buinen", "name": "Nieuw-Buinen", "zip": "9521" },
    { "label": "Nieuw-Dordrecht", "name": "Nieuw-Dordrecht", "zip": "7823" },
    { "label": "Nieuwediep", "name": "Nieuwediep", "zip": "9512" },
    {
      "label": "Nieuweroord (Midden-Drenthe)",
      "name": "Nieuweroord (Midden-Drenthe)",
      "zip": "7910"
    },
    {
      "label": "Nieuweroord (Hoogeveen)",
      "name": "Nieuweroord (Hoogeveen)",
      "zip": "7910"
    },
    { "label": "Nieuwlande", "name": "Nieuwlande", "zip": "7918" },
    {
      "label": "Nieuwlande Coevorden",
      "name": "Nieuwlande Coevorden",
      "zip": "7929"
    },
    { "label": "Nieuw-Roden", "name": "Nieuw-Roden", "zip": "9311" },
    {
      "label": "Nieuw-Schoonebeek",
      "name": "Nieuw-Schoonebeek",
      "zip": "7766"
    },
    { "label": "Nieuw-Weerdinge", "name": "Nieuw-Weerdinge", "zip": "7813" },
    { "label": "Nijensleek", "name": "Nijensleek", "zip": "8382" },
    { "label": "Nijeveen", "name": "Nijeveen", "zip": "7940" },
    { "label": "Nijlande", "name": "Nijlande", "zip": "9452" },
    { "label": "Nooitgedacht", "name": "Nooitgedacht", "zip": "9449" },
    { "label": "Noordscheschut", "name": "Noordscheschut", "zip": "7914" },
    { "label": "Noord-Sleen", "name": "Noord-Sleen", "zip": "7846" },
    { "label": "Norg", "name": "Norg", "zip": "9330" },
    { "label": "Odoorn", "name": "Odoorn", "zip": "7873" },
    { "label": "Odoornerveen", "name": "Odoornerveen", "zip": "7874" },
    { "label": "Oosterhesselen", "name": "Oosterhesselen", "zip": "7860" },
    { "label": "Oranje", "name": "Oranje", "zip": "9416" },
    { "label": "Orvelte", "name": "Orvelte", "zip": "9441" },
    { "label": "Oud Annerveen", "name": "Oud Annerveen", "zip": "9655" },
    { "label": "Oude Willem", "name": "Oude Willem", "zip": "8439" },
    {
      "label": "Oudemolen (Tynaarlo)",
      "name": "Oudemolen (Tynaarlo)",
      "zip": "9484"
    },
    { "label": "Papenvoort", "name": "Papenvoort", "zip": "9447" },
    { "label": "Zeewolde", "name": "Zeewolde", "zip": "3893" },
    { "label": "Aalsum", "name": "Aalsum", "zip": "9121" },
    { "label": "Abbega", "name": "Abbega", "zip": "8617" },
    { "label": "Achlum", "name": "Achlum", "zip": "8806" },
    { "label": "Akkrum", "name": "Akkrum", "zip": "8490" },
    { "label": "Akmarijp", "name": "Akmarijp", "zip": "8541" },
    { "label": "Alde Leie", "name": "Alde Leie", "zip": "9071" },
    { "label": "Aldeboarn", "name": "Aldeboarn", "zip": "8495" },
    { "label": "Aldtsjerk", "name": "Aldtsjerk", "zip": "9064" },
    { "label": "Allingawier", "name": "Allingawier", "zip": "8758" },
    { "label": "Anjum", "name": "Anjum", "zip": "9133" },
    { "label": "Appelscha", "name": "Appelscha", "zip": "8426" },
    { "label": "Arum", "name": "Arum", "zip": "8822" },
    { "label": "Augsbuurt", "name": "Augsbuurt", "zip": "9292" },
    { "label": "Augustinusga", "name": "Augustinusga", "zip": "9284" },
    { "label": "Baaiduinen", "name": "Baaiduinen", "zip": "8881" },
    { "label": "Baaium", "name": "Baaium", "zip": "8841" },
    { "label": "Baard", "name": "Baard", "zip": "8834" },
    { "label": "Bakhuizen", "name": "Bakhuizen", "zip": "8574" },
    { "label": "Bakkeveen", "name": "Bakkeveen", "zip": "9243" },
    { "label": "Heerenveen", "name": "Heerenveen", "zip": "8442" },
    { "label": "Hegebeintum", "name": "Hegebeintum", "zip": "9173" },
    { "label": "Hemelum", "name": "Hemelum", "zip": "8584" },
    { "label": "Hempens", "name": "Hempens", "zip": "9086" },
    { "label": "Hemrik", "name": "Hemrik", "zip": "8409" },
    { "label": "Herbaijum", "name": "Herbaijum", "zip": "8807" },
    { "label": "Hiaure", "name": "Hiaure", "zip": "9148" },
    { "label": "Hichtum", "name": "Hichtum", "zip": "8743" },
    { "label": "Hidaard", "name": "Hidaard", "zip": "8737" },
    { "label": "Hieslum", "name": "Hieslum", "zip": "8762" },
    { "label": "Hijum", "name": "Hijum", "zip": "9054" },
    { "label": "Hilaard", "name": "Hilaard", "zip": "9027" },
    { "label": "Hindeloopen", "name": "Hindeloopen", "zip": "8713" },
    { "label": "Hinnaard", "name": "Hinnaard", "zip": "8844" },
    { "label": "Lioessens", "name": "Lioessens", "zip": "9134" },
    { "label": "Lippenhuizen", "name": "Lippenhuizen", "zip": "8408" },
    { "label": "Loënga", "name": "Loënga", "zip": "8631" },
    { "label": "Lollum", "name": "Lollum", "zip": "8823" },
    { "label": "Longerhouw", "name": "Longerhouw", "zip": "8745" },
    { "label": "Luinjeberd", "name": "Luinjeberd", "zip": "8459" },
    { "label": "Luxwoude", "name": "Luxwoude", "zip": "8405" },
    { "label": "Lytsewierrum", "name": "Lytsewierrum", "zip": "8642" },
    { "label": "Makkinga", "name": "Makkinga", "zip": "8423" },
    { "label": "Makkum", "name": "Makkum", "zip": "8754" },
    { "label": "Mantgum", "name": "Mantgum", "zip": "9022" },
    { "label": "Marrum", "name": "Marrum", "zip": "9073" },
    { "label": "Marsum", "name": "Marsum", "zip": "9034" },
    { "label": "Menaam", "name": "Menaam", "zip": "9036" },
    { "label": "Metslawier", "name": "Metslawier", "zip": "9123" },
    { "label": "Midlum", "name": "Midlum", "zip": "8871" },
    { "label": "Midsland", "name": "Midsland", "zip": "8890" },
    { "label": "Miedum", "name": "Miedum", "zip": "9082" },
    { "label": "Mildam", "name": "Mildam", "zip": "8454" },
    { "label": "Minnertsga", "name": "Minnertsga", "zip": "9047" },
    { "label": "Mirns", "name": "Mirns", "zip": "8573" },
    { "label": "Moddergat", "name": "Moddergat", "zip": "9142" },
    { "label": "Molkwerum", "name": "Molkwerum", "zip": "8722" },
    { "label": "Morra", "name": "Morra", "zip": "9135" },
    { "label": "Mûnein", "name": "Mûnein", "zip": "9063" },
    { "label": "Munnekeburen", "name": "Munnekeburen", "zip": "8485" },
    { "label": "Munnekezijl", "name": "Munnekezijl", "zip": "9853" },
    { "label": "Nes (Heerenveen)", "name": "Nes (Heerenveen)", "zip": "8494" },
    {
      "label": "Nes (Dongeradeel)",
      "name": "Nes (Dongeradeel)",
      "zip": "9143"
    },
    { "label": "Nes (Ameland)", "name": "Nes (Ameland)", "zip": "9163" },
    { "label": "Niawier", "name": "Niawier", "zip": "9138" },
    { "label": "Nieuwebrug", "name": "Nieuwebrug", "zip": "8469" },
    { "label": "Balgoij", "name": "Balgoij", "zip": "6613" },
    { "label": "Barchem", "name": "Barchem", "zip": "7244" },
    { "label": "Barneveld", "name": "Barneveld", "zip": "3770" },
    { "label": "Batenburg", "name": "Batenburg", "zip": "6634" },
    { "label": "Beek (Ubbergen)", "name": "Beek (Ubbergen)", "zip": "6573" },
    {
      "label": "Beek (Montferland)",
      "name": "Beek (Montferland)",
      "zip": "7037"
    },
    { "label": "Dreumel", "name": "Dreumel", "zip": "6620" },
    { "label": "Driel", "name": "Driel", "zip": "6665" },
    { "label": "Druten", "name": "Druten", "zip": "6650" },
    { "label": "Duiven", "name": "Duiven", "zip": "6920" },
    { "label": "Groesbeek", "name": "Groesbeek", "zip": "6562" },
    { "label": "Groessen", "name": "Groessen", "zip": "6923" },
    { "label": "Haaften", "name": "Haaften", "zip": "4174" },
    { "label": "Haalderen", "name": "Haalderen", "zip": "6685" },
    { "label": "Haarlo", "name": "Haarlo", "zip": "7273" },
    { "label": "Hall", "name": "Hall", "zip": "6964" },
    { "label": "Halle", "name": "Halle", "zip": "7025" },
    { "label": "Harderwijk", "name": "Harderwijk", "zip": "3840" },
    { "label": "Loenen", "name": "Loenen", "zip": "7370" },
    { "label": "Loerbeek", "name": "Loerbeek", "zip": "7036" },
    { "label": "Loo Gld (Duiven)", "name": "Loo Gld (Duiven)", "zip": "6924" },
    {
      "label": "Loo Gld (Lingewaard)",
      "name": "Loo Gld (Lingewaard)",
      "zip": "6924"
    },
    { "label": "Lunteren", "name": "Lunteren", "zip": "6740" },
    { "label": "Maasbommel", "name": "Maasbommel", "zip": "6627" },
    { "label": "Malden", "name": "Malden", "zip": "6580" },
    { "label": "Mariënvelde", "name": "Mariënvelde", "zip": "7263" },
    { "label": "Maurik", "name": "Maurik", "zip": "4020" },
    { "label": "Noordeinde Gld", "name": "Noordeinde Gld", "zip": "8079" },
    { "label": "Nunspeet", "name": "Nunspeet", "zip": "8070" },
    { "label": "Ubbergen", "name": "Ubbergen", "zip": "6573" },
    { "label": "Uddel", "name": "Uddel", "zip": "3888" },
    { "label": "Ugchelen", "name": "Ugchelen", "zip": "7336" },
    { "label": "Ulft", "name": "Ulft", "zip": "7070" },
    { "label": "Vaassen", "name": "Vaassen", "zip": "8170" },
    { "label": "Valburg", "name": "Valburg", "zip": "6675" },
    { "label": "Zeddam", "name": "Zeddam", "zip": "7038" },
    { "label": "Zelhem", "name": "Zelhem", "zip": "7020" },
    {
      "label": "Zennewijnen (Tiel)",
      "name": "Zennewijnen (Tiel)",
      "zip": "4062"
    },
    {
      "label": "Zennewijnen (Neerijnen)",
      "name": "Zennewijnen (Neerijnen)",
      "zip": "4062"
    },
    { "label": "Zetten", "name": "Zetten", "zip": "6670" },
    { "label": "Zevenaar", "name": "Zevenaar", "zip": "6900" },
    { "label": "Pieterzijl", "name": "Pieterzijl", "zip": "9844" },
    { "label": "Rasquert", "name": "Rasquert", "zip": "9955" },
    { "label": "Roodeschool", "name": "Roodeschool", "zip": "9983" },
    {
      "label": "Rottum (Eemsmond)",
      "name": "Rottum (Eemsmond)",
      "zip": "9998"
    },
    { "label": "Saaksum", "name": "Saaksum", "zip": "9886" },
    { "label": "Saaxumhuizen", "name": "Saaxumhuizen", "zip": "9957" },
    { "label": "Sappemeer", "name": "Sappemeer", "zip": "9610" },
    { "label": "Sauwerd", "name": "Sauwerd", "zip": "9771" },
    { "label": "Scharmer", "name": "Scharmer", "zip": "9616" },
    { "label": "Scheemda", "name": "Scheemda", "zip": "9679" },
    { "label": "Schildwolde", "name": "Schildwolde", "zip": "9626" },
    { "label": "Schouwerzijl", "name": "Schouwerzijl", "zip": "9962" },
    { "label": "Sebaldeburen", "name": "Sebaldeburen", "zip": "9862" },
    { "label": "Sellingen", "name": "Sellingen", "zip": "9550" },
    { "label": "Siddeburen", "name": "Siddeburen", "zip": "9628" },
    { "label": "Sint Annen", "name": "Sint Annen", "zip": "9796" },
    { "label": "Slochteren", "name": "Slochteren", "zip": "9620" },
    { "label": "Spijk Gn", "name": "Spijk Gn", "zip": "9909" },
    { "label": "Stadskanaal", "name": "Stadskanaal", "zip": "9500" },
    { "label": "Beutenaken", "name": "Beutenaken", "zip": "6278" },
    { "label": "Bingelrade", "name": "Bingelrade", "zip": "6456" },
    { "label": "Blitterswijck", "name": "Blitterswijck", "zip": "5863" },
    { "label": "Bocholtz", "name": "Bocholtz", "zip": "6350" },
    { "label": "Born", "name": "Born", "zip": "6120" },
    {
      "label": "Broekhuizen (Horst aan de Maas)",
      "name": "Broekhuizen (Horst aan de Maas)",
      "zip": "5872"
    },
    { "label": "Broekhuizenvorst", "name": "Broekhuizenvorst", "zip": "5871" },
    { "label": "Brunssum", "name": "Brunssum", "zip": "6440" },
    { "label": "Horn", "name": "Horn", "zip": "6085" },
    { "label": "Horst", "name": "Horst", "zip": "5960" },
    { "label": "Hulsberg", "name": "Hulsberg", "zip": "6336" },
    { "label": "Hunsel", "name": "Hunsel", "zip": "6013" },
    { "label": "Ingber", "name": "Ingber", "zip": "6273" },
    { "label": "Ittervoort", "name": "Ittervoort", "zip": "6014" },
    { "label": "Jabeek", "name": "Jabeek", "zip": "6454" },
    { "label": "Kelpen-Oler", "name": "Kelpen-Oler", "zip": "6037" },
    { "label": "Kerkrade", "name": "Kerkrade", "zip": "6460" },
    { "label": "Montfort", "name": "Montfort", "zip": "6065" },
    { "label": "Mook", "name": "Mook", "zip": "6585" },
    { "label": "Moorveld", "name": "Moorveld", "zip": "6235" },
    { "label": "Munstergeleen", "name": "Munstergeleen", "zip": "6151" },
    { "label": "Nederweert", "name": "Nederweert", "zip": "6030" },
    { "label": "Nederweert-Eind", "name": "Nederweert-Eind", "zip": "6034" },
    { "label": "Neer", "name": "Neer", "zip": "6086" },
    { "label": "Neeritter", "name": "Neeritter", "zip": "6015" },
    { "label": "Nieuwstadt", "name": "Nieuwstadt", "zip": "6118" },
    { "label": "Noorbeek", "name": "Noorbeek", "zip": "6255" },
    { "label": "Venlo", "name": "Venlo", "zip": "5916" },
    { "label": "Venray", "name": "Venray", "zip": "5800" },
    { "label": "Boxtel", "name": "Boxtel", "zip": "5283" },
    { "label": "Gemonde", "name": "Gemonde", "zip": "5293" },
    { "label": "Genderen", "name": "Genderen", "zip": "4265" },
    { "label": "Giessen", "name": "Giessen", "zip": "4283" },
    { "label": "Gilze", "name": "Gilze", "zip": "5126" },
    { "label": "Goirle", "name": "Goirle", "zip": "5050" },
    { "label": "Liempde", "name": "Liempde", "zip": "5298" },
    { "label": "Lierop", "name": "Lierop", "zip": "5715" },
    { "label": "Lieshout", "name": "Lieshout", "zip": "5735" },
    { "label": "Liessel", "name": "Liessel", "zip": "5756" },
    { "label": "Linden", "name": "Linden", "zip": "5439" },
    { "label": "Lith", "name": "Lith", "zip": "5396" },
    { "label": "Lithoijen", "name": "Lithoijen", "zip": "5396" },
    { "label": "Loon op Zand", "name": "Loon op Zand", "zip": "5175" },
    { "label": "Loosbroek", "name": "Loosbroek", "zip": "5471" },
    { "label": "Luyksgestel", "name": "Luyksgestel", "zip": "5575" },
    { "label": "Maarheeze", "name": "Maarheeze", "zip": "6026" },
    { "label": "Maashees", "name": "Maashees", "zip": "5823" },
    { "label": "Macharen", "name": "Macharen", "zip": "5367" },
    { "label": "Oud Gastel", "name": "Oud Gastel", "zip": "4751" },
    {
      "label": "Oudemolen (Moerdijk)",
      "name": "Oudemolen (Moerdijk)",
      "zip": "4796"
    },
    { "label": "Oudenbosch", "name": "Oudenbosch", "zip": "4730" },
    { "label": "Oudheusden", "name": "Oudheusden", "zip": "5256" },
    { "label": "Overlangel", "name": "Overlangel", "zip": "5371" },
    { "label": "Overloon", "name": "Overloon", "zip": "5825" },
    { "label": "Waalwijk", "name": "Waalwijk", "zip": "5141" },
    { "label": "Waardhuizen", "name": "Waardhuizen", "zip": "4287" },
    { "label": "Wagenberg", "name": "Wagenberg", "zip": "4845" },
    { "label": "Wanroij", "name": "Wanroij", "zip": "5446" },
    { "label": "Waspik", "name": "Waspik", "zip": "5162" },
    { "label": "Werkendam", "name": "Werkendam", "zip": "4250" },
    { "label": "Amstelveen", "name": "Amstelveen", "zip": "1187" },
    { "label": "Beverwijk", "name": "Beverwijk", "zip": "1943" },
    { "label": "Blaricum", "name": "Blaricum", "zip": "1251" },
    { "label": "Duivendrecht", "name": "Duivendrecht", "zip": "1115" },
    { "label": "Edam", "name": "Edam", "zip": "1135" },
    {
      "label": "Egmond aan den Hoef",
      "name": "Egmond aan den Hoef",
      "zip": "1862"
    },
    { "label": "Egmond aan Zee", "name": "Egmond aan Zee", "zip": "1930" },
    { "label": "Egmond-Binnen", "name": "Egmond-Binnen", "zip": "1931" },
    { "label": "Enkhuizen", "name": "Enkhuizen", "zip": "1600" },
    { "label": "Heerhugowaard", "name": "Heerhugowaard", "zip": "1700" },
    { "label": "Ilpendam", "name": "Ilpendam", "zip": "1452" },
    { "label": "Jisp", "name": "Jisp", "zip": "1546" },
    { "label": "Julianadorp", "name": "Julianadorp", "zip": "1786" },
    { "label": "Katwoude", "name": "Katwoude", "zip": "1145" },
    {
      "label": "Koedijk (Langedijk)",
      "name": "Koedijk (Langedijk)",
      "zip": "1830"
    },
    {
      "label": "Koedijk (Alkmaar)",
      "name": "Koedijk (Alkmaar)",
      "zip": "1831"
    },
    { "label": "Purmerend", "name": "Purmerend", "zip": "1445" },
    { "label": "Purmerland", "name": "Purmerland", "zip": "1451" },
    { "label": "Rijsenhout", "name": "Rijsenhout", "zip": "1435" },
    { "label": "West-Graftdijk", "name": "West-Graftdijk", "zip": "1486" },
    { "label": "Westknollendam", "name": "Westknollendam", "zip": "1525" },
    { "label": "Westwoud", "name": "Westwoud", "zip": "1617" },
    { "label": "Westzaan", "name": "Westzaan", "zip": "1550" },
    { "label": "Weteringbrug", "name": "Weteringbrug", "zip": "2156" },
    { "label": "Wieringerwaard", "name": "Wieringerwaard", "zip": "1766" },
    { "label": "Wieringerwerf", "name": "Wieringerwerf", "zip": "1770" },
    { "label": "Wijdenes", "name": "Wijdenes", "zip": "1608" },
    { "label": "Wijdewormer", "name": "Wijdewormer", "zip": "1456" },
    { "label": "Wijk aan Zee", "name": "Wijk aan Zee", "zip": "1949" },
    { "label": "Winkel", "name": "Winkel", "zip": "1730" },
    { "label": "Wognum", "name": "Wognum", "zip": "1687" },
    { "label": "Wormer", "name": "Wormer", "zip": "1530" },
    { "label": "Borne", "name": "Borne", "zip": "7622" },
    { "label": "Bornerbroek", "name": "Bornerbroek", "zip": "7627" },
    { "label": "Broekland", "name": "Broekland", "zip": "8107" },
    { "label": "Brucht", "name": "Brucht", "zip": "7696" },
    { "label": "Bruchterveld", "name": "Bruchterveld", "zip": "7695" },
    { "label": "Bruinehaar", "name": "Bruinehaar", "zip": "7675" },
    { "label": "Collendoorn", "name": "Collendoorn", "zip": "7798" },
    { "label": "Colmschate", "name": "Colmschate", "zip": "7429" },
    { "label": "Daarle", "name": "Daarle", "zip": "7688" },
    { "label": "Daarlerveen", "name": "Daarlerveen", "zip": "7687" },
    { "label": "Dalfsen", "name": "Dalfsen", "zip": "7711" },
    { "label": "Kampen", "name": "Kampen", "zip": "8266" },
    { "label": "Kamperveen", "name": "Kamperveen", "zip": "8265" },
    {
      "label": "Kloosterhaar (Hardenberg)",
      "name": "Kloosterhaar (Hardenberg)",
      "zip": "7694"
    },
    {
      "label": "Kloosterhaar (Twenterand)",
      "name": "Kloosterhaar (Twenterand)",
      "zip": "7694"
    },
    { "label": "Kuinre", "name": "Kuinre", "zip": "8374" },
    { "label": "Laag Zuthem", "name": "Laag Zuthem", "zip": "8055" },
    { "label": "Langeveen", "name": "Langeveen", "zip": "7678" },
    {
      "label": "Lattrop-Breklenkamp",
      "name": "Lattrop-Breklenkamp",
      "zip": "7635"
    },
    { "label": "Lemele", "name": "Lemele", "zip": "8148" },
    { "label": "Lemelerveld", "name": "Lemelerveld", "zip": "8150" },
    { "label": "Lettele", "name": "Lettele", "zip": "7434" },
    { "label": "Lierderholthuis", "name": "Lierderholthuis", "zip": "8144" },
    { "label": "Loozen", "name": "Loozen", "zip": "7778" },
    { "label": "Losser", "name": "Losser", "zip": "7580" },
    { "label": "Vriezenveen", "name": "Vriezenveen", "zip": "7671" },
    { "label": "Vroomshoop", "name": "Vroomshoop", "zip": "7680" },
    { "label": "Wanneperveen", "name": "Wanneperveen", "zip": "7946" },
    { "label": "Weerselo", "name": "Weerselo", "zip": "7595" },
    { "label": "Welsum", "name": "Welsum", "zip": "8196" },
    { "label": "Wesepe", "name": "Wesepe", "zip": "8121" },
    {
      "label": "Westerhaar-Vriezenveensewijk",
      "name": "Westerhaar-Vriezenveensewijk",
      "zip": "7676"
    },
    { "label": "Wetering", "name": "Wetering", "zip": "8363" },
    { "label": "Amersfoort", "name": "Amersfoort", "zip": "3824" },
    { "label": "Amstelhoek", "name": "Amstelhoek", "zip": "1427" },
    { "label": "Austerlitz", "name": "Austerlitz", "zip": "3707" },
    { "label": "Baambrugge", "name": "Baambrugge", "zip": "1396" },
    { "label": "Leersum", "name": "Leersum", "zip": "3956" },
    { "label": "Leusden", "name": "Leusden", "zip": "3813" },
    { "label": "Linschoten", "name": "Linschoten", "zip": "3460" },
    {
      "label": "Loenen aan de Vecht",
      "name": "Loenen aan de Vecht",
      "zip": "3632"
    },
    { "label": "Loenersloot", "name": "Loenersloot", "zip": "3634" },
    { "label": "Vleuten", "name": "Vleuten", "zip": "3451" },
    { "label": "Vreeland", "name": "Vreeland", "zip": "3633" },
    { "label": "Waverveen", "name": "Waverveen", "zip": "3646" },
    { "label": "Werkhoven", "name": "Werkhoven", "zip": "3985" },
    { "label": "Westbroek", "name": "Westbroek", "zip": "3615" },
    {
      "label": "Wijk bij Duurstede",
      "name": "Wijk bij Duurstede",
      "zip": "3945"
    },
    { "label": "Kloosterzande", "name": "Kloosterzande", "zip": "4587" },
    { "label": "Koewacht", "name": "Koewacht", "zip": "4576" },
    { "label": "Kortgene", "name": "Kortgene", "zip": "4484" },
    { "label": "Koudekerke", "name": "Koudekerke", "zip": "4361" },
    { "label": "Krabbendijke", "name": "Krabbendijke", "zip": "4413" },
    { "label": "Kruiningen", "name": "Kruiningen", "zip": "4416" },
    { "label": "Kuitaart", "name": "Kuitaart", "zip": "4584" },
    { "label": "Kwadendamme", "name": "Kwadendamme", "zip": "4434" },
    { "label": "Lamswaarde", "name": "Lamswaarde", "zip": "4586" },
    { "label": "Lewedorp", "name": "Lewedorp", "zip": "4456" },
    { "label": "Meliskerke", "name": "Meliskerke", "zip": "4365" },
    { "label": "Westdorpe", "name": "Westdorpe", "zip": "4554" },
    { "label": "Westkapelle", "name": "Westkapelle", "zip": "4360" },
    { "label": "Wilhelminadorp", "name": "Wilhelminadorp", "zip": "4475" },
    { "label": "Wissenkerke", "name": "Wissenkerke", "zip": "4490" },
    { "label": "Wolphaartsdijk", "name": "Wolphaartsdijk", "zip": "4458" },
    { "label": "Yerseke", "name": "Yerseke", "zip": "4400" },
    { "label": "Zaamslag", "name": "Zaamslag", "zip": "4542" },
    { "label": "Zierikzee", "name": "Zierikzee", "zip": "4300" },
    { "label": "Hellevoetsluis", "name": "Hellevoetsluis", "zip": "3223" },
    {
      "label": "Hendrik-Ido-Ambacht",
      "name": "Hendrik-Ido-Ambacht",
      "zip": "3340"
    },
    { "label": "Oegstgeest", "name": "Oegstgeest", "zip": "2343" },
    { "label": "Ooltgensplaat", "name": "Ooltgensplaat", "zip": "3257" },
    { "label": "Oosterwijk", "name": "Oosterwijk", "zip": "4163" },
    { "label": "Oostvoorne", "name": "Oostvoorne", "zip": "3233" },
    { "label": "Ottoland", "name": "Ottoland", "zip": "2974" },
    { "label": "Oud Ade", "name": "Oud Ade", "zip": "2374" },
    { "label": "Oud-Alblas", "name": "Oud-Alblas", "zip": "2969" },
    { "label": "Oud-Beijerland", "name": "Oud-Beijerland", "zip": "3260" },
    {
      "label": "Stad aan 't Haringvliet",
      "name": "Stad aan 't Haringvliet",
      "zip": "3243"
    },
    { "label": "Stellendam", "name": "Stellendam", "zip": "3250" },
    { "label": "Stolwijk", "name": "Stolwijk", "zip": "2820" },
    { "label": "Streefkerk", "name": "Streefkerk", "zip": "2959" },
    { "label": "Strijen", "name": "Strijen", "zip": "3290" },
    { "label": "Strijensas", "name": "Strijensas", "zip": "3292" },
    { "label": "Ter Aar", "name": "Ter Aar", "zip": "2460" },
    { "label": "Ter Heijde", "name": "Ter Heijde", "zip": "2684" },
    {
      "label": "Tienhoven (Zederik)",
      "name": "Tienhoven (Zederik)",
      "zip": "4235"
    },
    { "label": "Tinte", "name": "Tinte", "zip": "3234" },
    {
      "label": "Valkenburg (Katwijk)",
      "name": "Valkenburg (Katwijk)",
      "zip": "2235"
    },
    { "label": "Meppel", "name": "Meppel", "zip": "7941" },
    { "label": "Meppen", "name": "Meppen", "zip": "7855" },
    { "label": "Midlaren", "name": "Midlaren", "zip": "9475" },
    { "label": "Nietap", "name": "Nietap", "zip": "9312" },
    { "label": "Nieuw Annerveen", "name": "Nieuw Annerveen", "zip": "9657" },
    { "label": "Nieuw-Amsterdam", "name": "Nieuw-Amsterdam", "zip": "7823" },
    { "label": "Nieuw-Balinge", "name": "Nieuw-Balinge", "zip": "7938" },
    { "label": "Britswert", "name": "Britswert", "zip": "8636" },
    { "label": "Broek", "name": "Broek", "zip": "8512" },
    { "label": "Broeksterwâld", "name": "Broeksterwâld", "zip": "9108" },
    { "label": "Buitenpost", "name": "Buitenpost", "zip": "9285" },
    { "label": "Burdaard", "name": "Burdaard", "zip": "9111" },
    { "label": "Buren (Ameland)", "name": "Buren (Ameland)", "zip": "9164" },
    { "label": "Burgum", "name": "Burgum", "zip": "9250" },
    { "label": "Burgwerd", "name": "Burgwerd", "zip": "8742" },
    { "label": "Burum", "name": "Burum", "zip": "9851" },
    { "label": "Cornwerd", "name": "Cornwerd", "zip": "8753" },
    { "label": "Damwâld", "name": "Damwâld", "zip": "9104" },
    { "label": "De Blesse", "name": "De Blesse", "zip": "8397" },
    { "label": "De Falom", "name": "De Falom", "zip": "9109" },
    { "label": "De Hoeve", "name": "De Hoeve", "zip": "8394" },
    { "label": "De Knipe", "name": "De Knipe", "zip": "8456" },
    { "label": "De Tike", "name": "De Tike", "zip": "9219" },
    { "label": "De Veenhoop", "name": "De Veenhoop", "zip": "9215" },
    { "label": "De Westereen", "name": "De Westereen", "zip": "9105" },
    { "label": "Jouswier", "name": "Jouswier", "zip": "9124" },
    { "label": "Jubbega", "name": "Jubbega", "zip": "8410" },
    { "label": "Jutrijp", "name": "Jutrijp", "zip": "8623" },
    { "label": "Kaard", "name": "Kaard", "zip": "8883" },
    { "label": "Katlijk", "name": "Katlijk", "zip": "8455" },
    { "label": "Kimswerd", "name": "Kimswerd", "zip": "8821" },
    { "label": "Kinnum", "name": "Kinnum", "zip": "8885" },
    { "label": "Klooster Lidlum", "name": "Klooster Lidlum", "zip": "8853" },
    { "label": "Koarnjum", "name": "Koarnjum", "zip": "9056" },
    { "label": "Kolderwolde", "name": "Kolderwolde", "zip": "8583" },
    { "label": "Kollum", "name": "Kollum", "zip": "9290" },
    { "label": "Kollumerpomp", "name": "Kollumerpomp", "zip": "9293" },
    { "label": "Kollumerzwaag", "name": "Kollumerzwaag", "zip": "9298" },
    { "label": "Kootstertille", "name": "Kootstertille", "zip": "9288" },
    { "label": "Kornwerderzand", "name": "Kornwerderzand", "zip": "8752" },
    { "label": "Kortehemmen", "name": "Kortehemmen", "zip": "9211" },
    { "label": "Koudum", "name": "Koudum", "zip": "8723" },
    { "label": "Koufurderrige", "name": "Koufurderrige", "zip": "8529" },
    { "label": "Kûbaard", "name": "Kûbaard", "zip": "8732" },
    { "label": "Landerum", "name": "Landerum", "zip": "8893" },
    { "label": "Langedijke", "name": "Langedijke", "zip": "8425" },
    { "label": "Langelille", "name": "Langelille", "zip": "8484" },
    { "label": "Langezwaag", "name": "Langezwaag", "zip": "8404" },
    { "label": "Langweer", "name": "Langweer", "zip": "8525" },
    { "label": "Oosterzee", "name": "Oosterzee", "zip": "8536" },
    { "label": "Oosthem", "name": "Oosthem", "zip": "8618" },
    {
      "label": "Oostrum (Dongeradeel)",
      "name": "Oostrum (Dongeradeel)",
      "zip": "9125"
    },
    { "label": "Opeinde", "name": "Opeinde", "zip": "9218" },
    { "label": "Oppenhuizen", "name": "Oppenhuizen", "zip": "8624" },
    { "label": "Oranjewoud", "name": "Oranjewoud", "zip": "8443" },
    { "label": "Oudebildtzijl", "name": "Oudebildtzijl", "zip": "9078" },
    {
      "label": "Oudega (De Friese Meren)",
      "name": "Oudega (De Friese Meren)",
      "zip": "8582"
    },
    {
      "label": "Oudega (Súdwest Fryslân)",
      "name": "Oudega (Súdwest Fryslân)",
      "zip": "8614"
    },
    {
      "label": "Oudega (Smallingerland)",
      "name": "Oudega (Smallingerland)",
      "zip": "9216"
    },
    { "label": "Oudehaske", "name": "Oudehaske", "zip": "8465" },
    { "label": "Oudehorne", "name": "Oudehorne", "zip": "8413" },
    { "label": "Oudemirdum", "name": "Oudemirdum", "zip": "8567" },
    { "label": "Oudeschoot", "name": "Oudeschoot", "zip": "8451" },
    { "label": "Oudwoude", "name": "Oudwoude", "zip": "9294" },
    { "label": "Ouwsterhaule", "name": "Ouwsterhaule", "zip": "8513" },
    { "label": "Ouwster-Nijega", "name": "Ouwster-Nijega", "zip": "8514" },
    { "label": "Paesens", "name": "Paesens", "zip": "9136" },
    { "label": "Parrega", "name": "Parrega", "zip": "8763" },
    { "label": "Peins", "name": "Peins", "zip": "8812" },
    { "label": "Peperga", "name": "Peperga", "zip": "8396" },
    { "label": "Piaam", "name": "Piaam", "zip": "8756" },
    { "label": "Pietersbierum", "name": "Pietersbierum", "zip": "8856" },
    { "label": "Pingjum", "name": "Pingjum", "zip": "8749" },
    { "label": "Poppenwier", "name": "Poppenwier", "zip": "9013" },
    { "label": "Raard", "name": "Raard", "zip": "9155" },
    { "label": "Raerd", "name": "Raerd", "zip": "9012" },
    { "label": "Ravenswoud", "name": "Ravenswoud", "zip": "8427" },
    { "label": "Readtsjerk", "name": "Readtsjerk", "zip": "9067" },
    { "label": "Reahûs", "name": "Reahûs", "zip": "8736" },
    { "label": "Reduzum", "name": "Reduzum", "zip": "9008" },
    { "label": "Reitsum", "name": "Reitsum", "zip": "9175" },
    { "label": "Ried", "name": "Ried", "zip": "8811" },
    { "label": "Rien", "name": "Rien", "zip": "8637" },
    { "label": "Rijs", "name": "Rijs", "zip": "8572" },
    { "label": "Rinsumageast", "name": "Rinsumageast", "zip": "9105" },
    { "label": "Rohel", "name": "Rohel", "zip": "8507" },
    { "label": "Rotstergaast", "name": "Rotstergaast", "zip": "8462" },
    { "label": "Rotsterhaule", "name": "Rotsterhaule", "zip": "8463" },
    { "label": "Rottevalle", "name": "Rottevalle", "zip": "9221" },
    {
      "label": "Rottum (De Friese Meren)",
      "name": "Rottum (De Friese Meren)",
      "zip": "8461"
    },
    { "label": "Ruigahuizen", "name": "Ruigahuizen", "zip": "8564" },
    { "label": "Ryptsjerk", "name": "Ryptsjerk", "zip": "9256" },
    { "label": "Sandfirden", "name": "Sandfirden", "zip": "8613" },
    { "label": "Schalsum", "name": "Schalsum", "zip": "8813" },
    { "label": "Scharnegoutum", "name": "Scharnegoutum", "zip": "8629" },
    { "label": "Beekbergen", "name": "Beekbergen", "zip": "7360" },
    { "label": "Beemte Broekland", "name": "Beemte Broekland", "zip": "7341" },
    { "label": "Beesd", "name": "Beesd", "zip": "4153" },
    { "label": "Beltrum", "name": "Beltrum", "zip": "7156" },
    { "label": "Bemmel", "name": "Bemmel", "zip": "6680" },
    { "label": "Beneden-Leeuwen", "name": "Beneden-Leeuwen", "zip": "6658" },
    { "label": "Bennekom", "name": "Bennekom", "zip": "6720" },
    { "label": "Echteld", "name": "Echteld", "zip": "4033" },
    { "label": "Eck en Wiel", "name": "Eck en Wiel", "zip": "4021" },
    { "label": "Harfsen", "name": "Harfsen", "zip": "7217" },
    { "label": "Harreveld", "name": "Harreveld", "zip": "7135" },
    { "label": "Harskamp", "name": "Harskamp", "zip": "6732" },
    { "label": "Megchelen", "name": "Megchelen", "zip": "7078" },
    { "label": "Meteren", "name": "Meteren", "zip": "4194" },
    {
      "label": "Millingen aan de Rijn",
      "name": "Millingen aan de Rijn",
      "zip": "6566"
    },
    { "label": "Nederasselt", "name": "Nederasselt", "zip": "6612" },
    { "label": "Nederhemert", "name": "Nederhemert", "zip": "5317" },
    { "label": "Neede", "name": "Neede", "zip": "7160" },
    { "label": "Neerijnen", "name": "Neerijnen", "zip": "4181" },
    { "label": "Netterden", "name": "Netterden", "zip": "7077" },
    { "label": "Nieuwaal", "name": "Nieuwaal", "zip": "5313" },
    { "label": "Niftrik", "name": "Niftrik", "zip": "6606" },
    { "label": "Nijbroek", "name": "Nijbroek", "zip": "7397" },
    { "label": "Opheusden", "name": "Opheusden", "zip": "4043" },
    { "label": "Opijnen", "name": "Opijnen", "zip": "4184" },
    { "label": "Otterlo", "name": "Otterlo", "zip": "6730" },
    { "label": "Overasselt", "name": "Overasselt", "zip": "6610" },
    { "label": "Pannerden", "name": "Pannerden", "zip": "6911" },
    { "label": "Persingen", "name": "Persingen", "zip": "6575" },
    { "label": "Poederoijen", "name": "Poederoijen", "zip": "5307" },
    { "label": "Puiflijk", "name": "Puiflijk", "zip": "6655" },
    { "label": "Putten", "name": "Putten", "zip": "3853" },
    { "label": "Radio Kootwijk", "name": "Radio Kootwijk", "zip": "7348" },
    { "label": "Vierhouten", "name": "Vierhouten", "zip": "8076" },
    {
      "label": "Voorst (Oude Ijsselstreek)",
      "name": "Voorst (Oude Ijsselstreek)",
      "zip": "7083"
    },
    { "label": "Voorst (Voorst)", "name": "Voorst (Voorst)", "zip": "7383" },
    { "label": "Voorthuizen", "name": "Voorthuizen", "zip": "3771" },
    { "label": "Vorchten", "name": "Vorchten", "zip": "8193" },
    { "label": "Vorden", "name": "Vorden", "zip": "7250" },
    { "label": "Vragender", "name": "Vragender", "zip": "7134" },
    { "label": "Vuren", "name": "Vuren", "zip": "4212" },
    { "label": "Waardenburg", "name": "Waardenburg", "zip": "4180" },
    { "label": "Wadenoijen", "name": "Wadenoijen", "zip": "4014" },
    { "label": "Zieuwent", "name": "Zieuwent", "zip": "7136" },
    { "label": "Zoelen", "name": "Zoelen", "zip": "4010" },
    { "label": "Zoelmond", "name": "Zoelmond", "zip": "4110" },
    { "label": "Zuilichem", "name": "Zuilichem", "zip": "5305" },
    { "label": "Zutphen", "name": "Zutphen", "zip": "7200" },
    {
      "label": "Startenhuizen (Loppersum)",
      "name": "Startenhuizen (Loppersum)",
      "zip": "9924"
    },
    {
      "label": "Startenhuizen (Eemsmond)",
      "name": "Startenhuizen (Eemsmond)",
      "zip": "9925"
    },
    { "label": "Stedum", "name": "Stedum", "zip": "9919" },
    { "label": "Steendam", "name": "Steendam", "zip": "9629" },
    { "label": "Stitswerd", "name": "Stitswerd", "zip": "9999" },
    { "label": "'t Waar", "name": "'t Waar", "zip": "9942" },
    { "label": "'t Zandt", "name": "'t Zandt", "zip": "9915" },
    { "label": "Ten Boer", "name": "Ten Boer", "zip": "9790" },
    { "label": "Ten Post", "name": "Ten Post", "zip": "9792" },
    { "label": "Ter Apel", "name": "Ter Apel", "zip": "9560" },
    { "label": "Eijsden", "name": "Eijsden", "zip": "6245" },
    { "label": "Einighausen", "name": "Einighausen", "zip": "6142" },
    { "label": "Elkenrade", "name": "Elkenrade", "zip": "6289" },
    { "label": "Ell", "name": "Ell", "zip": "6011" },
    { "label": "Elsloo (Stein)", "name": "Elsloo (Stein)", "zip": "6180" },
    { "label": "Epen", "name": "Epen", "zip": "6285" },
    { "label": "Evertsoord", "name": "Evertsoord", "zip": "5977" },
    { "label": "Eygelshoven", "name": "Eygelshoven", "zip": "6464" },
    { "label": "Eys", "name": "Eys", "zip": "6287" },
    { "label": "Geijsteren", "name": "Geijsteren", "zip": "5862" },
    { "label": "Nunhem", "name": "Nunhem", "zip": "6083" },
    { "label": "Nuth", "name": "Nuth", "zip": "6360" },
    { "label": "Obbicht", "name": "Obbicht", "zip": "6125" },
    { "label": "Ohé en Laak", "name": "Ohé en Laak", "zip": "6109" },
    { "label": "Oirlo", "name": "Oirlo", "zip": "5808" },
    { "label": "Oirsbeek", "name": "Oirsbeek", "zip": "6438" },
    { "label": "Oostrum (Venray)", "name": "Oostrum (Venray)", "zip": "5807" },
    { "label": "Ospel", "name": "Ospel", "zip": "6035" },
    { "label": "Ottersum", "name": "Ottersum", "zip": "6595" },
    { "label": "Panningen", "name": "Panningen", "zip": "5980" },
    { "label": "Papenhoven", "name": "Papenhoven", "zip": "6124" },
    { "label": "Plasmolen", "name": "Plasmolen", "zip": "6586" },
    { "label": "Posterholt", "name": "Posterholt", "zip": "6060" },
    { "label": "Berkel-Enschot", "name": "Berkel-Enschot", "zip": "5056" },
    { "label": "Berlicum", "name": "Berlicum", "zip": "5258" },
    { "label": "Best", "name": "Best", "zip": "5680" },
    {
      "label": "Deursen-Dennenburg",
      "name": "Deursen-Dennenburg",
      "zip": "5371"
    },
    { "label": "Dieden", "name": "Dieden", "zip": "5371" },
    { "label": "Diessen", "name": "Diessen", "zip": "5087" },
    { "label": "Dinteloord", "name": "Dinteloord", "zip": "4670" },
    { "label": "Doeveren", "name": "Doeveren", "zip": "5256" },
    { "label": "Dongen", "name": "Dongen", "zip": "5100" },
    { "label": "Esch", "name": "Esch", "zip": "5296" },
    { "label": "Escharen", "name": "Escharen", "zip": "5364" },
    { "label": "Etten-Leur", "name": "Etten-Leur", "zip": "4870" },
    { "label": "Helvoirt", "name": "Helvoirt", "zip": "5268" },
    { "label": "Herpen", "name": "Herpen", "zip": "5373" },
    { "label": "Herpt", "name": "Herpt", "zip": "5256" },
    { "label": "Heukelom", "name": "Heukelom", "zip": "5059" },
    {
      "label": "Heusden (Heusden)",
      "name": "Heusden (Heusden)",
      "zip": "5256"
    },
    { "label": "Heusden (Asten)", "name": "Heusden (Asten)", "zip": "5721" },
    { "label": "Hilvarenbeek", "name": "Hilvarenbeek", "zip": "5080" },
    { "label": "Hoeven", "name": "Hoeven", "zip": "4740" },
    { "label": "Holthees", "name": "Holthees", "zip": "5824" },
    { "label": "Hooge Mierde", "name": "Hooge Mierde", "zip": "5095" },
    { "label": "Hooge Zwaluwe", "name": "Hooge Zwaluwe", "zip": "4927" },
    {
      "label": "Oosterhout (Oosterhout)",
      "name": "Oosterhout (Oosterhout)",
      "zip": "4906"
    },
    { "label": "Oploo", "name": "Oploo", "zip": "5840" },
    { "label": "Oss", "name": "Oss", "zip": "5340" },
    { "label": "Schijndel", "name": "Schijndel", "zip": "5481" },
    { "label": "Venhorst", "name": "Venhorst", "zip": "5428" },
    { "label": "Vessem", "name": "Vessem", "zip": "5512" },
    { "label": "Vianen NB", "name": "Vianen NB", "zip": "5434" },
    { "label": "Vierlingsbeek", "name": "Vierlingsbeek", "zip": "5820" },
    {
      "label": "Vinkel (Maasdonk)",
      "name": "Vinkel (Maasdonk)",
      "zip": "5381"
    },
    {
      "label": "Vinkel (Bernheze)",
      "name": "Vinkel (Bernheze)",
      "zip": "5383"
    },
    { "label": "Vlierden", "name": "Vlierden", "zip": "5756" },
    { "label": "Vlijmen", "name": "Vlijmen", "zip": "5151" },
    { "label": "Volkel", "name": "Volkel", "zip": "5408" },
    { "label": "Vorstenbosch", "name": "Vorstenbosch", "zip": "5476" },
    { "label": "Vortum-Mullem", "name": "Vortum-Mullem", "zip": "5827" },
    { "label": "Vught", "name": "Vught", "zip": "5260" },
    { "label": "Badhoevedorp", "name": "Badhoevedorp", "zip": "1171" },
    { "label": "Barsingerhorn", "name": "Barsingerhorn", "zip": "1768" },
    { "label": "Beets", "name": "Beets", "zip": "1475" },
    { "label": "Beinsdorp", "name": "Beinsdorp", "zip": "2144" },
    { "label": "Bennebroek", "name": "Bennebroek", "zip": "2120" },
    { "label": "Benningbroek", "name": "Benningbroek", "zip": "1654" },
    { "label": "Bentveld", "name": "Bentveld", "zip": "2116" },
    { "label": "Bergen", "name": "Bergen", "zip": "1860" },
    { "label": "Bergen aan Zee", "name": "Bergen aan Zee", "zip": "1865" },
    { "label": "Berkhout", "name": "Berkhout", "zip": "1647" },
    {
      "label": "Den Hoorn (Texel)",
      "name": "Den Hoorn (Texel)",
      "zip": "1797"
    },
    { "label": "Den Ilp", "name": "Den Ilp", "zip": "1127" },
    { "label": "Den Oever", "name": "Den Oever", "zip": "1779" },
    { "label": "Diemen", "name": "Diemen", "zip": "1110" },
    { "label": "Dirkshorn", "name": "Dirkshorn", "zip": "1746" },
    { "label": "Driehuis NH", "name": "Driehuis NH", "zip": "1985" },
    { "label": "Driehuizen", "name": "Driehuizen", "zip": "1844" },
    { "label": "Heiloo", "name": "Heiloo", "zip": "1850" },
    { "label": "Krommenie", "name": "Krommenie", "zip": "1562" },
    { "label": "Kudelstaart", "name": "Kudelstaart", "zip": "1424" },
    { "label": "Kwadijk", "name": "Kwadijk", "zip": "1471" },
    { "label": "Lambertschaag", "name": "Lambertschaag", "zip": "1658" },
    { "label": "Landsmeer", "name": "Landsmeer", "zip": "1120" },
    { "label": "Laren (Laren)", "name": "Laren (Laren)", "zip": "1251" },
    {
      "label": "Rozenburg (Haarlemmermeer)",
      "name": "Rozenburg (Haarlemmermeer)",
      "zip": "1437"
    },
    { "label": "Santpoort-Noord", "name": "Santpoort-Noord", "zip": "2070" },
    { "label": "Santpoort-Zuid", "name": "Santpoort-Zuid", "zip": "2080" },
    { "label": "Schagen", "name": "Schagen", "zip": "1740" },
    { "label": "Schagerbrug", "name": "Schagerbrug", "zip": "1750" },
    { "label": "Schardam", "name": "Schardam", "zip": "1476" },
    { "label": "Scharwoude", "name": "Scharwoude", "zip": "1634" },
    { "label": "Schellinkhout", "name": "Schellinkhout", "zip": "1697" },
    { "label": "Wormerveer", "name": "Wormerveer", "zip": "1520" },
    { "label": "Dalmsholte", "name": "Dalmsholte", "zip": "8146" },
    { "label": "De Bult", "name": "De Bult", "zip": "8346" },
    { "label": "De Krim", "name": "De Krim", "zip": "7780" },
    { "label": "de Lutte", "name": "de Lutte", "zip": "7587" },
    { "label": "De Pol", "name": "De Pol", "zip": "8337" },
    { "label": "Dedemsvaart", "name": "Dedemsvaart", "zip": "7700" },
    { "label": "Delden", "name": "Delden", "zip": "7490" },
    {
      "label": "Den Ham (Twenterand)",
      "name": "Den Ham (Twenterand)",
      "zip": "7683"
    },
    { "label": "Hengevelde", "name": "Hengevelde", "zip": "7496" },
    { "label": "Hertme", "name": "Hertme", "zip": "7623" },
    { "label": "Hezingen", "name": "Hezingen", "zip": "7662" },
    { "label": "Hoge Hexel", "name": "Hoge Hexel", "zip": "7641" },
    { "label": "Holten", "name": "Holten", "zip": "7450" },
    { "label": "Holtheme", "name": "Holtheme", "zip": "7787" },
    { "label": "Holthone", "name": "Holthone", "zip": "7779" },
    { "label": "Hoogenweg", "name": "Hoogenweg", "zip": "7792" },
    { "label": "IJhorst", "name": "IJhorst", "zip": "7955" },
    { "label": "IJsselham", "name": "IJsselham", "zip": "8361" },
    { "label": "IJsselmuiden", "name": "IJsselmuiden", "zip": "8267" },
    { "label": "Scheerwolde", "name": "Scheerwolde", "zip": "8371" },
    { "label": "Schuinesloot", "name": "Schuinesloot", "zip": "7777" },
    { "label": "'s-Heerenbroek", "name": "'s-Heerenbroek", "zip": "8275" },
    {
      "label": "Sibculo (Hardenberg)",
      "name": "Sibculo (Hardenberg)",
      "zip": "7693"
    },
    {
      "label": "Sibculo (Twenterand)",
      "name": "Sibculo (Twenterand)",
      "zip": "7693"
    },
    {
      "label": "Sint Jansklooster",
      "name": "Sint Jansklooster",
      "zip": "8326"
    },
    { "label": "Slagharen", "name": "Slagharen", "zip": "7776" },
    { "label": "Staphorst", "name": "Staphorst", "zip": "7950" },
    { "label": "Steenwijk", "name": "Steenwijk", "zip": "8330" },
    {
      "label": "Huis ter Heide (Zeist)",
      "name": "Huis ter Heide (Zeist)",
      "zip": "3705"
    },
    { "label": "IJsselstein", "name": "IJsselstein", "zip": "3400" },
    { "label": "Soesterberg", "name": "Soesterberg", "zip": "3769" },
    { "label": "Stoutenburg", "name": "Stoutenburg", "zip": "3835" },
    {
      "label": "Stoutenburg Noord",
      "name": "Stoutenburg Noord",
      "zip": "3836"
    },
    { "label": "'t Goy", "name": "'t Goy", "zip": "3997" },
    {
      "label": "Tienhoven (Stichtse Vecht)",
      "name": "Tienhoven (Stichtse Vecht)",
      "zip": "3612"
    },
    { "label": "Tull en 't Waal", "name": "Tull en 't Waal", "zip": "3999" },
    { "label": "Vianen", "name": "Vianen", "zip": "4130" },
    { "label": "Vinkeveen", "name": "Vinkeveen", "zip": "3645" },
    { "label": "Hulst", "name": "Hulst", "zip": "4561" },
    { "label": "IJzendijke", "name": "IJzendijke", "zip": "4515" },
    { "label": "Kamperland", "name": "Kamperland", "zip": "4491" },
    { "label": "Kapelle", "name": "Kapelle", "zip": "4420" },
    { "label": "Kapellebrug", "name": "Kapellebrug", "zip": "4565" },
    { "label": "Kats", "name": "Kats", "zip": "4485" },
    { "label": "Kattendijke", "name": "Kattendijke", "zip": "4474" },
    { "label": "Kerkwerve", "name": "Kerkwerve", "zip": "4321" },
    { "label": "Kloetinge (Goes)", "name": "Kloetinge (Goes)", "zip": "4461" },
    {
      "label": "Kloetinge (Kapelle)",
      "name": "Kloetinge (Kapelle)",
      "zip": "4482"
    },
    { "label": "Vlissingen", "name": "Vlissingen", "zip": "4382" },
    { "label": "Vogelwaarde", "name": "Vogelwaarde", "zip": "4561" },
    { "label": "Vrouwenpolder", "name": "Vrouwenpolder", "zip": "4354" },
    { "label": "Waarde", "name": "Waarde", "zip": "4414" },
    { "label": "Walsoorden", "name": "Walsoorden", "zip": "4588" },
    { "label": "Waterlandkerkje", "name": "Waterlandkerkje", "zip": "4508" },
    { "label": "Wemeldinge", "name": "Wemeldinge", "zip": "4421" },
    { "label": "Boskoop", "name": "Boskoop", "zip": "2771" },
    { "label": "Botlek Rotterdam", "name": "Botlek Rotterdam", "zip": "3181" },
    { "label": "Brandwijk", "name": "Brandwijk", "zip": "2964" },
    { "label": "Brielle", "name": "Brielle", "zip": "3230" },
    { "label": "Giessenburg", "name": "Giessenburg", "zip": "3381" },
    { "label": "Goedereede", "name": "Goedereede", "zip": "3251" },
    { "label": "Kaag", "name": "Kaag", "zip": "2159" },
    { "label": "Lisse", "name": "Lisse", "zip": "2160" },
    { "label": "Maasdam", "name": "Maasdam", "zip": "3299" },
    { "label": "Maasdijk", "name": "Maasdijk", "zip": "2676" },
    { "label": "Maasland", "name": "Maasland", "zip": "3155" },
    { "label": "Ouddorp", "name": "Ouddorp", "zip": "3253" },
    { "label": "Oude Wetering", "name": "Oude Wetering", "zip": "2371" },
    { "label": "Oudenhoorn", "name": "Oudenhoorn", "zip": "3227" },
    {
      "label": "Ouderkerk aan den IJssel",
      "name": "Ouderkerk aan den IJssel",
      "zip": "2935"
    },
    { "label": "Oude-Tonge", "name": "Oude-Tonge", "zip": "3255" },
    { "label": "Vierpolders", "name": "Vierpolders", "zip": "3222" },
    { "label": "Emmen", "name": "Emmen", "zip": "7815" },
    { "label": "Luttelgeest", "name": "Luttelgeest", "zip": "8315" },
    { "label": "Marknesse", "name": "Marknesse", "zip": "8316" },
    { "label": "Nagele", "name": "Nagele", "zip": "8308" },
    { "label": "Rutten", "name": "Rutten", "zip": "8312" },
    { "label": "Friens", "name": "Friens", "zip": "9009" },
    { "label": "Frieschepalen", "name": "Frieschepalen", "zip": "9249" },
    { "label": "Gaast", "name": "Gaast", "zip": "8757" },
    { "label": "Gaastmeer", "name": "Gaastmeer", "zip": "8611" },
    { "label": "Garyp", "name": "Garyp", "zip": "9263" },
    { "label": "Gauw", "name": "Gauw", "zip": "8551" },
    { "label": "Gerkesklooster", "name": "Gerkesklooster", "zip": "9873" },
    { "label": "Gersloot", "name": "Gersloot", "zip": "8457" },
    { "label": "Ginnum", "name": "Ginnum", "zip": "9174" },
    { "label": "Goënga", "name": "Goënga", "zip": "8628" },
    { "label": "Goëngahuizen", "name": "Goëngahuizen", "zip": "8497" },
    { "label": "Goingarijp", "name": "Goingarijp", "zip": "8511" },
    { "label": "Gorredijk", "name": "Gorredijk", "zip": "8400" },
    { "label": "Goutum", "name": "Goutum", "zip": "9084" },
    { "label": "Greonterp", "name": "Greonterp", "zip": "8614" },
    { "label": "Grou", "name": "Grou", "zip": "9000" },
    { "label": "Gytsjerk", "name": "Gytsjerk", "zip": "9060" },
    { "label": "Hallum", "name": "Hallum", "zip": "9074" },
    { "label": "Hantum", "name": "Hantum", "zip": "9147" },
    { "label": "Hantumeruitburen", "name": "Hantumeruitburen", "zip": "9146" },
    { "label": "Hantumhuizen", "name": "Hantumhuizen", "zip": "9144" },
    { "label": "Harich", "name": "Harich", "zip": "8571" },
    { "label": "Scharsterbrug", "name": "Scharsterbrug", "zip": "8517" },
    {
      "label": "Scherpenzeel (Weststellingwerf)",
      "name": "Scherpenzeel (Weststellingwerf)",
      "zip": "3925"
    },
    { "label": "Schettens", "name": "Schettens", "zip": "8744" },
    { "label": "Schiermonnikoog", "name": "Schiermonnikoog", "zip": "9166" },
    { "label": "Schraard", "name": "Schraard", "zip": "8746" },
    { "label": "Sexbierum", "name": "Sexbierum", "zip": "8851" },
    { "label": "Sibrandabuorren", "name": "Sibrandabuorren", "zip": "8647" },
    { "label": "Sibrandahûs", "name": "Sibrandahûs", "zip": "9106" },
    { "label": "Siegerswoude", "name": "Siegerswoude", "zip": "9248" },
    { "label": "Sint Nicolaasga", "name": "Sint Nicolaasga", "zip": "8520" },
    { "label": "Sintjohannesga", "name": "Sintjohannesga", "zip": "8464" },
    { "label": "Skingen", "name": "Skingen", "zip": "8816" },
    { "label": "Slappeterp", "name": "Slappeterp", "zip": "9037" },
    { "label": "Slijkenburg", "name": "Slijkenburg", "zip": "8489" },
    { "label": "Sloten", "name": "Sloten", "zip": "8556" },
    { "label": "Smalle Ee", "name": "Smalle Ee", "zip": "9214" },
    { "label": "Smallebrugge", "name": "Smallebrugge", "zip": "8552" },
    { "label": "Snakkerburen", "name": "Snakkerburen", "zip": "9083" },
    { "label": "Doesburg", "name": "Doesburg", "zip": "6980" },
    { "label": "Epse", "name": "Epse", "zip": "7214" },
    { "label": "Erichem", "name": "Erichem", "zip": "4116" },
    { "label": "Erlecom", "name": "Erlecom", "zip": "6577" },
    { "label": "Ermelo", "name": "Ermelo", "zip": "3850" },
    { "label": "Est", "name": "Est", "zip": "4184" },
    { "label": "Kerkwijk", "name": "Kerkwijk", "zip": "5315" },
    { "label": "Kesteren", "name": "Kesteren", "zip": "4040" },
    { "label": "Kilder", "name": "Kilder", "zip": "7035" },
    {
      "label": "Klarenbeek (Apeldoorn)",
      "name": "Klarenbeek (Apeldoorn)",
      "zip": "7325"
    },
    {
      "label": "Klarenbeek (Voorst)",
      "name": "Klarenbeek (Voorst)",
      "zip": "7382"
    },
    { "label": "Kootwijk", "name": "Kootwijk", "zip": "3774" },
    { "label": "Kootwijkerbroek", "name": "Kootwijkerbroek", "zip": "3774" },
    { "label": "Kring van Dorth", "name": "Kring van Dorth", "zip": "7216" },
    { "label": "Laag-Keppel", "name": "Laag-Keppel", "zip": "6998" },
    { "label": "Laag-Soeren", "name": "Laag-Soeren", "zip": "6957" },
    { "label": "Laren (Lochem)", "name": "Laren (Lochem)", "zip": "1250" },
    { "label": "Lathum", "name": "Lathum", "zip": "6988" },
    { "label": "Lengel", "name": "Lengel", "zip": "7044" },
    { "label": "Ochten", "name": "Ochten", "zip": "4050" },
    { "label": "Oene", "name": "Oene", "zip": "8167" },
    { "label": "Olburgen", "name": "Olburgen", "zip": "7225" },
    { "label": "Oldebroek", "name": "Oldebroek", "zip": "8091" },
    { "label": "Ommeren", "name": "Ommeren", "zip": "4011" },
    { "label": "Ooij", "name": "Ooij", "zip": "6576" },
    { "label": "Oosterbeek", "name": "Oosterbeek", "zip": "6860" },
    {
      "label": "Oosterhout (Overbetuwe)",
      "name": "Oosterhout (Overbetuwe)",
      "zip": "6678"
    },
    { "label": "Oosterwolde Gld", "name": "Oosterwolde Gld", "zip": "8097" },
    { "label": "Ophemert", "name": "Ophemert", "zip": "4060" },
    { "label": "Varik", "name": "Varik", "zip": "4064" },
    { "label": "Varsselder", "name": "Varsselder", "zip": "7076" },
    { "label": "Varsseveld", "name": "Varsseveld", "zip": "7050" },
    { "label": "Veessen", "name": "Veessen", "zip": "8194" },
    { "label": "Velddriel", "name": "Velddriel", "zip": "5334" },
    { "label": "Velp (Rheden)", "name": "Velp (Rheden)", "zip": "6880" },
    { "label": "Vethuizen", "name": "Vethuizen", "zip": "7046" },
    { "label": "Vierakker", "name": "Vierakker", "zip": "7233" },
    { "label": "Zwartebroek", "name": "Zwartebroek", "zip": "3785" },
    { "label": "Adorp", "name": "Adorp", "zip": "9774" },
    { "label": "Aduard", "name": "Aduard", "zip": "9831" },
    {
      "label": "Alteveer (Stadskanaal)",
      "name": "Alteveer (Stadskanaal)",
      "zip": "9661"
    },
    { "label": "Ter Apelkanaal", "name": "Ter Apelkanaal", "zip": "9563" },
    { "label": "Termunten", "name": "Termunten", "zip": "9947" },
    { "label": "Termunterzijl", "name": "Termunterzijl", "zip": "9948" },
    { "label": "Thesinge", "name": "Thesinge", "zip": "9797" },
    { "label": "Tinallinge", "name": "Tinallinge", "zip": "9954" },
    { "label": "Tjuchem", "name": "Tjuchem", "zip": "9939" },
    { "label": "Tolbert", "name": "Tolbert", "zip": "9356" },
    { "label": "Toornwerd", "name": "Toornwerd", "zip": "9994" },
    { "label": "Tripscompagnie", "name": "Tripscompagnie", "zip": "9633" },
    { "label": "Uithuizen", "name": "Uithuizen", "zip": "9980" },
    { "label": "Uithuizermeeden", "name": "Uithuizermeeden", "zip": "9982" },
    { "label": "Ulrum", "name": "Ulrum", "zip": "9970" },
    { "label": "Usquert", "name": "Usquert", "zip": "9981" },
    { "label": "Veelerveen", "name": "Veelerveen", "zip": "9566" },
    { "label": "Buchten", "name": "Buchten", "zip": "6122" },
    { "label": "Buggenum", "name": "Buggenum", "zip": "6082" },
    { "label": "Bunde", "name": "Bunde", "zip": "6240" },
    { "label": "Cadier en Keer", "name": "Cadier en Keer", "zip": "6267" },
    { "label": "Castenray", "name": "Castenray", "zip": "5811" },
    { "label": "Doenrade", "name": "Doenrade", "zip": "6438" },
    { "label": "Echt", "name": "Echt", "zip": "6100" },
    { "label": "Eckelrade", "name": "Eckelrade", "zip": "6251" },
    { "label": "Egchel", "name": "Egchel", "zip": "5987" },
    { "label": "Kessel", "name": "Kessel", "zip": "5995" },
    { "label": "Roermond", "name": "Roermond", "zip": "6043" },
    { "label": "Roggel", "name": "Roggel", "zip": "6088" },
    { "label": "Roosteren", "name": "Roosteren", "zip": "6114" },
    { "label": "Scheulder", "name": "Scheulder", "zip": "6307" },
    { "label": "Schimmert", "name": "Schimmert", "zip": "6333" },
    { "label": "Schin op Geul", "name": "Schin op Geul", "zip": "6305" },
    { "label": "Schinnen", "name": "Schinnen", "zip": "6365" },
    { "label": "Schinveld", "name": "Schinveld", "zip": "6450" },
    { "label": "Weert", "name": "Weert", "zip": "6002" },
    { "label": "Well L", "name": "Well L", "zip": "5854" },
    { "label": "Wellerlooi", "name": "Wellerlooi", "zip": "5856" },
    { "label": "Bosschenhoofd", "name": "Bosschenhoofd", "zip": "4744" },
    { "label": "Boxmeer", "name": "Boxmeer", "zip": "5830" },
    { "label": "Eersel", "name": "Eersel", "zip": "5521" },
    { "label": "Eethen", "name": "Eethen", "zip": "4261" },
    { "label": "Geldrop", "name": "Geldrop", "zip": "5664" },
    { "label": "Gemert", "name": "Gemert", "zip": "5420" },
    { "label": "Klundert", "name": "Klundert", "zip": "4791" },
    { "label": "Knegsel", "name": "Knegsel", "zip": "5504" },
    { "label": "Koolwijk", "name": "Koolwijk", "zip": "5373" },
    { "label": "Kruisland", "name": "Kruisland", "zip": "4756" },
    { "label": "Lage Mierde", "name": "Lage Mierde", "zip": "5094" },
    { "label": "Lage Zwaluwe", "name": "Lage Zwaluwe", "zip": "4766" },
    { "label": "Landhorst", "name": "Landhorst", "zip": "5445" },
    { "label": "Langenboom", "name": "Langenboom", "zip": "5453" },
    { "label": "Langeweg", "name": "Langeweg", "zip": "4771" },
    { "label": "Ledeacker", "name": "Ledeacker", "zip": "5846" },
    { "label": "Leende", "name": "Leende", "zip": "5595" },
    { "label": "Lepelstraat", "name": "Lepelstraat", "zip": "4664" },
    { "label": "Ossendrecht", "name": "Ossendrecht", "zip": "4631" },
    { "label": "Waalre", "name": "Waalre", "zip": "5580" },
    { "label": "Bloemendaal", "name": "Bloemendaal", "zip": "2060" },
    { "label": "Blokker", "name": "Blokker", "zip": "1695" },
    { "label": "Boesingheliede", "name": "Boesingheliede", "zip": "2134" },
    { "label": "Bovenkarspel", "name": "Bovenkarspel", "zip": "1610" },
    { "label": "Breezand", "name": "Breezand", "zip": "1761" },
    { "label": "Breukeleveen", "name": "Breukeleveen", "zip": "3625" },
    {
      "label": "Broek in Waterland",
      "name": "Broek in Waterland",
      "zip": "1150"
    },
    { "label": "Graft", "name": "Graft", "zip": "1484" },
    { "label": "Groet", "name": "Groet", "zip": "1873" },
    { "label": "Grootebroek", "name": "Grootebroek", "zip": "1613" },
    { "label": "Grootschermer", "name": "Grootschermer", "zip": "1843" },
    { "label": "Hem", "name": "Hem", "zip": "1607" },
    { "label": "Hensbroek", "name": "Hensbroek", "zip": "1710" },
    { "label": "Hippolytushoef", "name": "Hippolytushoef", "zip": "1777" },
    { "label": "Hobrede", "name": "Hobrede", "zip": "1477" },
    { "label": "Kolhorn", "name": "Kolhorn", "zip": "1767" },
    { "label": "Koog aan de Zaan", "name": "Koog aan de Zaan", "zip": "1540" },
    { "label": "Kortenhoef", "name": "Kortenhoef", "zip": "1240" },
    { "label": "Kreileroord", "name": "Kreileroord", "zip": "1773" },
    {
      "label": "Purmer (Edam-Volendam)",
      "name": "Purmer (Edam-Volendam)",
      "zip": "1135"
    },
    {
      "label": "Purmer (Waterland)",
      "name": "Purmer (Waterland)",
      "zip": "1482"
    },
    { "label": "Watergang", "name": "Watergang", "zip": "1454" },
    { "label": "Weesp", "name": "Weesp", "zip": "1380" },
    { "label": "Wervershoof", "name": "Wervershoof", "zip": "1693" },
    { "label": "Westbeemster", "name": "Westbeemster", "zip": "1464" },
    { "label": "Westerland", "name": "Westerland", "zip": "1778" },
    { "label": "Ambt Delden", "name": "Ambt Delden", "zip": "7495" },
    { "label": "Ane", "name": "Ane", "zip": "7784" },
    { "label": "Anerveen", "name": "Anerveen", "zip": "7788" },
    { "label": "Anevelde", "name": "Anevelde", "zip": "7785" },
    { "label": "Arriën", "name": "Arriën", "zip": "7735" },
    {
      "label": "Baarlo (Steenwijkerland)",
      "name": "Baarlo (Steenwijkerland)",
      "zip": "8372"
    },
    { "label": "Baars", "name": "Baars", "zip": "8336" },
    { "label": "Balkbrug", "name": "Balkbrug", "zip": "7707" },
    { "label": "Basse", "name": "Basse", "zip": "8342" },
    { "label": "Bathmen", "name": "Bathmen", "zip": "7437" },
    { "label": "Beerze", "name": "Beerze", "zip": "7736" },
    { "label": "Beerzerveld", "name": "Beerzerveld", "zip": "7685" },
    { "label": "Belt-Schutsloot", "name": "Belt-Schutsloot", "zip": "8066" },
    { "label": "Bentelo", "name": "Bentelo", "zip": "7497" },
    { "label": "Bergentheim", "name": "Bergentheim", "zip": "7690" },
    { "label": "Beuningen", "name": "Beuningen", "zip": "6640" },
    { "label": "Blankenham", "name": "Blankenham", "zip": "8373" },
    { "label": "Blokzijl", "name": "Blokzijl", "zip": "8356" },
    { "label": "Kalenberg", "name": "Kalenberg", "zip": "8337" },
    { "label": "Kallenkote", "name": "Kallenkote", "zip": "7973" },
    { "label": "Steenwijkerwold", "name": "Steenwijkerwold", "zip": "8341" },
    { "label": "Stegeren", "name": "Stegeren", "zip": "7737" },
    { "label": "Tilligte", "name": "Tilligte", "zip": "7634" },
    { "label": "Tubbergen", "name": "Tubbergen", "zip": "7561" },
    { "label": "Tuk", "name": "Tuk", "zip": "8334" },
    { "label": "Vasse", "name": "Vasse", "zip": "7661" },
    { "label": "Venebrugge", "name": "Venebrugge", "zip": "7792" },
    { "label": "Vilsteren", "name": "Vilsteren", "zip": "7734" },
    { "label": "Vinkenbuurt", "name": "Vinkenbuurt", "zip": "7739" },
    { "label": "Vollenhove", "name": "Vollenhove", "zip": "8325" },
    { "label": "Jaarsveld", "name": "Jaarsveld", "zip": "3413" },
    { "label": "Kamerik", "name": "Kamerik", "zip": "3470" },
    { "label": "Kockengen", "name": "Kockengen", "zip": "3628" },
    { "label": "Lage Vuursche", "name": "Lage Vuursche", "zip": "3749" },
    { "label": "Langbroek", "name": "Langbroek", "zip": "3947" },
    { "label": "Graauw", "name": "Graauw", "zip": "4569" },
    { "label": "Grijpskerke", "name": "Grijpskerke", "zip": "4334" },
    { "label": "Groede", "name": "Groede", "zip": "4503" },
    { "label": "Hansweert", "name": "Hansweert", "zip": "4417" },
    { "label": "Heikant", "name": "Heikant", "zip": "4566" },
    { "label": "Heinkenszand", "name": "Heinkenszand", "zip": "4450" },
    { "label": "Hengstdijk", "name": "Hengstdijk", "zip": "4585" },
    { "label": "Hoedekenskerke", "name": "Hoedekenskerke", "zip": "4433" },
    { "label": "Hoek", "name": "Hoek", "zip": "4541" },
    { "label": "Hoofdplaat", "name": "Hoofdplaat", "zip": "4513" },
    { "label": "Tholen", "name": "Tholen", "zip": "4690" },
    { "label": "Veere", "name": "Veere", "zip": "4350" },
    { "label": "Berkenwoude", "name": "Berkenwoude", "zip": "2825" },
    { "label": "Bleiswijk", "name": "Bleiswijk", "zip": "2665" },
    { "label": "Bleskensgraaf ca", "name": "Bleskensgraaf ca", "zip": "2970" },
    { "label": "Bodegraven", "name": "Bodegraven", "zip": "2410" },
    { "label": "Driebruggen", "name": "Driebruggen", "zip": "3465" },
    {
      "label": "Europoort Rotterdam",
      "name": "Europoort Rotterdam",
      "zip": "3197"
    },
    { "label": "Geervliet", "name": "Geervliet", "zip": "3211" },
    { "label": "Gelderswoude", "name": "Gelderswoude", "zip": "2735" },
    { "label": "Hoogblokland", "name": "Hoogblokland", "zip": "4221" },
    { "label": "Hoogmade", "name": "Hoogmade", "zip": "2355" },
    {
      "label": "Hoogvliet Rotterdam",
      "name": "Hoogvliet Rotterdam",
      "zip": "3190"
    },
    { "label": "Hoornaar", "name": "Hoornaar", "zip": "4221" },
    { "label": "Leiderdorp", "name": "Leiderdorp", "zip": "2350" },
    { "label": "Nieuwe-Tonge", "name": "Nieuwe-Tonge", "zip": "3244" },
    { "label": "Nieuwkoop", "name": "Nieuwkoop", "zip": "2420" },
    { "label": "Nieuwland", "name": "Nieuwland", "zip": "4243" },
    { "label": "Nieuw-Lekkerland", "name": "Nieuw-Lekkerland", "zip": "2957" },
    { "label": "Nieuwpoort", "name": "Nieuwpoort", "zip": "2965" },
    { "label": "Nieuwveen", "name": "Nieuwveen", "zip": "2440" },
    { "label": "Noordeloos", "name": "Noordeloos", "zip": "4221" },
    { "label": "Noorden", "name": "Noorden", "zip": "2430" },
    { "label": "Ridderkerk", "name": "Ridderkerk", "zip": "2986" },
    { "label": "Rijnsaterwoude", "name": "Rijnsaterwoude", "zip": "2451" },
    { "label": "Rijnsburg", "name": "Rijnsburg", "zip": "2230" },
    { "label": "Rijpwetering", "name": "Rijpwetering", "zip": "2371" },
    { "label": "Westmaas", "name": "Westmaas", "zip": "3273" },
    { "label": "Wijngaarden", "name": "Wijngaarden", "zip": "2969" },
    {
      "label": "Woerdense Verlaat",
      "name": "Woerdense Verlaat",
      "zip": "3651"
    },
    { "label": "Woubrugge", "name": "Woubrugge", "zip": "2480" },
    { "label": "Zevenhoven", "name": "Zevenhoven", "zip": "2435" },
    {
      "label": "Zevenhuizen (Zuidplas)",
      "name": "Zevenhuizen (Zuidplas)",
      "zip": "2760"
    },
    { "label": "Hooghalen", "name": "Hooghalen", "zip": "9414" },
    {
      "label": "Huis ter Heide (Noordenveld)",
      "name": "Huis ter Heide (Noordenveld)",
      "zip": "9336"
    },
    { "label": "Kerkenveld", "name": "Kerkenveld", "zip": "7926" },
    { "label": "Klazienaveen", "name": "Klazienaveen", "zip": "7890" },
    {
      "label": "Klazienaveen-Noord",
      "name": "Klazienaveen-Noord",
      "zip": "7889"
    },
    { "label": "Klijndijk", "name": "Klijndijk", "zip": "7871" },
    { "label": "Koekange", "name": "Koekange", "zip": "7958" },
    { "label": "Langelo", "name": "Langelo", "zip": "9333" },
    { "label": "Leutingewolde", "name": "Leutingewolde", "zip": "9313" },
    { "label": "Lieveren", "name": "Lieveren", "zip": "9304" },
    { "label": "Linde", "name": "Linde", "zip": "7925" },
    { "label": "Loon", "name": "Loon", "zip": "9409" },
    { "label": "Mantinge", "name": "Mantinge", "zip": "9436" },
    { "label": "Marwijksoord", "name": "Marwijksoord", "zip": "9448" },
    { "label": "Matsloot", "name": "Matsloot", "zip": "9749" },
    { "label": "Schokland", "name": "Schokland", "zip": "8319" },
    { "label": "Swifterbant", "name": "Swifterbant", "zip": "8255" },
    { "label": "Tollebeek", "name": "Tollebeek", "zip": "8309" },
    { "label": "Urk", "name": "Urk", "zip": "8320" },
    { "label": "Harkema", "name": "Harkema", "zip": "9280" },
    { "label": "Harlingen", "name": "Harlingen", "zip": "8860" },
    { "label": "Hartwerd", "name": "Hartwerd", "zip": "8741" },
    { "label": "Haskerdijken", "name": "Haskerdijken", "zip": "8468" },
    { "label": "Haskerhorne", "name": "Haskerhorne", "zip": "8506" },
    { "label": "Haule", "name": "Haule", "zip": "8432" },
    { "label": "Haulerwijk", "name": "Haulerwijk", "zip": "8433" },
    { "label": "Hee", "name": "Hee", "zip": "8882" },
    { "label": "Heeg", "name": "Heeg", "zip": "8620" },
    { "label": "Legemeer", "name": "Legemeer", "zip": "8527" },
    { "label": "Lekkum", "name": "Lekkum", "zip": "9079" },
    { "label": "Lemmer", "name": "Lemmer", "zip": "8530" },
    { "label": "Leons", "name": "Leons", "zip": "8833" },
    { "label": "Lichtaard", "name": "Lichtaard", "zip": "9176" },
    { "label": "Lies", "name": "Lies", "zip": "8895" },
    { "label": "Wommels", "name": "Wommels", "zip": "8730" },
    { "label": "Wons", "name": "Wons", "zip": "8747" },
    { "label": "Workum", "name": "Workum", "zip": "8710" },
    { "label": "Woudsend", "name": "Woudsend", "zip": "8550" },
    { "label": "Wyns", "name": "Wyns", "zip": "9091" },
    { "label": "Wytgaard", "name": "Wytgaard", "zip": "9089" },
    { "label": "Ypecolsga", "name": "Ypecolsga", "zip": "8554" },
    { "label": "Ysbrechtum", "name": "Ysbrechtum", "zip": "8633" },
    { "label": "Zandhuizen", "name": "Zandhuizen", "zip": "8389" },
    { "label": "Zurich", "name": "Zurich", "zip": "8749" },
    { "label": "Zwagerbosch", "name": "Zwagerbosch", "zip": "9299" },
    { "label": "Zweins", "name": "Zweins", "zip": "8814" },
    { "label": "Aalst", "name": "Aalst", "zip": "5308" },
    { "label": "De Glind", "name": "De Glind", "zip": "3794" },
    { "label": "De Heurne", "name": "De Heurne", "zip": "7095" },
    { "label": "De Klomp", "name": "De Klomp", "zip": "6745" },
    { "label": "De Steeg", "name": "De Steeg", "zip": "6994" },
    { "label": "Deelen", "name": "Deelen", "zip": "6877" },
    { "label": "Deest", "name": "Deest", "zip": "6653" },
    { "label": "Deil", "name": "Deil", "zip": "4158" },
    { "label": "Delwijnen", "name": "Delwijnen", "zip": "5316" },
    { "label": "Eibergen", "name": "Eibergen", "zip": "7150" },
    { "label": "Elburg", "name": "Elburg", "zip": "8080" },
    { "label": "Ellecom", "name": "Ellecom", "zip": "6955" },
    { "label": "Elspeet", "name": "Elspeet", "zip": "8075" },
    { "label": "Hernen", "name": "Hernen", "zip": "6616" },
    { "label": "Herveld", "name": "Herveld", "zip": "6674" },
    { "label": "Herwen", "name": "Herwen", "zip": "6914" },
    { "label": "Herwijnen", "name": "Herwijnen", "zip": "4170" },
    { "label": "Heteren", "name": "Heteren", "zip": "6666" },
    { "label": "Heukelum", "name": "Heukelum", "zip": "4161" },
    { "label": "Heumen", "name": "Heumen", "zip": "6582" },
    { "label": "Heveadorp", "name": "Heveadorp", "zip": "6869" },
    { "label": "Hierden", "name": "Hierden", "zip": "3849" },
    {
      "label": "Hoenderloo (Apeldoorn)",
      "name": "Hoenderloo (Apeldoorn)",
      "zip": "7350"
    },
    { "label": "Hoenderloo (Ede)", "name": "Hoenderloo (Ede)", "zip": "7351" },
    { "label": "Hoenzadriel", "name": "Hoenzadriel", "zip": "5333" },
    { "label": "Hoevelaken", "name": "Hoevelaken", "zip": "3870" },
    { "label": "Homoet", "name": "Homoet", "zip": "6676" },
    { "label": "Hoog Soeren", "name": "Hoog Soeren", "zip": "7346" },
    {
      "label": "Scherpenzeel (Scherpenzeel)",
      "name": "Scherpenzeel (Scherpenzeel)",
      "zip": "2925"
    },
    { "label": "'s-Heerenberg", "name": "'s-Heerenberg", "zip": "7040" },
    { "label": "Silvolde", "name": "Silvolde", "zip": "7064" },
    { "label": "Sinderen", "name": "Sinderen", "zip": "7065" },
    { "label": "Slijk-Ewijk", "name": "Slijk-Ewijk", "zip": "6677" },
    { "label": "Spankeren", "name": "Spankeren", "zip": "6956" },
    {
      "label": "Spijk (Lingewaal)",
      "name": "Spijk (Lingewaal)",
      "zip": "4211"
    },
    {
      "label": "Spijk (Rijnwaarden)",
      "name": "Spijk (Rijnwaarden)",
      "zip": "6917"
    },
    { "label": "Steenderen", "name": "Steenderen", "zip": "7220" },
    { "label": "Warnsveld", "name": "Warnsveld", "zip": "7230" },
    { "label": "Wehl", "name": "Wehl", "zip": "7030" },
    { "label": "Wekerom", "name": "Wekerom", "zip": "6733" },
    { "label": "Well", "name": "Well", "zip": "5325" },
    { "label": "Wenum Wiesel", "name": "Wenum Wiesel", "zip": "7316" },
    { "label": "Westendorp", "name": "Westendorp", "zip": "7054" },
    { "label": "Delfzijl", "name": "Delfzijl", "zip": "9930" },
    { "label": "Den Andel", "name": "Den Andel", "zip": "9956" },
    {
      "label": "Den Ham (Zuidhorn)",
      "name": "Den Ham (Zuidhorn)",
      "zip": "9833"
    },
    { "label": "Den Horn", "name": "Den Horn", "zip": "9832" },
    { "label": "Doezum", "name": "Doezum", "zip": "9863" },
    { "label": "Drieborg", "name": "Drieborg", "zip": "9688" },
    { "label": "Eemshaven", "name": "Eemshaven", "zip": "9979" },
    { "label": "Eenrum", "name": "Eenrum", "zip": "9967" },
    { "label": "Eenum", "name": "Eenum", "zip": "9913" },
    { "label": "Enumatil", "name": "Enumatil", "zip": "9811" },
    { "label": "Eppenhuizen", "name": "Eppenhuizen", "zip": "9996" },
    { "label": "Ezinge", "name": "Ezinge", "zip": "9891" },
    { "label": "Farmsum", "name": "Farmsum", "zip": "9936" },
    { "label": "Feerwerd", "name": "Feerwerd", "zip": "9892" },
    { "label": "Finsterwolde", "name": "Finsterwolde", "zip": "9684" },
    { "label": "Harkstede", "name": "Harkstede", "zip": "9617" },
    { "label": "Heiligerlee", "name": "Heiligerlee", "zip": "9677" },
    { "label": "Hellum", "name": "Hellum", "zip": "9627" },
    { "label": "Holwierde", "name": "Holwierde", "zip": "9905" },
    { "label": "Winneweer", "name": "Winneweer", "zip": "9793" },
    { "label": "Winschoten", "name": "Winschoten", "zip": "9670" },
    { "label": "Winsum (Winsum)", "name": "Winsum (Winsum)", "zip": "9951" },
    { "label": "Wirdum Gn", "name": "Wirdum Gn", "zip": "9913" },
    { "label": "Woldendorp", "name": "Woldendorp", "zip": "9946" },
    { "label": "Woltersum", "name": "Woltersum", "zip": "9795" },
    { "label": "Woudbloem", "name": "Woudbloem", "zip": "9618" },
    { "label": "Geulle", "name": "Geulle", "zip": "6243" },
    { "label": "Grashoek", "name": "Grashoek", "zip": "5985" },
    { "label": "Grathem", "name": "Grathem", "zip": "6096" },
    { "label": "Grevenbicht", "name": "Grevenbicht", "zip": "6127" },
    { "label": "Griendtsveen", "name": "Griendtsveen", "zip": "5766" },
    { "label": "Gronsveld", "name": "Gronsveld", "zip": "6247" },
    { "label": "Grubbenvorst", "name": "Grubbenvorst", "zip": "5970" },
    { "label": "Gulpen", "name": "Gulpen", "zip": "6270" },
    { "label": "Guttecoven", "name": "Guttecoven", "zip": "6143" },
    { "label": "Haelen", "name": "Haelen", "zip": "6080" },
    { "label": "Haler", "name": "Haler", "zip": "6012" },
    { "label": "Heel", "name": "Heel", "zip": "6097" },
    { "label": "Lemiers", "name": "Lemiers", "zip": "6295" },
    { "label": "Leunen", "name": "Leunen", "zip": "5809" },
    { "label": "Leveroy", "name": "Leveroy", "zip": "6091" },
    { "label": "Limbricht", "name": "Limbricht", "zip": "6141" },
    { "label": "Linne", "name": "Linne", "zip": "6067" },
    { "label": "Lomm", "name": "Lomm", "zip": "5943" },
    { "label": "Lottum", "name": "Lottum", "zip": "5973" },
    { "label": "Maasbracht", "name": "Maasbracht", "zip": "6050" },
    { "label": "Maasbree", "name": "Maasbree", "zip": "5928" },
    { "label": "Puth", "name": "Puth", "zip": "6155" },
    { "label": "Ransdaal", "name": "Ransdaal", "zip": "6311" },
    { "label": "Reijmerstok", "name": "Reijmerstok", "zip": "6274" },
    { "label": "Reuver", "name": "Reuver", "zip": "5953" },
    { "label": "Ven-Zelderheide", "name": "Ven-Zelderheide", "zip": "6599" },
    { "label": "Veulen", "name": "Veulen", "zip": "5814" },
    { "label": "Vijlen", "name": "Vijlen", "zip": "6294" },
    { "label": "Vlodrop", "name": "Vlodrop", "zip": "6063" },
    { "label": "Voerendaal", "name": "Voerendaal", "zip": "6312" },
    { "label": "Vredepeel", "name": "Vredepeel", "zip": "5816" },
    { "label": "Walem", "name": "Walem", "zip": "6341" },
    { "label": "Wanssum", "name": "Wanssum", "zip": "5860" },
    { "label": "Beugen", "name": "Beugen", "zip": "5835" },
    { "label": "Biest-Houtakker", "name": "Biest-Houtakker", "zip": "5081" },
    { "label": "Biezenmortel", "name": "Biezenmortel", "zip": "5074" },
    { "label": "Bladel", "name": "Bladel", "zip": "5530" },
    { "label": "Boekel", "name": "Boekel", "zip": "5427" },
    { "label": "Dorst", "name": "Dorst", "zip": "4849" },
    { "label": "Drimmelen", "name": "Drimmelen", "zip": "4924" },
    { "label": "Drongelen", "name": "Drongelen", "zip": "4267" },
    { "label": "Drunen", "name": "Drunen", "zip": "5150" },
    { "label": "Duizel", "name": "Duizel", "zip": "5525" },
    { "label": "Dussen", "name": "Dussen", "zip": "4251" },
    { "label": "Fijnaart", "name": "Fijnaart", "zip": "4793" },
    { "label": "Galder", "name": "Galder", "zip": "4855" },
    { "label": "Gassel", "name": "Gassel", "zip": "5438" },
    { "label": "Gastel", "name": "Gastel", "zip": "6028" },
    { "label": "Geertruidenberg", "name": "Geertruidenberg", "zip": "4930" },
    { "label": "Geffen", "name": "Geffen", "zip": "5386" },
    { "label": "Hoogeloon", "name": "Hoogeloon", "zip": "5528" },
    { "label": "Hoogerheide", "name": "Hoogerheide", "zip": "4630" },
    { "label": "Huijbergen", "name": "Huijbergen", "zip": "4635" },
    { "label": "Huisseling", "name": "Huisseling", "zip": "5371" },
    { "label": "Hulsel", "name": "Hulsel", "zip": "5096" },
    { "label": "Hulten", "name": "Hulten", "zip": "5125" },
    { "label": "Kaatsheuvel", "name": "Kaatsheuvel", "zip": "5170" },
    { "label": "Katwijk NB", "name": "Katwijk NB", "zip": "5433" },
    { "label": "Keent", "name": "Keent", "zip": "5371" },
    { "label": "Klein Zundert", "name": "Klein Zundert", "zip": "4882" },
    { "label": "Oosteind", "name": "Oosteind", "zip": "4909" },
    { "label": "Rucphen", "name": "Rucphen", "zip": "4711" },
    { "label": "'s Gravenmoer", "name": "'s Gravenmoer", "zip": "5109" },
    { "label": "Sambeek", "name": "Sambeek", "zip": "5836" },
    { "label": "Schaijk", "name": "Schaijk", "zip": "5374" },
    { "label": "Schijf", "name": "Schijf", "zip": "4714" },
    { "label": "Steensel", "name": "Steensel", "zip": "5524" },
    { "label": "Sterksel", "name": "Sterksel", "zip": "6029" },
    { "label": "Stevensbeek", "name": "Stevensbeek", "zip": "5844" },
    { "label": "Strijbeek", "name": "Strijbeek", "zip": "4856" },
    { "label": "Teeffelen", "name": "Teeffelen", "zip": "5395" },
    { "label": "Terheijden", "name": "Terheijden", "zip": "4844" },
    { "label": "Teteringen", "name": "Teteringen", "zip": "4825" },
    { "label": "Velp (Grave)", "name": "Velp (Grave)", "zip": "5363" },
    { "label": "Assendelft", "name": "Assendelft", "zip": "1566" },
    { "label": "Avenhorn", "name": "Avenhorn", "zip": "1633" },
    { "label": "Hoogkarspel", "name": "Hoogkarspel", "zip": "1616" },
    { "label": "Hoogwoud", "name": "Hoogwoud", "zip": "1718" },
    { "label": "Naarden", "name": "Naarden", "zip": "1411" },
    {
      "label": "Nederhorst den Berg",
      "name": "Nederhorst den Berg",
      "zip": "1394"
    },
    { "label": "Nibbixwoud", "name": "Nibbixwoud", "zip": "1688" },
    { "label": "Nieuwe Niedorp", "name": "Nieuwe Niedorp", "zip": "1733" },
    { "label": "'t Veld", "name": "'t Veld", "zip": "1735" },
    { "label": "'t Zand", "name": "'t Zand", "zip": "1751" },
    { "label": "Tuitjenhorn", "name": "Tuitjenhorn", "zip": "1747" },
    { "label": "Twisk", "name": "Twisk", "zip": "1676" },
    { "label": "Uitdam", "name": "Uitdam", "zip": "1154" },
    { "label": "Uitgeest", "name": "Uitgeest", "zip": "1910" },
    { "label": "Zaandijk", "name": "Zaandijk", "zip": "1544" },
    { "label": "Diepenheim", "name": "Diepenheim", "zip": "7478" },
    { "label": "Diepenveen", "name": "Diepenveen", "zip": "7415" },
    { "label": "Diffelen", "name": "Diffelen", "zip": "7795" },
    { "label": "Eesveen", "name": "Eesveen", "zip": "8347" },
    { "label": "Onna", "name": "Onna", "zip": "8344" },
    { "label": "Ootmarsum", "name": "Ootmarsum", "zip": "7630" },
    { "label": "Ossenzijl", "name": "Ossenzijl", "zip": "8376" },
    { "label": "Oud Ootmarsum", "name": "Oud Ootmarsum", "zip": "7637" },
    { "label": "Overdinkel", "name": "Overdinkel", "zip": "7586" },
    { "label": "Paasloo", "name": "Paasloo", "zip": "8378" },
    { "label": "Punthorst", "name": "Punthorst", "zip": "7715" },
    { "label": "Raalte", "name": "Raalte", "zip": "8100" },
    { "label": "Radewijk", "name": "Radewijk", "zip": "7791" },
    { "label": "Amerongen", "name": "Amerongen", "zip": "3953" },
    { "label": "De Bilt", "name": "De Bilt", "zip": "3731" },
    { "label": "de Hoef", "name": "de Hoef", "zip": "1426" },
    { "label": "De Meern", "name": "De Meern", "zip": "3451" },
    { "label": "Den Dolder", "name": "Den Dolder", "zip": "3734" },
    { "label": "Nieuwer Ter Aa", "name": "Nieuwer Ter Aa", "zip": "3626" },
    { "label": "Nieuwersluis", "name": "Nieuwersluis", "zip": "3630" },
    { "label": "Nigtevecht", "name": "Nigtevecht", "zip": "1393" },
    { "label": "Baarland", "name": "Baarland", "zip": "4435" },
    {
      "label": "Biervliet (Terneuzen)",
      "name": "Biervliet (Terneuzen)",
      "zip": "4520"
    },
    {
      "label": "Biervliet (Sluis)",
      "name": "Biervliet (Sluis)",
      "zip": "4522"
    },
    { "label": "Biggekerke", "name": "Biggekerke", "zip": "4373" },
    { "label": "Borssele", "name": "Borssele", "zip": "4454" },
    { "label": "Breskens", "name": "Breskens", "zip": "4503" },
    { "label": "Brouwershaven", "name": "Brouwershaven", "zip": "4318" },
    { "label": "Bruinisse", "name": "Bruinisse", "zip": "4310" },
    { "label": "Burgh-Haamstede", "name": "Burgh-Haamstede", "zip": "4302" },
    {
      "label": "Nieuw- en Sint Joosland",
      "name": "Nieuw- en Sint Joosland",
      "zip": "4339"
    },
    { "label": "Nieuw Namen", "name": "Nieuw Namen", "zip": "4568" },
    { "label": "Nieuwdorp", "name": "Nieuwdorp", "zip": "4455" },
    { "label": "Nieuwerkerk", "name": "Nieuwerkerk", "zip": "4306" },
    { "label": "Nieuwvliet", "name": "Nieuwvliet", "zip": "4504" },
    { "label": "Nisse", "name": "Nisse", "zip": "4443" },
    { "label": "Noordgouwe", "name": "Noordgouwe", "zip": "4317" },
    { "label": "Noordwelle", "name": "Noordwelle", "zip": "4326" },
    { "label": "Oostburg", "name": "Oostburg", "zip": "4500" },
    { "label": "Oostdijk", "name": "Oostdijk", "zip": "4415" },
    { "label": "Oosterland", "name": "Oosterland", "zip": "4307" },
    { "label": "Oostkapelle", "name": "Oostkapelle", "zip": "4356" },
    { "label": "Oost-Souburg", "name": "Oost-Souburg", "zip": "4388" },
    { "label": "Hazerswoude-Dorp", "name": "Hazerswoude-Dorp", "zip": "2391" },
    {
      "label": "Hazerswoude-Rijndijk",
      "name": "Hazerswoude-Rijndijk",
      "zip": "2391"
    },
    { "label": "Heenvliet", "name": "Heenvliet", "zip": "3218" },
    { "label": "Heerjansdam", "name": "Heerjansdam", "zip": "2995" },
    { "label": "Hei- en Boeicop", "name": "Hei- en Boeicop", "zip": "4126" },
    { "label": "Heinenoord", "name": "Heinenoord", "zip": "3274" },
    { "label": "Hekelingen", "name": "Hekelingen", "zip": "3201" },
    { "label": "Numansdorp", "name": "Numansdorp", "zip": "3280" },
    { "label": "Schipluiden", "name": "Schipluiden", "zip": "2636" },
    { "label": "Schoonhoven", "name": "Schoonhoven", "zip": "2870" },
    { "label": "Schoonrewoerd", "name": "Schoonrewoerd", "zip": "4143" },
    { "label": "'s-Gravendeel", "name": "'s-Gravendeel", "zip": "3295" },
    { "label": "Voorschoten", "name": "Voorschoten", "zip": "2253" },
    { "label": "Vrouwenakker", "name": "Vrouwenakker", "zip": "1428" },
    { "label": "Waal", "name": "Waal", "zip": "2968" },
    { "label": "Waarder", "name": "Waarder", "zip": "3466" },
    { "label": "Waddinxveen", "name": "Waddinxveen", "zip": "2740" },
    { "label": "Warmond", "name": "Warmond", "zip": "2360" },
    { "label": "Eelderwolde", "name": "Eelderwolde", "zip": "9766" },
    { "label": "Een", "name": "Een", "zip": "9342" },
    { "label": "Een-West", "name": "Een-West", "zip": "9343" },
    { "label": "Ees", "name": "Ees", "zip": "9536" },
    { "label": "Eesergroen", "name": "Eesergroen", "zip": "9537" },
    { "label": "Eeserveen", "name": "Eeserveen", "zip": "7858" },
    { "label": "Eext", "name": "Eext", "zip": "9463" },
    { "label": "Eexterveen", "name": "Eexterveen", "zip": "9658" },
    {
      "label": "Eexterveenschekanaal",
      "name": "Eexterveenschekanaal",
      "zip": "9659"
    },
    { "label": "Eexterzandvoort", "name": "Eexterzandvoort", "zip": "9464" },
    { "label": "Ekehaar", "name": "Ekehaar", "zip": "9454" },
    { "label": "Eldersloo", "name": "Eldersloo", "zip": "9453" },
    { "label": "Eleveld", "name": "Eleveld", "zip": "9456" },
    { "label": "Elim", "name": "Elim", "zip": "7916" },
    { "label": "Ellertshaar", "name": "Ellertshaar", "zip": "9535" },
    { "label": "Elp", "name": "Elp", "zip": "9442" },
    {
      "label": "Ruinen (Westerveld)",
      "name": "Ruinen (Westerveld)",
      "zip": "7963"
    },
    { "label": "Ruinerwold", "name": "Ruinerwold", "zip": "7960" },
    { "label": "Schipborg", "name": "Schipborg", "zip": "9469" },
    { "label": "Schoonebeek", "name": "Schoonebeek", "zip": "7760" },
    { "label": "Schoonloo", "name": "Schoonloo", "zip": "9443" },
    { "label": "Schoonoord", "name": "Schoonoord", "zip": "7848" },
    { "label": "Sleen", "name": "Sleen", "zip": "7840" },
    { "label": "Smilde", "name": "Smilde", "zip": "9422" },
    {
      "label": "Spier (Midden-Drenthe)",
      "name": "Spier (Midden-Drenthe)",
      "zip": "9417"
    },
    {
      "label": "Spier (Westerveld)",
      "name": "Spier (Westerveld)",
      "zip": "9417"
    },
    {
      "label": "Spijkerboor (Aa en Hunze)",
      "name": "Spijkerboor (Aa en Hunze)",
      "zip": "9656"
    },
    {
      "label": "Steenbergen (Noordenveld)",
      "name": "Steenbergen (Noordenveld)",
      "zip": "9307"
    },
    { "label": "Stieltjeskanaal", "name": "Stieltjeskanaal", "zip": "7756" },
    {
      "label": "Stuifzand (Midden-Drenthe)",
      "name": "Stuifzand (Midden-Drenthe)",
      "zip": "7928"
    },
    {
      "label": "Stuifzand (Hoogeveen)",
      "name": "Stuifzand (Hoogeveen)",
      "zip": "7934"
    },
    { "label": "'t Haantje", "name": "'t Haantje", "zip": "7847" },
    { "label": "Taarlo", "name": "Taarlo", "zip": "9485" },
    { "label": "Ter Aard", "name": "Ter Aard", "zip": "9487" },
    {
      "label": "Tiendeveen (Hoogeveen)",
      "name": "Tiendeveen (Hoogeveen)",
      "zip": "7936"
    },
    {
      "label": "Tiendeveen (Midden-Drenthe)",
      "name": "Tiendeveen (Midden-Drenthe)",
      "zip": "7936"
    },
    { "label": "Tynaarlo", "name": "Tynaarlo", "zip": "8482" },
    { "label": "Ubbena", "name": "Ubbena", "zip": "9492" },
    { "label": "Uffelte", "name": "Uffelte", "zip": "7975" },
    { "label": "Valthe", "name": "Valthe", "zip": "7872" },
    { "label": "Creil", "name": "Creil", "zip": "8312" },
    { "label": "Dronten", "name": "Dronten", "zip": "8250" },
    { "label": "De Wilgen", "name": "De Wilgen", "zip": "9213" },
    { "label": "Dearsum", "name": "Dearsum", "zip": "8644" },
    { "label": "Dedgum", "name": "Dedgum", "zip": "8764" },
    { "label": "Deinum", "name": "Deinum", "zip": "9033" },
    { "label": "Delfstrahuizen", "name": "Delfstrahuizen", "zip": "8508" },
    { "label": "Dijken", "name": "Dijken", "zip": "8528" },
    { "label": "Dokkum", "name": "Dokkum", "zip": "9100" },
    { "label": "Dongjum", "name": "Dongjum", "zip": "8808" },
    { "label": "Doniaga", "name": "Doniaga", "zip": "8516" },
    { "label": "Donkerbroek", "name": "Donkerbroek", "zip": "8435" },
    { "label": "Striep", "name": "Striep", "zip": "8892" },
    { "label": "Stroobos", "name": "Stroobos", "zip": "9871" },
    { "label": "Sumar", "name": "Sumar", "zip": "9262" },
    { "label": "Surhuisterveen", "name": "Surhuisterveen", "zip": "9230" },
    { "label": "Surhuizum", "name": "Surhuizum", "zip": "9283" },
    { "label": "Suwâld", "name": "Suwâld", "zip": "9265" },
    { "label": "Swichum", "name": "Swichum", "zip": "9087" },
    { "label": "Teerns", "name": "Teerns", "zip": "9085" },
    { "label": "Ter Idzard", "name": "Ter Idzard", "zip": "8476" },
    { "label": "Terband", "name": "Terband", "zip": "8449" },
    { "label": "Terherne", "name": "Terherne", "zip": "8493" },
    { "label": "Terkaple", "name": "Terkaple", "zip": "8542" },
    { "label": "Ternaard", "name": "Ternaard", "zip": "9145" },
    { "label": "Teroele", "name": "Teroele", "zip": "8524" },
    { "label": "Tersoal", "name": "Tersoal", "zip": "9014" },
    { "label": "Terwispel", "name": "Terwispel", "zip": "8407" },
    { "label": "Tijnje", "name": "Tijnje", "zip": "8406" },
    { "label": "Tirns", "name": "Tirns", "zip": "8632" },
    { "label": "Tjalhuizum", "name": "Tjalhuizum", "zip": "8772" },
    { "label": "Tjalleberd", "name": "Tjalleberd", "zip": "8458" },
    { "label": "Tjerkgaast", "name": "Tjerkgaast", "zip": "8522" },
    { "label": "Tjerkwerd", "name": "Tjerkwerd", "zip": "8765" },
    { "label": "Triemen", "name": "Triemen", "zip": "9296" },
    { "label": "Twijzel", "name": "Twijzel", "zip": "9286" },
    { "label": "Twijzelerheide", "name": "Twijzelerheide", "zip": "9287" },
    { "label": "Tytsjerk", "name": "Tytsjerk", "zip": "9255" },
    { "label": "Tzum", "name": "Tzum", "zip": "8801" },
    { "label": "Tzummarum", "name": "Tzummarum", "zip": "8850" },
    { "label": "Uitwellingerga", "name": "Uitwellingerga", "zip": "8624" },
    {
      "label": "Berg en Dal (Groesbeek)",
      "name": "Berg en Dal (Groesbeek)",
      "zip": "6570"
    },
    {
      "label": "Berg en Dal (Ubbergen)",
      "name": "Berg en Dal (Ubbergen)",
      "zip": "6572"
    },
    { "label": "Bergharen", "name": "Bergharen", "zip": "6617" },
    { "label": "Bern", "name": "Bern", "zip": "5318" },
    { "label": "Beuningen Gld", "name": "Beuningen Gld", "zip": "6641" },
    { "label": "Beusichem", "name": "Beusichem", "zip": "4112" },
    { "label": "Giesbeek", "name": "Giesbeek", "zip": "6987" },
    { "label": "Gorssel", "name": "Gorssel", "zip": "7213" },
    { "label": "Groenlo", "name": "Groenlo", "zip": "7140" },
    { "label": "Wijnbergen", "name": "Wijnbergen", "zip": "7048" },
    { "label": "Wilp", "name": "Wilp", "zip": "7384" },
    { "label": "Winssen", "name": "Winssen", "zip": "6644" },
    { "label": "Meeden", "name": "Meeden", "zip": "9651" },
    { "label": "Meedhuizen", "name": "Meedhuizen", "zip": "9937" },
    { "label": "Meerstad", "name": "Meerstad", "zip": "9613" },
    { "label": "Mensingeweer", "name": "Mensingeweer", "zip": "9961" },
    { "label": "Middelstum", "name": "Middelstum", "zip": "9990" },
    { "label": "Midwolda", "name": "Midwolda", "zip": "9681" },
    { "label": "Midwolde", "name": "Midwolde", "zip": "9355" },
    { "label": "Muntendam", "name": "Muntendam", "zip": "9649" },
    { "label": "Mussel", "name": "Mussel", "zip": "9584" },
    { "label": "Musselkanaal", "name": "Musselkanaal", "zip": "9580" },
    { "label": "Niebert", "name": "Niebert", "zip": "9365" },
    { "label": "Niehove", "name": "Niehove", "zip": "9882" },
    {
      "label": "Niekerk (Grootegast)",
      "name": "Niekerk (Grootegast)",
      "zip": "9822"
    },
    {
      "label": "Niekerk (De Marne)",
      "name": "Niekerk (De Marne)",
      "zip": "9822"
    },
    { "label": "Nieuw Beerta", "name": "Nieuw Beerta", "zip": "9687" },
    { "label": "Nieuw Scheemda", "name": "Nieuw Scheemda", "zip": "9943" },
    { "label": "Hegelsom", "name": "Hegelsom", "zip": "5963" },
    { "label": "Heibloem", "name": "Heibloem", "zip": "6089" },
    { "label": "Heide", "name": "Heide", "zip": "5812" },
    { "label": "Heijen", "name": "Heijen", "zip": "6598" },
    { "label": "Heijenrath", "name": "Heijenrath", "zip": "6276" },
    {
      "label": "Maastricht-Airport",
      "name": "Maastricht-Airport",
      "zip": "6199"
    },
    { "label": "Stramproy", "name": "Stramproy", "zip": "6039" },
    { "label": "Susteren", "name": "Susteren", "zip": "6101" },
    { "label": "Swalmen", "name": "Swalmen", "zip": "6041" },
    { "label": "Sweikhuizen", "name": "Sweikhuizen", "zip": "6174" },
    { "label": "Swolgen", "name": "Swolgen", "zip": "5866" },
    { "label": "Beers NB", "name": "Beers NB", "zip": "5437" },
    { "label": "Bergeijk", "name": "Bergeijk", "zip": "5570" },
    { "label": "Budel", "name": "Budel", "zip": "6020" },
    { "label": "Budel-Dorplein", "name": "Budel-Dorplein", "zip": "6024" },
    { "label": "Budel-Schoot", "name": "Budel-Schoot", "zip": "6023" },
    { "label": "Castelre", "name": "Castelre", "zip": "5114" },
    { "label": "Casteren", "name": "Casteren", "zip": "5529" },
    { "label": "Chaam", "name": "Chaam", "zip": "4860" },
    { "label": "Cromvoirt", "name": "Cromvoirt", "zip": "5266" },
    { "label": "Nuenen", "name": "Nuenen", "zip": "5670" },
    { "label": "Nuland", "name": "Nuland", "zip": "5390" },
    { "label": "Odiliapeel", "name": "Odiliapeel", "zip": "5409" },
    { "label": "Son", "name": "Son", "zip": "5690" },
    { "label": "Veen", "name": "Veen", "zip": "4261" },
    { "label": "Wernhout", "name": "Wernhout", "zip": "4884" },
    { "label": "Westerbeek", "name": "Westerbeek", "zip": "5843" },
    { "label": "Westerhoven", "name": "Westerhoven", "zip": "5563" },
    { "label": "Wijk en Aalburg", "name": "Wijk en Aalburg", "zip": "4260" },
    { "label": "Wilbertoord", "name": "Wilbertoord", "zip": "5455" },
    { "label": "Willemstad", "name": "Willemstad", "zip": "4797" },
    { "label": "Wintelre", "name": "Wintelre", "zip": "5513" },
    { "label": "Woensdrecht", "name": "Woensdrecht", "zip": "4634" },
    { "label": "Woudrichem", "name": "Woudrichem", "zip": "4285" },
    { "label": "Middenmeer", "name": "Middenmeer", "zip": "1775" },
    { "label": "Midwoud", "name": "Midwoud", "zip": "1679" },
    { "label": "Monnickendam", "name": "Monnickendam", "zip": "1140" },
    { "label": "Muiden", "name": "Muiden", "zip": "1398" },
    { "label": "Muiderberg", "name": "Muiderberg", "zip": "1399" },
    { "label": "Haaksbergen", "name": "Haaksbergen", "zip": "7480" },
    {
      "label": "Haarle (Hellendoorn)",
      "name": "Haarle (Hellendoorn)",
      "zip": "7448"
    },
    {
      "label": "Haarle (Tubbergen)",
      "name": "Haarle (Tubbergen)",
      "zip": "7668"
    },
    { "label": "Harbrinkhoek", "name": "Harbrinkhoek", "zip": "7615" },
    { "label": "Notter", "name": "Notter", "zip": "7467" },
    { "label": "Nutter", "name": "Nutter", "zip": "7638" },
    { "label": "Okkenbroek", "name": "Okkenbroek", "zip": "7435" },
    { "label": "Oldemarkt", "name": "Oldemarkt", "zip": "8375" },
    { "label": "Bunnik", "name": "Bunnik", "zip": "3980" },
    {
      "label": "Bunschoten-Spakenburg",
      "name": "Bunschoten-Spakenburg",
      "zip": "3750"
    },
    { "label": "Cothen", "name": "Cothen", "zip": "3945" },
    { "label": "Maartensdijk", "name": "Maartensdijk", "zip": "3738" },
    { "label": "Mijdrecht", "name": "Mijdrecht", "zip": "3640" },
    { "label": "Zegveld", "name": "Zegveld", "zip": "3471" },
    { "label": "Ossenisse", "name": "Ossenisse", "zip": "4589" },
    { "label": "Oudelande", "name": "Oudelande", "zip": "4436" },
    { "label": "Oud-Vossemeer", "name": "Oud-Vossemeer", "zip": "4697" },
    { "label": "Ouwerkerk", "name": "Ouwerkerk", "zip": "4305" },
    { "label": "Overslag", "name": "Overslag", "zip": "4575" },
    { "label": "Ovezande", "name": "Ovezande", "zip": "4440" },
    { "label": "Philippine", "name": "Philippine", "zip": "4553" },
    { "label": "Poortvliet", "name": "Poortvliet", "zip": "4693" },
    { "label": "Renesse", "name": "Renesse", "zip": "4325" },
    { "label": "Retranchement", "name": "Retranchement", "zip": "4525" },
    { "label": "Rilland", "name": "Rilland", "zip": "4410" },
    { "label": "Ritthem", "name": "Ritthem", "zip": "4389" },
    { "label": "Ameide", "name": "Ameide", "zip": "4233" },
    { "label": "Ammerstol", "name": "Ammerstol", "zip": "2865" },
    { "label": "Arkel", "name": "Arkel", "zip": "4240" },
    { "label": "Den Bommel", "name": "Den Bommel", "zip": "3258" },
    {
      "label": "Den Hoorn (Midden-Delfland)",
      "name": "Den Hoorn (Midden-Delfland)",
      "zip": "2635"
    },
    { "label": "Dirksland", "name": "Dirksland", "zip": "3247" },
    { "label": "Gouderak", "name": "Gouderak", "zip": "2830" },
    { "label": "Goudriaan", "name": "Goudriaan", "zip": "2977" },
    { "label": "Goudswaard", "name": "Goudswaard", "zip": "3267" },
    { "label": "Groot-Ammers", "name": "Groot-Ammers", "zip": "2964" },
    { "label": "Haastrecht", "name": "Haastrecht", "zip": "2850" },
    {
      "label": "Hardinxveld-Giessendam",
      "name": "Hardinxveld-Giessendam",
      "zip": "3370"
    },
    { "label": "Nieuw-Beijerland", "name": "Nieuw-Beijerland", "zip": "3264" },
    { "label": "Nieuwe Wetering", "name": "Nieuwe Wetering", "zip": "2376" },
    {
      "label": "Nieuwerbrug aan den Rijn",
      "name": "Nieuwerbrug aan den Rijn",
      "zip": "2415"
    },
    {
      "label": "Nieuwerkerk aan den IJssel",
      "name": "Nieuwerkerk aan den IJssel",
      "zip": "2761"
    },
    {
      "label": "Rotterdam-Albrandswaard",
      "name": "Rotterdam-Albrandswaard",
      "zip": "3165"
    },
    {
      "label": "Rozenburg (Rotterdam)",
      "name": "Rozenburg (Rotterdam)",
      "zip": "3081"
    }
  ]
}
